station,valid,lon,lat,tmpf,dwpf,drct,sknt,gust,vsby,alti,wxcodes
PNM,2022-05-12 21:15,-93.6082,45.5599,82.40,66.20,110.00,8.00,14.00,,29.76,
FSE,2022-05-12 21:15,-95.7735,47.5928,66.20,57.20,90.00,11.00,15.00,10.00,29.80,
SYN,2022-05-12 21:15,-93.0145,44.4736,93.20,57.40,140.00,13.00,23.00,10.00,29.75,
ADC,2022-05-12 21:15,-95.2109,46.4503,64.40,57.20,90.00,10.00,,10.00,29.75,
CNB,2022-05-12 21:15,-96.2660,44.7295,79.50,71.60,130.00,12.00,21.00,10.00,29.63,
ORB,2022-05-12 21:33,-92.8560,48.0159,55.40,53.60,0.00,0.00,,10.00,29.90,-DZ
EVM,2022-05-12 21:35,-92.4981,47.4251,59.00,55.40,0.00,0.00,,10.00,29.92,-RA
JYG,2022-05-12 21:36,-94.5579,43.9863,91.40,64.40,160.00,22.00,27.00,10.00,29.66,
XWA,2022-05-12 21:51,-103.7505,48.2597,52.00,45.00,30.00,22.00,31.00,10.00,29.77,-RA
IOW,2022-05-12 21:52,-91.5445,41.6394,94.00,59.00,180.00,16.00,26.00,10.00,29.88,
VTN,2022-05-12 21:52,-100.5489,42.8567,71.00,55.00,270.00,23.00,38.00,10.00,29.66,
CID,2022-05-12 21:52,-91.7246,41.8829,92.00,61.00,190.00,19.00,27.00,10.00,29.86,
EST,2022-05-12 21:52,-94.7476,43.4008,93.00,63.00,180.00,27.00,38.00,10.00,29.66,
DVN,2022-05-12 21:52,-90.5948,41.6133,96.00,64.00,160.00,18.00,26.00,10.00,29.92,
MBG,2022-05-12 21:52,-100.4078,45.5464,63.00,59.00,90.00,27.00,34.00,5.00,29.52,BR
IEN,2022-05-12 21:52,-102.5110,43.0225,56.00,41.00,260.00,27.00,41.00,10.00,29.81,
RAP,2022-05-12 21:52,-103.0574,44.0453,60.00,55.00,300.00,15.00,20.00,10.00,29.68,
SUX,2022-05-12 21:52,-96.3795,42.3917,91.00,62.00,200.00,20.00,32.00,9.00,29.67,
OMA,2022-05-12 21:52,-95.8992,41.3103,96.00,65.00,170.00,24.00,35.00,10.00,29.67,
N60,2022-05-12 21:52,-101.4394,47.6458,58.00,53.00,60.00,15.00,30.00,,29.65,
BIS,2022-05-12 21:52,-100.7458,46.7727,65.00,59.00,70.00,19.00,33.00,10.00,29.59,
CDD,2022-05-12 21:53,-92.4830,48.2660,53.60,51.80,0.00,0.00,,10.00,29.95,
DBQ,2022-05-12 21:53,-90.7091,42.3984,92.00,66.00,160.00,19.00,28.00,10.00,29.90,
IML,2022-05-12 21:53,-101.6201,40.5103,70.00,41.00,320.00,30.00,48.00,10.00,29.78,
SNY,2022-05-12 21:53,-102.9847,41.1014,72.00,12.90,280.00,31.00,42.00,10.00,29.85,
MCW,2022-05-12 21:53,-93.3261,43.1544,93.00,61.00,160.00,19.00,30.00,10.00,29.77,
MCK,2022-05-12 21:53,-100.5921,40.2063,94.00,12.90,250.00,24.00,38.00,10.00,29.63,
AXN,2022-05-12 21:53,-95.3947,45.8663,77.00,68.00,110.00,16.00,,10.00,29.68,
BDE,2022-05-12 21:53,-94.6122,48.7284,66.00,54.00,70.00,12.00,,10.00,29.88,
BRD,2022-05-12 21:53,-94.1308,46.4047,71.00,59.00,70.00,9.00,,10.00,29.77,
FNB,2022-05-12 21:53,-95.5920,40.0788,94.00,55.00,180.00,20.00,30.00,10.00,29.75,
HIB,2022-05-12 21:53,-92.8390,47.3866,56.00,54.00,50.00,11.00,,10.00,29.85,-RA
RWF,2022-05-12 21:53,-95.0820,44.5469,91.00,73.00,130.00,14.00,23.00,10.00,29.60,
OWA,2022-05-12 21:53,-93.2606,44.1233,93.20,62.60,140.00,16.00,25.00,10.00,29.76,
STP,2022-05-12 21:53,-93.0600,44.9345,85.00,68.00,130.00,8.00,,10.00,29.73,
AQP,2022-05-12 21:53,-96.0043,45.2275,82.40,71.60,120.00,13.00,23.00,10.00,29.58,
FOZ,2022-05-12 21:53,-93.6502,47.7828,57.20,57.20,80.00,3.00,,10.00,29.94,
XVG,2022-05-12 21:53,-94.2039,46.9900,60.80,57.20,70.00,4.00,,10.00,29.80,
BRL,2022-05-12 21:53,-91.1255,40.7729,90.00,66.00,160.00,12.00,20.00,10.00,29.90,
LWD,2022-05-12 21:53,-93.9005,40.6306,90.00,64.00,180.00,17.00,25.00,10.00,29.82,
OTM,2022-05-12 21:53,-92.4446,41.1008,93.00,63.00,170.00,19.00,28.00,10.00,29.86,
AIA,2022-05-12 21:53,-102.8000,42.0572,60.00,37.00,290.00,17.00,,10.00,29.85,
ORB,2022-05-12 21:53,-92.8560,48.0159,53.60,53.60,0.00,0.00,,10.00,29.92,-VCTSRA
DVP,2022-05-12 21:53,-95.7826,43.9868,91.40,62.60,160.00,23.00,31.00,5.00,29.65,HZ
ETH,2022-05-12 21:53,-96.5435,45.7805,75.20,66.20,100.00,11.00,,10.00,29.62,
FAR,2022-05-12 21:53,-96.8111,46.9253,69.00,59.00,90.00,7.00,,10.00,29.70,
GFK,2022-05-12 21:53,-97.1761,47.9492,64.00,57.00,60.00,16.00,,10.00,29.76,
HEI,2022-05-12 21:53,-102.6560,46.0149,55.00,54.00,40.00,12.00,,0.50,29.58,+TSRA FG
CUT,2022-05-12 21:53,-103.6114,43.7331,43.00,39.00,240.00,18.00,34.00,10.00,29.80,
PIR,2022-05-12 21:53,-100.2860,44.3827,70.00,61.00,260.00,13.00,,10.00,29.52,
ATY,2022-05-12 21:53,-97.1547,44.9140,76.00,70.00,110.00,9.00,21.00,8.00,29.57,
BBW,2022-05-12 21:53,-99.6385,41.4365,78.00,54.00,150.00,15.00,27.00,10.00,29.60,
FCM,2022-05-12 21:53,-93.4607,44.8261,88.00,67.00,110.00,13.00,,10.00,29.70,
PKD,2022-05-12 21:53,-95.0700,46.9000,63.00,56.00,90.00,8.00,,10.00,29.75,
STC,2022-05-12 21:53,-94.0513,45.5433,82.00,67.00,130.00,11.00,18.00,10.00,29.71,
ODX,2022-05-12 21:53,-98.9517,41.6236,75.00,58.00,160.00,10.00,18.00,10.00,29.56,
MIC,2022-05-12 21:53,-93.3511,45.0622,86.00,67.00,130.00,8.00,,10.00,29.71,
AMW,2022-05-12 21:53,-93.6185,41.9904,90.00,69.00,170.00,19.00,27.00,9.00,29.77,
MIW,2022-05-12 21:53,-92.9163,42.1106,91.00,62.00,150.00,18.00,27.00,10.00,29.80,
LBF,2022-05-12 21:53,-100.6690,41.1219,70.00,47.00,300.00,36.00,56.00,10.00,29.70,
GRI,2022-05-12 21:53,-98.3096,40.9675,88.00,62.00,180.00,23.00,36.00,10.00,29.62,VCTS
MHE,2022-05-12 21:53,-98.0386,43.7748,66.00,62.00,200.00,27.00,40.00,2.00,29.63,+RA BR
ICR,2022-05-12 21:53,-99.8422,43.3903,68.00,60.00,280.00,16.00,22.00,10.00,29.57,
CDR,2022-05-12 21:53,-103.0954,42.8376,53.00,38.00,300.00,19.00,31.00,10.00,29.81,
MSP,2022-05-12 21:53,-93.2313,44.8854,87.00,67.00,120.00,12.00,,10.00,29.72,
HSI,2022-05-12 21:53,-98.4279,40.6052,69.00,56.00,160.00,27.00,41.00,6.00,29.67,-RA
BFF,2022-05-12 21:53,-103.5956,41.8740,62.00,35.00,280.00,11.00,,10.00,29.87,
SPW,2022-05-12 21:53,-95.2101,43.1682,96.00,62.00,170.00,30.00,41.00,10.00,29.66,
ABR,2022-05-12 21:53,-98.4200,45.4500,76.00,69.00,90.00,19.00,27.00,10.00,29.51,
MOT,2022-05-12 21:54,-101.2803,48.2594,59.00,50.00,30.00,20.00,27.00,10.00,29.72,
ALO,2022-05-12 21:54,-92.4013,42.5544,93.00,60.00,170.00,18.00,27.00,10.00,29.81,
DSM,2022-05-12 21:54,-93.6531,41.5339,91.00,67.00,190.00,20.00,27.00,10.00,29.79,
INL,2022-05-12 21:54,-93.3956,48.5595,59.00,51.00,80.00,7.00,15.00,10.00,29.90,
TQE,2022-05-12 21:54,-96.1779,41.7635,100.00,62.00,170.00,31.00,43.00,10.00,29.65,
LNK,2022-05-12 21:54,-96.7633,40.8312,94.00,65.00,190.00,26.00,37.00,10.00,29.64,
RST,2022-05-12 21:54,-92.4916,43.9041,94.00,56.00,170.00,19.00,28.00,10.00,29.81,
CCY,2022-05-12 21:55,-92.6132,43.0730,93.20,59.00,190.00,20.00,27.00,10.00,29.81,
IFA,2022-05-12 21:55,-93.2651,42.4691,94.00,64.60,150.00,21.00,27.00,10.00,29.80,
CNC,2022-05-12 21:55,-93.3608,41.0184,89.60,69.80,180.00,17.00,25.00,10.00,29.82,
CSQ,2022-05-12 21:55,-94.3608,41.0188,89.60,66.20,170.00,18.00,30.00,10.00,29.79,
AWG,2022-05-12 21:55,-91.6748,41.2751,95.00,64.40,180.00,14.00,23.00,9.00,29.86,
FSW,2022-05-12 21:55,-91.3267,40.6615,91.40,66.20,170.00,13.00,,10.00,29.90,
EOK,2022-05-12 21:55,-91.4274,40.4615,93.20,68.00,150.00,10.00,16.00,10.00,29.90,
MPZ,2022-05-12 21:55,-91.5122,40.9453,95.00,62.60,170.00,15.00,20.00,10.00,29.89,
ACQ,2022-05-12 21:55,-93.5529,44.0735,91.40,64.40,150.00,17.00,24.00,,29.75,
AEL,2022-05-12 21:55,-93.3672,43.6815,93.20,62.60,160.00,16.00,28.00,10.00,29.75,
PNM,2022-05-12 21:55,-93.6082,45.5599,84.20,68.00,100.00,9.00,15.00,,29.74,
HZE,2022-05-12 21:55,-101.5810,47.2899,57.20,57.20,60.00,12.00,20.00,10.00,29.66,TS
7L2,2022-05-12 21:55,-100.2456,46.2206,62.60,62.60,80.00,21.00,29.00,10.00,29.58,
06D,2022-05-12 21:55,-99.6208,48.8844,53.60,55.40,50.00,21.00,27.00,10.00,29.82,
D60,2022-05-12 21:55,-102.8974,48.3803,50.00,50.00,40.00,19.00,,10.00,29.81,-DZ
DLH,2022-05-12 21:55,-92.1936,46.8421,58.00,54.00,40.00,9.00,,10.00,29.90,
IBM,2022-05-12 21:55,-103.6774,41.1881,66.20,16.50,270.00,23.00,38.00,10.00,29.89,
AIT,2022-05-12 21:55,-93.6768,46.5484,66.20,57.20,90.00,12.00,22.00,10.00,29.80,VCTS
AUM,2022-05-12 21:55,-92.9333,43.6647,93.20,60.80,170.00,16.00,24.00,10.00,29.79,
GHW,2022-05-12 21:55,-95.3204,45.6439,78.80,69.80,100.00,21.00,27.00,10.00,29.65,
HCO,2022-05-12 21:55,-96.9430,48.7527,68.00,55.40,50.00,15.00,,10.00,29.82,
ULM,2022-05-12 21:55,-94.5000,44.3200,93.20,64.40,160.00,15.00,20.00,10.00,29.65,
OGA,2022-05-12 21:55,-101.7697,41.1195,69.30,32.00,300.00,28.00,39.00,10.00,29.80,
BJI,2022-05-12 21:55,-94.9337,47.5094,60.30,56.30,80.00,9.00,,10.00,29.81,
COQ,2022-05-12 21:55,-92.5036,46.7011,60.80,55.40,60.00,10.00,15.00,10.00,29.86,
DTL,2022-05-12 21:55,-95.8856,46.8252,64.40,59.00,90.00,15.00,,10.00,29.72,
ELO,2022-05-12 21:55,-91.8371,47.8287,57.20,57.20,30.00,3.00,,10.00,29.94,-RA
FSE,2022-05-12 21:55,-95.7735,47.5928,64.40,55.40,70.00,8.00,,10.00,29.78,
HCD,2022-05-12 21:55,-94.3825,44.8599,83.00,73.40,90.00,13.00,18.00,10.00,29.68,
MJQ,2022-05-12 21:55,-94.9865,43.6500,91.40,57.20,170.00,18.00,31.00,10.00,29.67,
MVE,2022-05-12 21:55,-95.7103,44.9691,82.40,69.80,160.00,23.00,27.00,10.00,29.57,
JMR,2022-05-12 21:55,-93.2718,45.8861,75.20,60.80,90.00,7.00,17.00,10.00,29.80,
PQN,2022-05-12 21:55,-96.3004,43.9821,87.80,66.20,190.00,19.00,27.00,10.00,29.62,
RGK,2022-05-12 21:55,-92.4868,44.5915,93.20,57.20,160.00,11.00,,10.00,29.75,
ROX,2022-05-12 21:55,-95.6971,48.8560,62.60,55.40,60.00,19.00,,10.00,29.86,
TWM,2022-05-12 21:55,-91.7450,47.0492,55.40,53.60,320.00,7.00,,10.00,29.91,
ONA,2022-05-12 21:55,-91.7083,44.0772,91.40,68.00,150.00,6.00,18.00,10.00,29.81,
HJH,2022-05-12 21:55,-97.5870,40.1523,89.60,62.80,210.00,18.00,24.00,10.00,29.72,VCTS
MLE,2022-05-12 21:55,-96.1120,41.1960,94.00,62.40,190.00,15.00,32.00,10.00,29.69,
AFK,2022-05-12 21:55,-95.8657,40.6069,93.20,57.20,190.00,25.00,36.00,10.00,29.72,
TIF,2022-05-12 21:55,-100.5690,41.9622,61.50,53.80,290.00,34.00,47.00,5.00,29.70,-VCTSRA
LCG,2022-05-12 21:55,-96.9814,42.2419,67.30,63.50,240.00,22.00,39.00,10.00,29.71,-TSRA
JYR,2022-05-12 21:55,-97.6228,40.8967,87.80,64.40,190.00,25.00,32.00,10.00,29.67,VCTS
DYT,2022-05-12 21:55,-92.0434,46.7219,50.00,50.00,360.00,11.00,,10.00,29.88,
FGN,2022-05-12 21:55,-94.9028,49.3183,55.40,46.40,220.00,3.00,,10.00,29.91,
GYL,2022-05-12 21:55,-94.0812,44.7560,83.00,72.30,100.00,11.00,,10.00,29.68,
DXX,2022-05-12 21:55,-96.1779,44.9864,82.40,73.40,120.00,14.00,18.00,10.00,29.60,
LVN,2022-05-12 21:55,-93.2273,44.6252,91.40,57.20,140.00,12.00,18.00,10.00,29.73,
MZH,2022-05-12 21:55,-92.8048,46.4186,66.20,55.40,40.00,10.00,16.00,10.00,29.86,
BDH,2022-05-12 21:55,-95.1304,45.1177,82.40,69.80,110.00,21.00,27.00,10.00,29.66,
CFE,2022-05-12 21:55,-93.8433,45.1590,80.60,68.00,120.00,11.00,17.00,10.00,29.71,
TOB,2022-05-12 21:55,-92.8315,44.0180,93.20,53.60,160.00,20.00,33.00,10.00,29.80,
Y63,2022-05-12 21:55,-95.9920,45.9861,73.60,67.30,100.00,14.00,19.00,10.00,29.65,
GDB,2022-05-12 21:55,-95.5560,44.7533,86.00,73.20,90.00,15.00,23.00,10.00,29.60,
14Y,2022-05-12 21:55,-94.8739,45.8983,73.40,64.40,100.00,13.00,17.00,10.00,29.71,
LYV,2022-05-12 21:55,-96.2158,43.6212,89.60,55.40,190.00,24.00,30.00,10.00,29.63,
HZX,2022-05-12 21:55,-93.3098,46.6188,64.40,57.20,90.00,20.00,27.00,10.00,29.83,VCTS
OVL,2022-05-12 21:55,-95.0328,44.7786,84.20,71.60,120.00,14.00,21.00,10.00,29.62,
VVV,2022-05-12 21:55,-96.4244,45.3057,77.00,71.60,120.00,12.00,,10.00,29.60,
PEX,2022-05-12 21:55,-94.7466,45.3723,80.60,68.00,130.00,16.00,20.00,10.00,29.68,
PWC,2022-05-12 21:55,-94.3817,46.7248,64.40,59.00,100.00,8.00,,10.00,29.82,
FKA,2022-05-12 21:55,-92.1797,43.6767,91.40,59.40,170.00,20.00,27.00,7.00,29.83,
D39,2022-05-12 21:55,-94.9334,45.7066,77.50,69.40,100.00,16.00,20.00,10.00,29.67,
SYN,2022-05-12 21:55,-93.0145,44.4736,93.20,58.50,170.00,17.00,25.00,10.00,29.73,
SAZ,2022-05-12 21:55,-94.8066,46.3809,69.80,60.80,80.00,8.00,,10.00,29.73,
21D,2022-05-12 21:55,-92.8557,44.9975,80.60,68.00,90.00,9.00,,10.00,29.76,
RRT,2022-05-12 21:55,-95.3483,48.9414,53.60,48.20,40.00,14.00,21.00,10.00,29.88,
Y19,2022-05-12 21:55,-100.8944,46.7680,62.60,62.60,80.00,14.00,22.00,10.00,29.61,
RUG,2022-05-12 21:55,-100.0243,48.3904,57.20,53.60,60.00,27.00,34.00,10.00,29.76,
08D,2022-05-12 21:55,-102.4064,48.3008,51.80,51.80,40.00,23.00,30.00,7.00,29.74,RA
BAC,2022-05-12 21:55,-98.0180,46.9412,62.60,62.60,50.00,10.00,,1.50,29.69,VCTS UP BR
S25,2022-05-12 21:55,-103.2552,47.7966,50.00,50.00,30.00,15.00,20.00,7.00,29.75,RA
ICL,2022-05-12 21:55,-95.0223,40.7242,93.20,59.00,190.00,26.00,33.00,10.00,29.77,
IKV,2022-05-12 21:55,-93.5695,41.6878,91.40,68.00,170.00,14.00,24.00,10.00,29.79,
AIO,2022-05-12 21:55,-95.0465,41.4059,91.40,68.00,170.00,22.00,31.00,10.00,29.71,
CKP,2022-05-12 21:55,-95.5538,42.7304,94.00,57.70,180.00,25.00,33.00,10.00,29.67,
CBF,2022-05-12 21:55,-95.7604,41.2611,91.40,60.80,180.00,22.00,34.00,10.00,29.68,
DEH,2022-05-12 21:55,-91.7433,43.2755,91.40,59.00,170.00,11.00,21.00,10.00,29.84,
OLZ,2022-05-12 21:55,-91.9760,42.6831,93.20,60.80,170.00,20.00,27.00,10.00,29.85,
OOA,2022-05-12 21:55,-92.4919,41.2273,96.30,58.80,190.00,17.00,,10.00,29.86,
RDK,2022-05-12 21:55,-95.2624,41.0106,95.00,57.20,190.00,25.00,37.00,10.00,29.72,
SHL,2022-05-12 21:55,-95.8353,43.2082,95.00,57.20,180.00,21.00,33.00,10.00,29.63,
SDA,2022-05-12 21:55,-95.4112,40.7533,95.00,55.40,170.00,21.00,30.00,9.00,29.71,
SLB,2022-05-12 21:55,-95.2399,42.5972,95.00,62.60,160.00,30.00,41.00,9.00,29.68,
AXA,2022-05-12 21:55,-94.2724,43.0796,95.00,64.40,170.00,24.00,31.00,10.00,29.70,
ADU,2022-05-12 21:55,-94.9204,41.6994,91.40,64.40,170.00,16.00,30.00,10.00,29.74,
CIN,2022-05-12 21:55,-94.7889,42.0444,93.20,64.40,180.00,27.00,35.00,9.00,29.71,
FXY,2022-05-12 21:55,-93.6237,43.2323,95.00,60.80,150.00,21.00,27.00,10.00,29.74,
HNR,2022-05-12 21:55,-95.3355,41.5834,95.00,66.20,180.00,23.00,33.00,10.00,29.69,
LRJ,2022-05-12 21:55,-96.1923,42.7754,93.20,60.80,180.00,26.00,34.00,2.50,29.62,HZ
MUT,2022-05-12 21:55,-91.1406,41.3670,93.20,68.00,160.00,14.00,20.00,10.00,29.88,
I75,2022-05-12 21:55,-93.6876,41.0472,91.40,67.30,150.00,13.00,22.00,7.00,29.82,
PRO,2022-05-12 21:55,-94.1637,41.8278,93.70,66.00,160.00,26.00,31.00,10.00,29.75,
MXO,2022-05-12 21:55,-91.1605,42.2204,95.00,64.40,160.00,18.00,24.00,10.00,29.87,
EBS,2022-05-12 21:55,-93.8691,42.4392,93.20,69.80,170.00,24.00,30.00,10.00,29.73,
BNW,2022-05-12 21:55,-93.8486,42.0486,93.20,68.00,170.00,20.00,,10.00,29.79,
CAV,2022-05-12 21:55,-93.7593,42.7430,95.00,66.20,180.00,24.00,31.00,10.00,29.75,
DNS,2022-05-12 21:55,-95.3800,41.9842,91.40,62.60,170.00,24.00,32.00,7.00,29.70,
FFL,2022-05-12 21:55,-91.9834,41.0521,91.40,64.40,160.00,15.00,22.00,10.00,29.88,
TNU,2022-05-12 21:55,-93.0190,41.6701,93.20,62.60,170.00,18.00,25.00,10.00,29.81,
96D,2022-05-12 21:55,-97.9028,48.9406,64.40,53.60,40.00,14.00,20.00,10.00,29.84,
EVM,2022-05-12 21:55,-92.4981,47.4251,59.00,55.40,340.00,6.00,,10.00,29.96,-VCTSRA
ANW,2022-05-12 21:55,-99.9930,42.5792,81.30,55.80,210.00,9.00,,10.00,29.57,
PMV,2022-05-12 21:55,-95.9179,40.9502,94.30,60.80,170.00,22.00,29.00,10.00,29.71,
AHQ,2022-05-12 21:55,-96.5946,41.2406,96.00,59.70,180.00,27.00,32.00,10.00,29.67,
CKN,2022-05-12 21:55,-96.6214,47.8417,64.40,,90.00,15.00,,10.00,29.75,
FBL,2022-05-12 21:55,-93.3108,44.3247,93.20,60.80,120.00,17.00,21.00,10.00,29.75,
FFM,2022-05-12 21:55,-96.1567,46.2844,69.80,62.60,90.00,11.00,15.00,10.00,29.63,
CNB,2022-05-12 21:55,-96.2660,44.7295,82.00,72.50,110.00,10.00,,10.00,29.59,
04W,2022-05-12 21:55,-92.8952,46.0229,78.80,60.80,70.00,9.00,15.00,10.00,29.81,
LXL,2022-05-12 21:55,-94.3469,45.9492,75.20,64.40,110.00,13.00,20.00,10.00,29.74,
JKJ,2022-05-12 21:55,-96.6640,46.8393,68.00,60.80,90.00,8.00,,10.00,29.70,
VWU,2022-05-12 21:55,-94.5167,48.1539,59.00,53.60,90.00,16.00,19.00,10.00,29.87,VCTS
3N8,2022-05-12 21:55,-95.9281,47.2605,65.50,58.50,100.00,14.00,17.00,10.00,29.75,
HPT,2022-05-12 21:55,-93.2244,42.7175,91.40,59.00,170.00,21.00,25.00,10.00,29.79,
SXK,2022-05-12 21:55,-96.1614,42.9858,91.40,62.60,180.00,29.00,41.00,10.00,29.62,
TVK,2022-05-12 21:55,-92.8983,40.6832,91.40,62.60,160.00,13.00,19.00,10.00,29.88,
20U,2022-05-12 21:55,-103.9821,46.9252,50.00,50.00,50.00,15.00,,1.00,29.74,VCTS RA
BWW,2022-05-12 21:55,-103.3007,46.1655,51.80,51.80,360.00,8.00,16.00,2.00,29.65,VCTS BR
9D7,2022-05-12 21:55,-99.2364,48.4800,59.00,59.00,50.00,22.00,,10.00,29.82,
46D,2022-05-12 21:55,-99.1513,47.4511,59.00,59.00,70.00,27.00,33.00,0.75,29.69,+TSRA
2C8,2022-05-12 21:55,-97.6320,48.7837,66.20,53.60,30.00,14.00,,9.00,29.82,
D50,2022-05-12 21:55,-103.2973,48.9285,53.60,41.00,50.00,19.00,26.00,10.00,29.85,
D57,2022-05-12 21:55,-101.8602,46.8128,55.40,55.40,40.00,25.00,32.00,1.00,29.56,-TSRA
GAF,2022-05-12 21:55,-97.3709,48.4047,66.20,57.20,40.00,19.00,,10.00,29.79,
GWR,2022-05-12 21:55,-97.6435,46.2187,64.40,64.40,80.00,17.00,23.00,7.00,29.62,
5H4,2022-05-12 21:55,-99.9317,47.7912,60.80,57.20,60.00,23.00,29.00,10.00,29.71,
D55,2022-05-12 21:55,-98.3937,48.7531,62.60,57.20,50.00,22.00,,10.00,29.83,
2D5,2022-05-12 21:55,-98.0799,46.1731,64.40,64.40,90.00,18.00,24.00,9.00,29.61,
S32,2022-05-12 21:55,-98.1059,47.4228,62.60,62.60,60.00,15.00,,10.00,29.76,
BWP,2022-05-12 21:55,-96.6074,46.2441,68.00,62.60,60.00,9.00,,10.00,29.64,
BTN,2022-05-12 21:55,-97.7428,45.8150,69.80,68.00,100.00,23.00,29.00,10.00,29.57,
MDS,2022-05-12 21:55,-97.0859,44.0160,86.00,66.20,160.00,15.00,22.00,10.00,29.56,
PHP,2022-05-12 21:55,-101.6000,44.0500,60.00,57.00,250.00,13.00,,10.00,29.66,
SPF,2022-05-12 21:55,-103.7830,44.4803,51.80,51.80,310.00,11.00,,10.00,29.75,
BVN,2022-05-12 21:55,-98.0558,41.7286,71.20,60.30,130.00,5.00,,10.00,29.62,
BTA,2022-05-12 21:55,-96.1090,41.4148,94.80,62.80,170.00,26.00,33.00,10.00,29.69,
OXV,2022-05-12 21:55,-93.1114,41.2984,91.40,66.20,170.00,17.00,27.00,9.00,29.82,
SGS,2022-05-12 21:55,-93.0329,44.8571,88.70,65.00,150.00,6.00,,10.00,29.74,
FET,2022-05-12 21:55,-96.5200,41.4500,95.00,62.00,170.00,16.00,30.00,10.00,29.67,
HDE,2022-05-12 21:55,-99.3365,40.4521,72.70,60.00,200.00,16.00,,10.00,29.65,VCTS
ROS,2022-05-12 21:55,-92.9530,45.6980,81.00,62.00,110.00,9.00,15.00,10.00,29.76,
TKC,2022-05-12 21:55,-95.6072,44.2491,93.60,56.00,180.00,18.00,27.00,10.00,29.61,
GGI,2022-05-12 21:55,-92.7332,41.7097,93.60,65.00,160.00,18.00,21.00,10.00,29.85,
PEA,2022-05-12 21:55,-92.9431,41.3989,92.50,65.00,160.00,16.00,24.00,10.00,29.83,
9V9,2022-05-12 21:55,-99.3183,43.7667,77.00,69.00,350.00,5.00,,10.00,29.48,-RA
AUH,2022-05-12 21:55,-97.9946,40.8941,88.20,64.00,180.00,23.00,31.00,10.00,29.66,TS
Y49,2022-05-12 21:55,-94.6453,47.1595,56.70,56.00,40.00,6.00,,10.00,29.80,VCTS
GRN,2022-05-12 21:55,-102.1753,42.8060,53.60,38.00,270.00,23.00,38.00,10.00,29.83,
BIE,2022-05-12 21:55,-96.7541,40.3013,93.60,62.00,180.00,14.00,21.00,10.00,29.69,
LXN,2022-05-12 21:55,-99.7759,40.7904,76.00,62.00,180.00,21.00,26.00,10.00,29.62,
9MN,2022-05-12 21:55,-92.4831,44.0198,94.00,54.00,130.00,17.00,26.00,10.00,29.81,
HON,2022-05-12 21:55,-98.2286,44.3852,85.00,67.00,150.00,12.00,21.00,10.00,29.46,TS
VTI,2022-05-12 21:55,-92.0248,42.2176,96.00,57.70,160.00,15.00,21.00,10.00,29.84,
D07,2022-05-12 21:56,-102.0200,45.0300,59.00,59.00,130.00,5.00,,,29.58,
GPZ,2022-05-12 21:56,-93.5097,47.2111,56.00,55.00,,6.00,,2.50,29.86,-TSRA BR
OTG,2022-05-12 21:56,-95.5792,43.6551,93.00,63.00,180.00,22.00,33.00,10.00,29.66,
OLU,2022-05-12 21:56,-97.3426,41.4480,90.00,68.00,170.00,15.00,27.00,10.00,29.62,
EAR,2022-05-12 21:56,-99.0068,40.7270,77.00,59.00,200.00,18.00,24.00,10.00,29.64,
OFK,2022-05-12 21:56,-97.4351,41.9855,64.00,61.00,360.00,4.00,,10.00,29.65,VCTS
GNA,2022-05-12 21:56,-90.3457,47.7453,49.00,46.00,80.00,14.00,,,29.85,
DIK,2022-05-12 21:56,-102.8019,46.7973,51.00,50.00,30.00,21.00,29.00,1.75,29.57,-RA BR
JMS,2022-05-12 21:56,-98.6800,46.9300,62.00,59.00,30.00,14.00,,1.50,29.67,-RA BR
CWI,2022-05-12 21:56,-90.3328,41.8295,93.00,68.00,180.00,18.00,21.00,10.00,29.91,
MML,2022-05-12 21:56,-95.8200,44.4500,88.00,75.00,120.00,13.00,,10.00,29.59,
RYM,2022-05-12 21:56,-94.3575,46.0895,77.50,64.80,120.00,16.00,22.00,10.00,29.72,
MIB,2022-05-12 21:56,-101.3580,48.4158,59.20,48.20,80.00,17.00,,10.00,29.71,
DVL,2022-05-12 21:56,-98.9083,48.1146,62.00,55.00,40.00,14.00,21.00,10.00,29.79,
RDR,2022-05-12 21:56,-97.4012,47.9611,63.70,57.40,70.00,14.00,,10.00,29.77,
BKX,2022-05-12 21:56,-96.8169,44.3048,87.00,68.00,160.00,16.00,21.00,10.00,29.58,
RCA,2022-05-12 21:56,-103.1036,44.1451,58.00,54.00,340.00,10.00,,10.00,29.66,
YKN,2022-05-12 21:56,-97.3859,42.9167,65.00,61.00,260.00,14.00,32.00,8.00,29.66,TSRA
2WX,2022-05-12 21:56,-103.5464,45.6044,52.00,51.00,300.00,15.00,,,29.66,
FRM,2022-05-12 21:56,-94.4156,43.6439,93.00,67.00,160.00,22.00,28.00,10.00,29.67,
TVF,2022-05-12 21:56,-96.1850,48.0657,64.00,58.00,70.00,16.00,,10.00,29.79,
MKT,2022-05-12 21:56,-93.9200,44.2200,95.00,65.00,160.00,22.00,31.00,10.00,29.69,
FOD,2022-05-12 21:56,-94.2032,42.5497,93.00,67.00,180.00,16.00,23.00,10.00,29.74,
OFF,2022-05-12 21:56,-95.9125,41.1183,94.60,62.00,170.00,23.00,33.00,8.00,29.70,
FSD,2022-05-12 21:56,-96.7536,43.5769,91.00,62.00,180.00,22.00,35.00,10.00,29.60,
8D3,2022-05-12 21:56,-96.9914,45.6689,69.00,65.00,20.00,4.00,,,29.62,
PNM,2022-05-12 22:15,-93.6082,45.5599,84.20,68.00,70.00,10.00,,,29.73,
FSE,2022-05-12 22:15,-95.7735,47.5928,64.40,55.40,80.00,9.00,,10.00,29.77,
ADC,2022-05-12 22:15,-95.2109,46.4503,68.00,59.00,100.00,11.00,,10.00,29.70,
CNB,2022-05-12 22:15,-96.2660,44.7295,82.00,73.40,120.00,10.00,18.00,10.00,29.58,
SYN,2022-05-12 22:15,-93.0145,44.4736,93.00,58.00,160.00,17.00,25.00,10.00,29.72,
ORB,2022-05-12 22:33,-92.8560,48.0159,53.60,53.60,80.00,5.00,,3.00,29.87,+RA
EVM,2022-05-12 22:35,-92.4981,47.4251,55.40,55.40,70.00,11.00,21.00,10.00,29.83,-TSRA
JYG,2022-05-12 22:36,-94.5579,43.9863,89.60,64.40,160.00,22.00,27.00,10.00,29.65,
XWA,2022-05-12 22:51,-103.7505,48.2597,50.00,44.00,40.00,20.00,27.00,10.00,29.75,-RA
N60,2022-05-12 22:52,-101.4394,47.6458,58.00,52.00,,3.00,16.00,,29.72,
CID,2022-05-12 22:52,-91.7246,41.8829,91.00,59.00,180.00,20.00,30.00,10.00,29.84,
DVN,2022-05-12 22:52,-90.5948,41.6133,94.00,64.00,150.00,16.00,25.00,10.00,29.90,
MBG,2022-05-12 22:52,-100.4078,45.5464,64.00,61.00,80.00,16.00,27.00,4.00,29.49,BR
IEN,2022-05-12 22:52,-102.5110,43.0225,58.00,39.00,250.00,14.00,25.00,10.00,29.79,
RAP,2022-05-12 22:52,-103.0574,44.0453,58.00,45.00,260.00,10.00,,10.00,29.70,
EST,2022-05-12 22:52,-94.7476,43.4008,90.00,65.00,170.00,25.00,36.00,10.00,29.68,
SUX,2022-05-12 22:52,-96.3795,42.3917,75.00,62.00,,3.00,,10.00,29.65,
BIS,2022-05-12 22:52,-100.7458,46.7727,61.00,58.00,70.00,26.00,41.00,10.00,29.52,
IOW,2022-05-12 22:52,-91.5445,41.6394,92.00,60.00,170.00,16.00,23.00,10.00,29.86,
OMA,2022-05-12 22:52,-95.8992,41.3103,96.00,58.00,170.00,19.00,35.00,10.00,29.67,
VTN,2022-05-12 22:52,-100.5489,42.8567,65.00,42.00,280.00,34.00,49.00,6.00,29.70,HZ
CDD,2022-05-12 22:53,-92.4830,48.2660,53.60,51.80,0.00,0.00,,10.00,29.94,
IML,2022-05-12 22:53,-101.6201,40.5103,73.00,34.00,320.00,23.00,40.00,10.00,29.80,
DBQ,2022-05-12 22:53,-90.7091,42.3984,91.00,66.00,180.00,16.00,25.00,10.00,29.88,
SNY,2022-05-12 22:53,-102.9847,41.1014,71.00,16.00,290.00,28.00,41.00,10.00,29.85,
MCW,2022-05-12 22:53,-93.3261,43.1544,91.00,57.00,160.00,23.00,33.00,10.00,29.75,
MCK,2022-05-12 22:53,-100.5921,40.2063,76.00,43.00,320.00,28.00,42.00,6.00,29.74,HZ
BDE,2022-05-12 22:53,-94.6122,48.7284,66.00,54.00,70.00,12.00,,10.00,29.84,
BRD,2022-05-12 22:53,-94.1308,46.4047,73.00,59.00,80.00,9.00,20.00,10.00,29.71,
HIB,2022-05-12 22:53,-92.8390,47.3866,55.00,54.00,10.00,6.00,,4.00,29.85,RA BR
MSP,2022-05-12 22:53,-93.2313,44.8854,92.00,59.00,170.00,20.00,29.00,10.00,29.67,
MIC,2022-05-12 22:53,-93.3511,45.0622,91.00,64.00,140.00,16.00,34.00,10.00,29.65,
FCM,2022-05-12 22:53,-93.4607,44.8261,92.00,61.00,150.00,17.00,29.00,10.00,29.65,
OWA,2022-05-12 22:53,-93.2606,44.1233,93.20,60.80,140.00,20.00,30.00,10.00,29.72,
RWF,2022-05-12 22:53,-95.0820,44.5469,90.00,68.00,150.00,17.00,,10.00,29.62,
STC,2022-05-12 22:53,-94.0513,45.5433,84.00,66.00,90.00,12.00,18.00,10.00,29.66,
BFF,2022-05-12 22:53,-103.5956,41.8740,65.00,34.00,260.00,22.00,37.00,10.00,29.86,
AQP,2022-05-12 22:53,-96.0043,45.2275,82.40,71.60,120.00,12.00,21.00,10.00,29.56,
FOZ,2022-05-12 22:53,-93.6502,47.7828,57.20,55.40,50.00,7.00,16.00,10.00,29.90,
XVG,2022-05-12 22:53,-94.2039,46.9900,60.80,57.20,40.00,6.00,,10.00,29.76,
AMW,2022-05-12 22:53,-93.6185,41.9904,89.00,68.00,170.00,17.00,34.00,6.00,29.76,HZ
LWD,2022-05-12 22:53,-93.9005,40.6306,89.00,63.00,170.00,13.00,23.00,10.00,29.81,
OTM,2022-05-12 22:53,-92.4446,41.1008,91.00,63.00,170.00,16.00,28.00,10.00,29.84,
SPW,2022-05-12 22:53,-95.2101,43.1682,92.00,63.00,160.00,29.00,40.00,10.00,29.66,
AIA,2022-05-12 22:53,-102.8000,42.0572,64.00,28.90,260.00,27.00,38.00,10.00,29.83,
ORB,2022-05-12 22:53,-92.8560,48.0159,53.60,53.60,40.00,4.00,,7.00,29.89,RA
ETH,2022-05-12 22:53,-96.5435,45.7805,75.20,69.80,90.00,6.00,,10.00,29.59,
DVP,2022-05-12 22:53,-95.7826,43.9868,86.50,62.40,210.00,21.00,35.00,5.00,29.69,HZ
MHE,2022-05-12 22:53,-98.0386,43.7748,66.00,59.00,80.00,12.00,,10.00,29.53,
PIR,2022-05-12 22:53,-100.2860,44.3827,66.00,57.00,260.00,25.00,35.00,10.00,29.53,
ATY,2022-05-12 22:53,-97.1547,44.9140,75.00,70.00,110.00,12.00,22.00,8.00,29.54,VCTS
CDR,2022-05-12 22:53,-103.0954,42.8376,57.00,40.00,270.00,19.00,24.00,10.00,29.81,
HEI,2022-05-12 22:53,-102.6560,46.0149,55.00,53.00,290.00,8.00,,0.50,29.60,TSRA FG
AXN,2022-05-12 22:53,-95.3947,45.8663,77.00,69.00,110.00,14.00,22.00,10.00,29.65,
FNB,2022-05-12 22:53,-95.5920,40.0788,93.00,56.00,170.00,21.00,33.00,10.00,29.73,
ODX,2022-05-12 22:53,-98.9517,41.6236,75.00,58.00,180.00,17.00,24.00,10.00,29.60,
PKD,2022-05-12 22:53,-95.0700,46.9000,63.00,56.00,70.00,12.00,19.00,10.00,29.72,
STP,2022-05-12 22:53,-93.0600,44.9345,91.00,62.00,160.00,16.00,24.00,10.00,29.67,
MIW,2022-05-12 22:53,-92.9163,42.1106,90.00,62.00,160.00,19.00,29.00,10.00,29.78,
GRI,2022-05-12 22:53,-98.3096,40.9675,72.00,51.00,160.00,17.00,36.00,10.00,29.66,
ABR,2022-05-12 22:53,-98.4200,45.4500,75.00,69.00,90.00,13.00,23.00,8.00,29.49,VCTS
CUT,2022-05-12 22:53,-103.6114,43.7331,43.00,38.00,240.00,15.00,25.00,10.00,29.79,
ICR,2022-05-12 22:53,-99.8422,43.3903,68.00,58.00,260.00,25.00,35.00,10.00,29.62,
HSI,2022-05-12 22:53,-98.4279,40.6052,69.00,53.00,170.00,10.00,18.00,10.00,29.69,
FAR,2022-05-12 22:53,-96.8111,46.9253,65.00,60.00,80.00,14.00,20.00,10.00,29.63,
BRL,2022-05-12 22:53,-91.1255,40.7729,89.00,65.00,160.00,10.00,18.00,10.00,29.89,
LBF,2022-05-12 22:53,-100.6690,41.1219,71.00,38.00,310.00,28.00,42.00,10.00,29.75,
GFK,2022-05-12 22:53,-97.1761,47.9492,62.00,58.00,50.00,16.00,25.00,8.00,29.70,-TSRA
BBW,2022-05-12 22:53,-99.6385,41.4365,69.00,53.00,300.00,36.00,52.00,10.00,29.70,-RA
LNK,2022-05-12 22:54,-96.7633,40.8312,92.00,64.00,200.00,18.00,34.00,10.00,29.68,
DSM,2022-05-12 22:54,-93.6531,41.5339,91.00,66.00,160.00,23.00,30.00,10.00,29.76,
RST,2022-05-12 22:54,-92.4916,43.9041,92.00,57.00,170.00,20.00,30.00,10.00,29.78,
MOT,2022-05-12 22:54,-101.2803,48.2594,59.00,50.00,20.00,17.00,26.00,10.00,29.68,
INL,2022-05-12 22:54,-93.3956,48.5595,59.00,51.00,100.00,11.00,,10.00,29.88,
TQE,2022-05-12 22:54,-96.1779,41.7635,98.00,62.00,180.00,29.00,38.00,10.00,29.65,
ALO,2022-05-12 22:54,-92.4013,42.5544,92.00,61.00,170.00,21.00,27.00,10.00,29.79,
S32,2022-05-12 22:55,-98.1059,47.4228,60.80,60.80,320.00,17.00,24.00,1.50,29.74,+RA
OXV,2022-05-12 22:55,-93.1114,41.2984,91.40,66.20,170.00,17.00,,9.00,29.80,
CCY,2022-05-12 22:55,-92.6132,43.0730,91.40,60.80,160.00,17.00,24.00,10.00,29.78,
IFA,2022-05-12 22:55,-93.2651,42.4691,92.50,63.70,160.00,21.00,28.00,10.00,29.78,
CNC,2022-05-12 22:55,-93.3608,41.0184,89.60,66.20,160.00,18.00,,10.00,29.81,
CSQ,2022-05-12 22:55,-94.3608,41.0188,89.60,64.40,180.00,20.00,28.00,10.00,29.78,
FSW,2022-05-12 22:55,-91.3267,40.6615,89.60,66.20,160.00,6.00,,10.00,29.89,
AWG,2022-05-12 22:55,-91.6748,41.2751,93.20,62.60,160.00,16.00,21.00,9.00,29.85,
ACQ,2022-05-12 22:55,-93.5529,44.0735,91.40,62.60,150.00,18.00,25.00,,29.72,
EOK,2022-05-12 22:55,-91.4274,40.4615,91.40,68.00,160.00,9.00,17.00,10.00,29.89,
MPZ,2022-05-12 22:55,-91.5122,40.9453,91.40,62.60,170.00,15.00,,10.00,29.88,
AEL,2022-05-12 22:55,-93.3672,43.6815,93.20,60.80,160.00,18.00,27.00,10.00,29.72,
SGS,2022-05-12 22:55,-93.0329,44.8571,92.80,57.20,160.00,13.00,19.00,10.00,29.68,
PNM,2022-05-12 22:55,-93.6082,45.5599,84.20,68.00,90.00,8.00,,,29.69,
HZE,2022-05-12 22:55,-101.5810,47.2899,57.20,57.20,40.00,17.00,24.00,10.00,29.58,VCTS
D55,2022-05-12 22:55,-98.3937,48.7531,60.80,57.20,60.00,20.00,,10.00,29.81,
7L2,2022-05-12 22:55,-100.2456,46.2206,62.60,62.60,80.00,25.00,31.00,10.00,29.54,
06D,2022-05-12 22:55,-99.6208,48.8844,57.20,57.20,50.00,25.00,30.00,10.00,29.76,
D60,2022-05-12 22:55,-102.8974,48.3803,48.20,48.20,40.00,14.00,23.00,2.50,29.79,VCTS RA
GHW,2022-05-12 22:55,-95.3204,45.6439,78.80,69.80,110.00,16.00,20.00,10.00,29.64,
IBM,2022-05-12 22:55,-103.6774,41.1881,65.00,20.30,280.00,33.00,45.00,10.00,29.90,
AIT,2022-05-12 22:55,-93.6768,46.5484,66.20,57.20,80.00,11.00,18.00,10.00,29.75,
AUM,2022-05-12 22:55,-92.9333,43.6647,93.20,60.80,160.00,12.00,22.00,10.00,29.75,
HCO,2022-05-12 22:55,-96.9430,48.7527,64.40,55.40,50.00,13.00,20.00,10.00,29.80,
MJQ,2022-05-12 22:55,-94.9865,43.6500,89.60,55.40,170.00,20.00,30.00,10.00,29.69,
MVE,2022-05-12 22:55,-95.7103,44.9691,82.40,71.60,170.00,13.00,,10.00,29.58,
JMR,2022-05-12 22:55,-93.2718,45.8861,77.00,60.80,80.00,5.00,,10.00,29.75,
ULM,2022-05-12 22:55,-94.5000,44.3200,91.40,62.60,170.00,17.00,22.00,10.00,29.66,
PQN,2022-05-12 22:55,-96.3004,43.9821,62.60,60.80,270.00,24.00,34.00,5.00,29.76,+VCTSRA
RGK,2022-05-12 22:55,-92.4868,44.5915,93.20,60.80,160.00,12.00,17.00,10.00,29.71,
ROX,2022-05-12 22:55,-95.6971,48.8560,62.60,55.40,60.00,20.00,25.00,10.00,29.82,
ONA,2022-05-12 22:55,-91.7083,44.0772,91.40,66.20,180.00,7.00,20.00,10.00,29.78,
BVN,2022-05-12 22:55,-98.0558,41.7286,69.00,62.80,280.00,6.00,,10.00,29.68,
FET,2022-05-12 22:55,-96.5200,41.4500,93.60,61.20,180.00,19.00,26.00,10.00,29.68,
HJH,2022-05-12 22:55,-97.5870,40.1523,87.80,64.80,200.00,13.00,19.00,10.00,29.72,VCTS
LXN,2022-05-12 22:55,-99.7759,40.7904,69.40,50.70,320.00,32.00,40.00,3.00,29.75,HZ
OGA,2022-05-12 22:55,-101.7697,41.1195,69.80,30.90,300.00,26.00,36.00,10.00,29.80,
TIF,2022-05-12 22:55,-100.5690,41.9622,64.40,40.80,290.00,24.00,44.00,10.00,29.75,
LCG,2022-05-12 22:55,-96.9814,42.2419,75.20,69.30,160.00,5.00,,10.00,29.64,
JYR,2022-05-12 22:55,-97.6228,40.8967,66.20,57.20,230.00,18.00,23.00,8.00,29.71,-TSRA
BJI,2022-05-12 22:55,-94.9337,47.5094,58.00,56.80,70.00,10.00,,10.00,29.76,
COQ,2022-05-12 22:55,-92.5036,46.7011,66.20,55.40,90.00,9.00,,10.00,29.81,
ELO,2022-05-12 22:55,-91.8371,47.8287,55.40,55.40,130.00,5.00,,10.00,29.93,-RA
FGN,2022-05-12 22:55,-94.9028,49.3183,57.20,46.40,30.00,8.00,,10.00,29.88,
FSE,2022-05-12 22:55,-95.7735,47.5928,59.00,55.40,60.00,9.00,,10.00,29.73,DZ
MZH,2022-05-12 22:55,-92.8048,46.4186,68.00,55.40,80.00,5.00,,10.00,29.81,
TWM,2022-05-12 22:55,-91.7450,47.0492,59.00,57.20,0.00,0.00,,10.00,29.87,
BDH,2022-05-12 22:55,-95.1304,45.1177,82.40,71.60,120.00,18.00,,10.00,29.64,
HDE,2022-05-12 22:55,-99.3365,40.4521,75.00,58.60,170.00,15.00,,10.00,29.68,
MLE,2022-05-12 22:55,-96.1120,41.1960,94.00,57.20,180.00,16.00,25.00,10.00,29.69,
AFK,2022-05-12 22:55,-95.8657,40.6069,92.50,52.00,200.00,24.00,30.00,10.00,29.72,
CFE,2022-05-12 22:55,-93.8433,45.1590,86.00,68.00,120.00,11.00,,10.00,29.65,
DYT,2022-05-12 22:55,-92.0434,46.7219,53.60,51.80,120.00,7.00,,10.00,29.85,
GYL,2022-05-12 22:55,-94.0812,44.7560,91.20,66.20,140.00,13.00,24.00,10.00,29.65,
GDB,2022-05-12 22:55,-95.5560,44.7533,89.60,69.40,130.00,18.00,22.00,10.00,29.61,
14Y,2022-05-12 22:55,-94.8739,45.8983,73.40,64.40,110.00,12.00,18.00,7.00,29.67,
LYV,2022-05-12 22:55,-96.2158,43.6212,64.40,59.00,270.00,12.00,39.00,7.00,29.75,-VCTSRA
DXX,2022-05-12 22:55,-96.1779,44.9864,84.20,73.40,130.00,17.00,22.00,10.00,29.56,
HZX,2022-05-12 22:55,-93.3098,46.6188,69.80,55.40,90.00,11.00,16.00,10.00,29.78,
LVN,2022-05-12 22:55,-93.2273,44.6252,91.40,57.20,150.00,13.00,21.00,10.00,29.68,
VVV,2022-05-12 22:55,-96.4244,45.3057,77.00,71.60,120.00,7.00,,10.00,29.57,
PEX,2022-05-12 22:55,-94.7466,45.3723,82.40,68.00,130.00,13.00,19.00,10.00,29.65,
PWC,2022-05-12 22:55,-94.3817,46.7248,68.00,60.80,100.00,10.00,,10.00,29.76,
ROS,2022-05-12 22:55,-92.9530,45.6980,82.00,62.80,80.00,8.00,,10.00,29.74,
SYN,2022-05-12 22:55,-93.0145,44.4736,93.20,55.20,160.00,17.00,24.00,10.00,29.69,
SAZ,2022-05-12 22:55,-94.8066,46.3809,73.40,60.80,90.00,7.00,,10.00,29.69,
21D,2022-05-12 22:55,-92.8557,44.9975,89.60,62.60,150.00,15.00,21.00,10.00,29.70,
TKC,2022-05-12 22:55,-95.6072,44.2491,89.00,59.40,180.00,10.00,16.00,10.00,29.63,
RRT,2022-05-12 22:55,-95.3483,48.9414,53.60,50.00,40.00,12.00,,10.00,29.85,
Y63,2022-05-12 22:55,-95.9920,45.9861,74.30,68.20,100.00,11.00,,10.00,29.61,
OVL,2022-05-12 22:55,-95.0328,44.7786,87.80,66.20,150.00,16.00,19.00,10.00,29.63,
9MN,2022-05-12 22:55,-92.4831,44.0198,92.50,54.50,120.00,19.00,28.00,10.00,29.77,
RUG,2022-05-12 22:55,-100.0243,48.3904,59.00,53.60,50.00,33.00,,10.00,29.65,
08D,2022-05-12 22:55,-102.4064,48.3008,50.00,50.00,40.00,18.00,23.00,2.00,29.75,VCTS RA
BAC,2022-05-12 22:55,-98.0180,46.9412,62.60,62.60,60.00,9.00,17.00,3.00,29.63,BR
S25,2022-05-12 22:55,-103.2552,47.7966,50.00,50.00,40.00,15.00,,3.00,29.72,VCTS RA
IKV,2022-05-12 22:55,-93.5695,41.6878,89.60,68.00,170.00,16.00,25.00,9.00,29.77,
AIO,2022-05-12 22:55,-95.0465,41.4059,91.40,66.20,180.00,17.00,26.00,10.00,29.71,
ICL,2022-05-12 22:55,-95.0223,40.7242,93.20,53.60,180.00,22.00,28.00,10.00,29.75,
CBF,2022-05-12 22:55,-95.7604,41.2611,91.40,53.60,170.00,18.00,27.00,10.00,29.69,
DEH,2022-05-12 22:55,-91.7433,43.2755,91.40,57.20,180.00,17.00,24.00,10.00,29.81,
OLZ,2022-05-12 22:55,-91.9760,42.6831,91.40,60.80,170.00,22.00,29.00,10.00,29.83,
RDK,2022-05-12 22:55,-95.2624,41.0106,93.20,53.60,190.00,25.00,33.00,10.00,29.72,
SDA,2022-05-12 22:55,-95.4112,40.7533,93.20,50.00,190.00,22.00,34.00,10.00,29.69,
AXA,2022-05-12 22:55,-94.2724,43.0796,93.20,66.20,180.00,29.00,35.00,10.00,29.71,
CIN,2022-05-12 22:55,-94.7889,42.0444,91.40,64.40,190.00,20.00,32.00,9.00,29.72,
CKP,2022-05-12 22:55,-95.5538,42.7304,89.60,60.80,210.00,16.00,28.00,10.00,29.69,
FXY,2022-05-12 22:55,-93.6237,43.2323,95.00,60.80,160.00,21.00,28.00,10.00,29.72,
LRJ,2022-05-12 22:55,-96.1923,42.7754,69.80,60.80,,6.00,12.00,10.00,29.68,
I75,2022-05-12 22:55,-93.6876,41.0472,90.70,64.20,160.00,15.00,22.00,7.00,29.81,
PRO,2022-05-12 22:55,-94.1637,41.8278,93.60,63.30,180.00,24.00,30.00,10.00,29.74,
SHL,2022-05-12 22:55,-95.8353,43.2082,73.40,57.20,250.00,22.00,33.00,1.75,29.73,HZ
ADU,2022-05-12 22:55,-94.9204,41.6994,89.60,60.80,170.00,18.00,26.00,10.00,29.75,
GGI,2022-05-12 22:55,-92.7332,41.7097,92.30,63.50,150.00,19.00,24.00,10.00,29.84,
HNR,2022-05-12 22:55,-95.3355,41.5834,95.00,62.60,180.00,24.00,31.00,10.00,29.70,
MXO,2022-05-12 22:55,-91.1605,42.2204,95.00,62.60,170.00,16.00,25.00,10.00,29.85,
MUT,2022-05-12 22:55,-91.1406,41.3670,93.20,64.40,170.00,19.00,,10.00,29.86,
PEA,2022-05-12 22:55,-92.9431,41.3989,91.40,62.80,170.00,15.00,25.00,10.00,29.82,
EBS,2022-05-12 22:55,-93.8691,42.4392,91.40,69.80,160.00,25.00,30.00,10.00,29.73,
BNW,2022-05-12 22:55,-93.8486,42.0486,91.40,68.00,180.00,19.00,30.00,10.00,29.78,
CAV,2022-05-12 22:55,-93.7593,42.7430,93.20,66.20,170.00,25.00,34.00,10.00,29.73,
DNS,2022-05-12 22:55,-95.3800,41.9842,91.40,59.00,180.00,25.00,34.00,6.00,29.70,HZ
FFL,2022-05-12 22:55,-91.9834,41.0521,91.40,62.60,180.00,16.00,22.00,5.00,29.86,HZ
TNU,2022-05-12 22:55,-93.0190,41.6701,93.20,62.60,180.00,22.00,28.00,9.00,29.79,
9V9,2022-05-12 22:55,-99.3183,43.7667,68.40,62.20,250.00,15.00,27.00,10.00,29.57,
96D,2022-05-12 22:55,-97.9028,48.9406,62.60,51.80,50.00,12.00,,10.00,29.83,
EVM,2022-05-12 22:55,-92.4981,47.4251,55.40,55.40,90.00,4.00,,10.00,29.86,-RA
ANW,2022-05-12 22:55,-99.9930,42.5792,60.80,50.50,290.00,25.00,38.00,10.00,29.71,
PMV,2022-05-12 22:55,-95.9179,40.9502,94.00,54.50,170.00,20.00,28.00,10.00,29.71,
CKN,2022-05-12 22:55,-96.6214,47.8417,60.80,,80.00,15.00,19.00,10.00,29.72,
FBL,2022-05-12 22:55,-93.3108,44.3247,91.40,59.00,130.00,19.00,25.00,10.00,29.71,
FFM,2022-05-12 22:55,-96.1567,46.2844,73.40,64.40,100.00,11.00,18.00,10.00,29.58,
LXL,2022-05-12 22:55,-94.3469,45.9492,77.00,64.40,110.00,14.00,17.00,10.00,29.68,
AUH,2022-05-12 22:55,-97.9946,40.8941,69.80,55.60,150.00,10.00,14.00,10.00,29.70,VCTS
CNB,2022-05-12 22:55,-96.2660,44.7295,82.60,72.50,90.00,13.00,,10.00,29.58,VCTS
04W,2022-05-12 22:55,-92.8952,46.0229,78.80,60.80,80.00,11.00,16.00,10.00,29.76,
JKJ,2022-05-12 22:55,-96.6640,46.8393,66.20,60.80,70.00,8.00,,10.00,29.64,
VWU,2022-05-12 22:55,-94.5167,48.1539,59.00,53.60,90.00,10.00,,10.00,,VCTS
3N8,2022-05-12 22:55,-95.9281,47.2605,62.60,60.40,80.00,8.00,,10.00,29.70,
Y49,2022-05-12 22:55,-94.6453,47.1595,56.70,55.40,60.00,8.00,,10.00,29.76,
GRN,2022-05-12 22:55,-102.1753,42.8060,56.80,38.80,280.00,17.00,22.00,10.00,29.79,
HPT,2022-05-12 22:55,-93.2244,42.7175,91.40,57.20,170.00,20.00,30.00,10.00,29.77,
SXK,2022-05-12 22:55,-96.1614,42.9858,66.20,62.60,260.00,16.00,25.00,8.00,29.70,-DZ
MWM,2022-05-12 22:55,-95.1094,43.9134,89.60,59.00,160.00,11.00,17.00,10.00,29.66,
TVK,2022-05-12 22:55,-92.8983,40.6832,89.60,62.60,160.00,13.00,,10.00,29.87,
20U,2022-05-12 22:55,-103.9821,46.9252,50.00,50.00,340.00,9.00,,2.00,29.73,VCTS RA
BWW,2022-05-12 22:55,-103.3007,46.1655,48.20,48.20,330.00,18.00,23.00,2.00,29.64,VCTS RA
9D7,2022-05-12 22:55,-99.2364,48.4800,62.60,62.60,50.00,21.00,35.00,10.00,29.70,
46D,2022-05-12 22:55,-99.1513,47.4511,60.80,57.20,70.00,21.00,30.00,10.00,29.64,
2C8,2022-05-12 22:55,-97.6320,48.7837,64.40,53.60,40.00,9.00,,10.00,29.82,
D50,2022-05-12 22:55,-103.2973,48.9285,53.60,42.80,40.00,19.00,27.00,10.00,29.80,
D57,2022-05-12 22:55,-101.8602,46.8128,55.40,53.60,40.00,21.00,29.00,0.50,29.52,VCTS FG
GAF,2022-05-12 22:55,-97.3709,48.4047,64.40,57.20,50.00,16.00,,9.00,29.80,VCTS
GWR,2022-05-12 22:55,-97.6435,46.2187,64.40,66.20,80.00,17.00,,10.00,29.56,
5H4,2022-05-12 22:55,-99.9317,47.7912,60.80,57.20,60.00,25.00,30.00,10.00,29.64,
Y19,2022-05-12 22:55,-100.8944,46.7680,59.00,59.00,80.00,21.00,31.00,10.00,29.53,
2D5,2022-05-12 22:55,-98.0799,46.1731,64.40,64.40,80.00,22.00,28.00,7.00,29.55,
BWP,2022-05-12 22:55,-96.6074,46.2441,68.00,62.60,50.00,9.00,15.00,10.00,29.59,
BTN,2022-05-12 22:55,-97.7428,45.8150,66.20,66.20,80.00,21.00,28.00,9.00,29.51,
MDS,2022-05-12 22:55,-97.0859,44.0160,64.40,64.40,250.00,18.00,38.00,,29.74,
PHP,2022-05-12 22:55,-101.6000,44.0500,61.00,55.00,270.00,23.00,30.00,10.00,29.66,
SPF,2022-05-12 22:55,-103.7830,44.4803,51.80,48.20,280.00,15.00,23.00,10.00,29.71,
BIE,2022-05-12 22:55,-96.7541,40.3013,91.40,56.30,190.00,21.00,29.00,10.00,29.71,
BTA,2022-05-12 22:55,-96.1090,41.4148,94.50,59.50,180.00,20.00,30.00,10.00,29.69,
DTL,2022-05-12 22:55,-95.8856,46.8252,66.20,57.20,100.00,12.00,19.00,10.00,29.69,
TOB,2022-05-12 22:55,-92.8315,44.0180,93.20,51.80,150.00,24.00,30.00,10.00,29.76,
SLB,2022-05-12 22:55,-95.2399,42.5972,89.60,62.60,170.00,23.00,34.00,9.00,29.69,
VTI,2022-05-12 22:55,-92.0248,42.2176,96.00,58.80,160.00,15.00,23.00,10.00,29.83,
HCD,2022-05-12 22:55,-94.3825,44.8599,86.20,74.00,130.00,15.00,,10.00,29.66,
FKA,2022-05-12 22:55,-92.1797,43.6767,90.50,58.00,150.00,19.00,28.00,7.00,29.80,
D39,2022-05-12 22:55,-94.9334,45.7066,79.70,69.00,110.00,18.00,24.00,10.00,29.64,
OOA,2022-05-12 22:55,-92.4919,41.2273,95.20,60.00,170.00,19.00,24.00,10.00,29.84,
AHQ,2022-05-12 22:55,-96.5946,41.2406,93.60,60.00,200.00,23.00,30.00,10.00,29.69,
DLH,2022-05-12 22:55,-92.1936,46.8421,65.00,56.00,110.00,13.00,,10.00,29.85,
HON,2022-05-12 22:55,-98.2286,44.3852,71.00,58.00,160.00,19.00,37.00,8.00,,-TSRA
GPZ,2022-05-12 22:56,-93.5097,47.2111,58.00,57.00,50.00,6.00,,10.00,29.82,
EAR,2022-05-12 22:56,-99.0068,40.7270,72.00,57.00,160.00,15.00,24.00,10.00,29.68,
JMS,2022-05-12 22:56,-98.6800,46.9300,60.00,59.00,50.00,18.00,26.00,2.00,29.60,-RA BR
FOD,2022-05-12 22:56,-94.2032,42.5497,91.00,66.00,180.00,19.00,28.00,10.00,29.75,
OFF,2022-05-12 22:56,-95.9125,41.1183,94.60,52.20,190.00,20.00,31.00,8.00,29.70,
MIB,2022-05-12 22:56,-101.3580,48.4158,57.40,50.00,70.00,17.00,,10.00,29.67,
RCA,2022-05-12 22:56,-103.1036,44.1451,56.30,51.30,50.00,7.00,,10.00,29.68,
RYM,2022-05-12 22:56,-94.3575,46.0895,78.00,64.40,100.00,9.00,,10.00,29.67,
DVL,2022-05-12 22:56,-98.9083,48.1146,60.00,54.00,60.00,23.00,40.00,10.00,29.65,-RA
2WX,2022-05-12 22:56,-103.5464,45.6044,52.00,50.00,290.00,25.00,28.00,,29.63,
FSD,2022-05-12 22:56,-96.7536,43.5769,77.00,54.00,250.00,10.00,47.00,10.00,29.64,-TSRA
YKN,2022-05-12 22:56,-97.3859,42.9167,66.00,61.00,140.00,10.00,17.00,10.00,29.64,
CWI,2022-05-12 22:56,-90.3328,41.8295,92.00,66.00,170.00,14.00,21.00,10.00,29.90,
OTG,2022-05-12 22:56,-95.5792,43.6551,86.00,58.00,250.00,36.00,43.00,2.00,29.73,VCTS HZ
FRM,2022-05-12 22:56,-94.4156,43.6439,93.00,65.00,170.00,28.00,34.00,10.00,29.68,
OLU,2022-05-12 22:56,-97.3426,41.4480,84.00,56.00,210.00,35.00,49.00,5.00,29.68,VCTS -RA
GNA,2022-05-12 22:56,-90.3457,47.7453,48.00,44.00,0.00,0.00,,,29.96,
MML,2022-05-12 22:56,-95.8200,44.4500,88.00,67.00,190.00,17.00,25.00,10.00,29.63,
D07,2022-05-12 22:56,-102.0200,45.0300,55.00,53.00,280.00,22.00,37.00,,29.58,
8D3,2022-05-12 22:56,-96.9914,45.6689,71.00,67.00,70.00,7.00,,,29.56,
TVF,2022-05-12 22:56,-96.1850,48.0657,62.00,56.00,80.00,15.00,22.00,10.00,29.76,
MKT,2022-05-12 22:56,-93.9200,44.2200,94.00,65.00,160.00,26.00,30.00,10.00,29.67,
OFK,2022-05-12 22:56,-97.4351,41.9855,69.00,62.00,120.00,7.00,,10.00,29.62,
RDR,2022-05-12 22:56,-97.4012,47.9611,62.00,58.60,50.00,14.00,,10.00,29.69,-RA VCTS
DIK,2022-05-12 22:56,-102.8019,46.7973,51.00,50.00,30.00,21.00,29.00,0.50,29.56,+TSRA FG
PNM,2022-05-12 23:15,-93.6082,45.5599,84.20,66.20,80.00,8.00,,,29.70,
FSE,2022-05-12 23:15,-95.7735,47.5928,57.20,53.60,40.00,10.00,14.00,10.00,29.71,-RA
ADC,2022-05-12 23:15,-95.2109,46.4503,68.00,59.00,80.00,9.00,15.00,10.00,29.68,
SYN,2022-05-12 23:15,-93.0145,44.4736,92.00,58.30,160.00,12.00,18.00,10.00,29.69,
MGG,2022-05-12 23:25,-93.9856,45.2360,84.20,62.60,110.00,6.00,,10.00,29.67,
ORB,2022-05-12 23:33,-92.8560,48.0159,53.60,53.60,100.00,9.00,16.00,10.00,29.81,-RA
EVM,2022-05-12 23:35,-92.4981,47.4251,55.40,55.40,80.00,4.00,,10.00,29.85,-VCTSRA
JYG,2022-05-12 23:36,-94.5579,43.9863,87.80,62.60,160.00,17.00,23.00,10.00,29.64,
XWA,2022-05-12 23:51,-103.7505,48.2597,48.00,46.00,40.00,23.00,32.00,4.00,29.71,RA BR
OMA,2022-05-12 23:52,-95.8992,41.3103,93.00,55.00,180.00,15.00,26.00,10.00,29.68,
VTN,2022-05-12 23:52,-100.5489,42.8567,67.00,39.00,280.00,25.00,36.00,10.00,29.73,
CID,2022-05-12 23:52,-91.7246,41.8829,89.00,61.00,180.00,13.00,26.00,10.00,29.83,
EST,2022-05-12 23:52,-94.7476,43.4008,82.00,59.00,260.00,30.00,36.00,4.00,29.72,HZ
SUX,2022-05-12 23:52,-96.3795,42.3917,75.00,63.00,110.00,5.00,,10.00,29.62,
DVN,2022-05-12 23:52,-90.5948,41.6133,92.00,64.00,160.00,18.00,25.00,10.00,29.89,
BIS,2022-05-12 23:52,-100.7458,46.7727,61.00,59.00,80.00,25.00,34.00,10.00,29.52,
MBG,2022-05-12 23:52,-100.4078,45.5464,65.00,61.00,100.00,8.00,,6.00,29.48,BR
IEN,2022-05-12 23:52,-102.5110,43.0225,58.00,39.00,260.00,16.00,28.00,10.00,29.79,
N60,2022-05-12 23:52,-101.4394,47.6458,54.00,51.00,30.00,16.00,28.00,,29.58,
IOW,2022-05-12 23:52,-91.5445,41.6394,91.00,60.00,170.00,13.00,20.00,10.00,29.85,
RAP,2022-05-12 23:52,-103.0574,44.0453,54.00,44.00,270.00,12.00,,10.00,29.70,-RA
CDD,2022-05-12 23:53,-92.4830,48.2660,53.60,51.80,0.00,0.00,,5.00,29.87,TSRA
IML,2022-05-12 23:53,-101.6201,40.5103,76.00,19.00,300.00,19.00,34.00,10.00,29.81,
DBQ,2022-05-12 23:53,-90.7091,42.3984,90.00,64.00,170.00,16.00,23.00,10.00,29.86,
MCW,2022-05-12 23:53,-93.3261,43.1544,89.00,59.00,170.00,22.00,35.00,10.00,29.77,
CDR,2022-05-12 23:53,-103.0954,42.8376,57.00,39.00,280.00,17.00,25.00,10.00,29.81,
MCK,2022-05-12 23:53,-100.5921,40.2063,78.00,28.00,310.00,23.00,37.00,10.00,29.78,
HEI,2022-05-12 23:53,-102.6560,46.0149,52.00,50.00,300.00,16.00,,1.75,29.57,BR
AXN,2022-05-12 23:53,-95.3947,45.8663,77.00,68.00,110.00,15.00,,10.00,29.62,
RWF,2022-05-12 23:53,-95.0820,44.5469,72.00,57.00,250.00,31.00,48.00,9.00,29.72,VCTS
OWA,2022-05-12 23:53,-93.2606,44.1233,89.60,62.60,150.00,14.00,,10.00,29.73,
PKD,2022-05-12 23:53,-95.0700,46.9000,60.00,55.00,80.00,10.00,19.00,10.00,29.70,
AQP,2022-05-12 23:53,-96.0043,45.2275,64.40,60.80,260.00,35.00,54.00,7.00,29.67,-RA
FOZ,2022-05-12 23:53,-93.6502,47.7828,57.20,55.40,80.00,10.00,,10.00,29.84,
XVG,2022-05-12 23:53,-94.2039,46.9900,60.80,57.20,60.00,6.00,,10.00,29.74,
AMW,2022-05-12 23:53,-93.6185,41.9904,88.00,68.00,160.00,16.00,27.00,10.00,29.76,
BRL,2022-05-12 23:53,-91.1255,40.7729,87.00,64.00,170.00,10.00,,10.00,29.88,
OTM,2022-05-12 23:53,-92.4446,41.1008,89.00,63.00,160.00,16.00,,10.00,29.83,
SPW,2022-05-12 23:53,-95.2101,43.1682,75.00,59.00,250.00,11.00,,8.00,29.72,-TSRA
LBF,2022-05-12 23:53,-100.6690,41.1219,72.00,30.90,300.00,22.00,35.00,10.00,29.81,
GRI,2022-05-12 23:53,-98.3096,40.9675,75.00,52.00,200.00,13.00,22.00,10.00,29.65,
PIR,2022-05-12 23:53,-100.2860,44.3827,65.00,54.00,270.00,25.00,39.00,10.00,29.59,
AIA,2022-05-12 23:53,-102.8000,42.0572,63.00,34.00,270.00,28.00,38.00,10.00,29.83,
ORB,2022-05-12 23:53,-92.8560,48.0159,53.60,53.60,70.00,3.00,,10.00,29.80,
DVP,2022-05-12 23:53,-95.7826,43.9868,64.00,59.40,270.00,16.00,22.00,10.00,29.73,-RA
FAR,2022-05-12 23:53,-96.8111,46.9253,65.00,59.00,80.00,16.00,25.00,10.00,29.56,
GFK,2022-05-12 23:53,-97.1761,47.9492,62.00,57.00,290.00,17.00,31.00,10.00,29.73,TS
MHE,2022-05-12 23:53,-98.0386,43.7748,69.00,59.00,170.00,7.00,,10.00,29.59,
ATY,2022-05-12 23:53,-97.1547,44.9140,63.00,59.00,190.00,10.00,,9.00,29.64,VCTS -RA
ICR,2022-05-12 23:53,-99.8422,43.3903,66.00,48.00,260.00,24.00,36.00,10.00,29.67,
BBW,2022-05-12 23:53,-99.6385,41.4365,68.00,41.00,310.00,20.00,32.00,10.00,29.78,
BDE,2022-05-12 23:53,-94.6122,48.7284,64.00,53.00,70.00,10.00,,10.00,29.79,
BRD,2022-05-12 23:53,-94.1308,46.4047,72.00,58.00,90.00,6.00,16.00,10.00,29.73,
HIB,2022-05-12 23:53,-92.8390,47.3866,59.00,56.00,40.00,5.00,,10.00,29.79,
MSP,2022-05-12 23:53,-93.2313,44.8854,91.00,58.00,160.00,11.00,24.00,10.00,29.69,
FCM,2022-05-12 23:53,-93.4607,44.8261,90.00,60.00,160.00,13.00,22.00,10.00,29.66,
STC,2022-05-12 23:53,-94.0513,45.5433,82.00,65.00,90.00,9.00,,10.00,29.66,
FNB,2022-05-12 23:53,-95.5920,40.0788,91.00,56.00,180.00,16.00,27.00,10.00,29.74,
HSI,2022-05-12 23:53,-98.4279,40.6052,68.00,56.00,200.00,7.00,,10.00,29.68,
MIC,2022-05-12 23:53,-93.3511,45.0622,90.00,60.00,160.00,14.00,33.00,10.00,29.67,
BFF,2022-05-12 23:53,-103.5956,41.8740,63.00,33.00,280.00,27.00,47.00,10.00,29.87,
ABR,2022-05-12 23:53,-98.4200,45.4500,73.00,67.00,150.00,12.00,25.00,6.00,29.57,VCTS RA
ODX,2022-05-12 23:53,-98.9517,41.6236,65.00,53.00,300.00,35.00,49.00,10.00,29.76,
STP,2022-05-12 23:53,-93.0600,44.9345,89.00,60.00,160.00,11.00,22.00,10.00,29.69,
LWD,2022-05-12 23:53,-93.9005,40.6306,87.00,62.00,170.00,9.00,22.00,10.00,29.80,
MIW,2022-05-12 23:53,-92.9163,42.1106,89.00,62.00,160.00,22.00,30.00,10.00,29.78,
CUT,2022-05-12 23:53,-103.6114,43.7331,42.00,38.00,260.00,14.00,28.00,10.00,29.76,-RA
SNY,2022-05-12 23:53,-102.9847,41.1014,67.00,23.00,290.00,28.00,43.00,10.00,29.88,
LNK,2022-05-12 23:54,-96.7633,40.8312,85.00,52.00,250.00,17.00,22.00,1.75,29.70,HZ
DSM,2022-05-12 23:54,-93.6531,41.5339,89.00,63.00,170.00,16.00,26.00,10.00,29.77,
INL,2022-05-12 23:54,-93.3956,48.5595,56.00,52.00,90.00,10.00,,2.50,29.85,TSRA BR
MOT,2022-05-12 23:54,-101.2803,48.2594,57.00,50.00,20.00,11.00,,8.00,29.73,TSRA
ALO,2022-05-12 23:54,-92.4013,42.5544,90.00,60.00,160.00,19.00,29.00,10.00,29.78,
RST,2022-05-12 23:54,-92.4916,43.9041,90.00,56.00,160.00,19.00,32.00,10.00,29.77,
S32,2022-05-12 23:55,-98.1059,47.4228,59.00,59.00,50.00,24.00,30.00,10.00,29.64,
CCY,2022-05-12 23:55,-92.6132,43.0730,89.60,59.00,160.00,16.00,26.00,10.00,29.78,
VTI,2022-05-12 23:55,-92.0248,42.2176,93.60,59.00,170.00,16.00,22.00,10.00,29.81,
CNC,2022-05-12 23:55,-93.3608,41.0184,87.80,66.20,170.00,14.00,,10.00,29.80,
CSQ,2022-05-12 23:55,-94.3608,41.0188,87.80,64.40,170.00,15.00,22.00,10.00,29.79,
FSW,2022-05-12 23:55,-91.3267,40.6615,89.60,66.20,160.00,10.00,14.00,10.00,29.88,
AWG,2022-05-12 23:55,-91.6748,41.2751,91.40,64.40,170.00,16.00,21.00,9.00,29.84,
ACQ,2022-05-12 23:55,-93.5529,44.0735,89.60,60.80,150.00,12.00,22.00,,29.73,
EOK,2022-05-12 23:55,-91.4274,40.4615,89.60,66.20,160.00,9.00,,10.00,29.88,
MPZ,2022-05-12 23:55,-91.5122,40.9453,89.60,64.40,170.00,13.00,17.00,10.00,29.87,
AEL,2022-05-12 23:55,-93.3672,43.6815,91.40,60.80,180.00,14.00,24.00,10.00,29.74,
PNM,2022-05-12 23:55,-93.6082,45.5599,82.40,66.20,70.00,7.00,,,29.70,
MDS,2022-05-12 23:55,-97.0859,44.0160,66.20,62.60,80.00,7.00,,,29.60,
7L2,2022-05-12 23:55,-100.2456,46.2206,60.80,60.80,80.00,15.00,23.00,4.00,29.52,BR
HZE,2022-05-12 23:55,-101.5810,47.2899,55.40,55.40,40.00,12.00,20.00,1.25,29.56,TSRA
D55,2022-05-12 23:55,-98.3937,48.7531,60.80,57.20,60.00,29.00,40.00,10.00,29.64,
06D,2022-05-12 23:55,-99.6208,48.8844,57.20,57.20,50.00,26.00,34.00,10.00,29.70,
D60,2022-05-12 23:55,-102.8974,48.3803,48.20,48.20,40.00,28.00,36.00,3.00,29.68,+RA
AUM,2022-05-12 23:55,-92.9333,43.6647,91.40,60.80,160.00,13.00,26.00,10.00,29.77,
DLH,2022-05-12 23:55,-92.1936,46.8421,64.00,55.00,90.00,19.00,26.00,10.00,29.81,
GHW,2022-05-12 23:55,-95.3204,45.6439,78.80,69.80,110.00,15.00,20.00,10.00,29.62,
IBM,2022-05-12 23:55,-103.6774,41.1881,62.20,21.70,270.00,25.00,40.00,10.00,29.92,
AIT,2022-05-12 23:55,-93.6768,46.5484,68.00,57.20,80.00,7.00,14.00,10.00,29.75,
HCO,2022-05-12 23:55,-96.9430,48.7527,62.60,55.40,50.00,16.00,23.00,10.00,29.71,-RA
MJQ,2022-05-12 23:55,-94.9865,43.6500,71.60,57.20,260.00,20.00,31.00,5.00,29.76,VCTSRA
JMR,2022-05-12 23:55,-93.2718,45.8861,75.20,60.80,90.00,7.00,,10.00,29.75,
ULM,2022-05-12 23:55,-94.5000,44.3200,87.80,60.80,160.00,15.00,22.00,10.00,29.64,
PQN,2022-05-12 23:55,-96.3004,43.9821,77.00,53.60,220.00,16.00,32.00,10.00,29.66,-RA
RGK,2022-05-12 23:55,-92.4868,44.5915,91.40,59.00,170.00,10.00,15.00,10.00,29.71,
ROX,2022-05-12 23:55,-95.6971,48.8560,60.80,55.40,50.00,18.00,24.00,10.00,29.79,VCTS
TWM,2022-05-12 23:55,-91.7450,47.0492,60.80,55.40,70.00,9.00,,10.00,29.86,
ONA,2022-05-12 23:55,-91.7083,44.0772,91.40,68.00,170.00,6.00,,10.00,29.76,
BVN,2022-05-12 23:55,-98.0558,41.7286,73.00,58.60,200.00,10.00,14.00,10.00,29.64,VCTS
HJH,2022-05-12 23:55,-97.5870,40.1523,81.70,58.60,140.00,20.00,23.00,10.00,29.65,VCTS
TIF,2022-05-12 23:55,-100.5690,41.9622,66.20,34.50,290.00,24.00,31.00,10.00,29.80,
JYR,2022-05-12 23:55,-97.6228,40.8967,68.00,60.80,220.00,7.00,12.00,10.00,29.66,VCTS
COQ,2022-05-12 23:55,-92.5036,46.7011,66.20,53.60,100.00,9.00,15.00,10.00,29.79,
DTL,2022-05-12 23:55,-95.8856,46.8252,66.20,59.00,110.00,16.00,23.00,10.00,29.62,
ELO,2022-05-12 23:55,-91.8371,47.8287,59.00,59.00,80.00,7.00,10.00,10.00,29.82,-RA
FSE,2022-05-12 23:55,-95.7735,47.5928,57.20,55.40,60.00,10.00,15.00,4.00,29.69,TSRA
HCD,2022-05-12 23:55,-94.3825,44.8599,85.60,70.30,140.00,7.00,,10.00,29.67,
MZH,2022-05-12 23:55,-92.8048,46.4186,68.00,55.40,70.00,6.00,,10.00,29.80,
BDH,2022-05-12 23:55,-95.1304,45.1177,68.00,62.60,260.00,34.00,62.00,2.00,29.81,+RA
AFK,2022-05-12 23:55,-95.8657,40.6069,90.50,51.80,190.00,20.00,26.00,10.00,29.73,
TOB,2022-05-12 23:55,-92.8315,44.0180,91.40,55.40,160.00,24.00,29.00,10.00,29.77,
DYT,2022-05-12 23:55,-92.0434,46.7219,48.20,46.40,50.00,17.00,,,29.83,
FGN,2022-05-12 23:55,-94.9028,49.3183,57.20,46.40,20.00,15.00,,10.00,29.83,
GYL,2022-05-12 23:55,-94.0812,44.7560,88.70,66.40,150.00,9.00,16.00,10.00,29.66,
DXX,2022-05-12 23:55,-96.1779,44.9864,66.20,62.60,250.00,29.00,44.00,10.00,29.67,-TSRA
HZX,2022-05-12 23:55,-93.3098,46.6188,69.80,57.20,100.00,13.00,18.00,10.00,29.78,
LVN,2022-05-12 23:55,-93.2273,44.6252,89.60,55.40,160.00,13.00,18.00,10.00,29.70,
PWC,2022-05-12 23:55,-94.3817,46.7248,68.00,59.00,100.00,8.00,,10.00,29.77,
ROS,2022-05-12 23:55,-92.9530,45.6980,81.00,62.20,100.00,6.00,,10.00,29.74,
SAZ,2022-05-12 23:55,-94.8066,46.3809,73.40,60.80,90.00,6.00,,10.00,29.68,
RRT,2022-05-12 23:55,-95.3483,48.9414,53.60,48.20,40.00,14.00,18.00,10.00,29.82,VCTS
MWM,2022-05-12 23:55,-95.1094,43.9134,66.20,60.80,250.00,13.00,31.00,7.00,29.76,+TSRA
Y63,2022-05-12 23:55,-95.9920,45.9861,73.40,68.20,90.00,14.00,,10.00,29.56,
14Y,2022-05-12 23:55,-94.8739,45.8983,73.40,66.20,90.00,13.00,,7.00,29.66,
LYV,2022-05-12 23:55,-96.2158,43.6212,64.40,59.00,0.00,0.00,,10.00,29.64,-RA
OVL,2022-05-12 23:55,-95.0328,44.7786,73.40,57.20,240.00,31.00,36.00,7.00,29.73,
PEX,2022-05-12 23:55,-94.7466,45.3723,80.60,68.00,130.00,11.00,17.00,10.00,29.64,
FKA,2022-05-12 23:55,-92.1797,43.6767,88.50,57.70,170.00,18.00,22.00,10.00,29.80,
9MN,2022-05-12 23:55,-92.4831,44.0198,91.40,55.00,140.00,11.00,23.00,10.00,29.77,
D39,2022-05-12 23:55,-94.9334,45.7066,78.00,68.20,100.00,13.00,20.00,10.00,29.62,
21D,2022-05-12 23:55,-92.8557,44.9975,87.80,60.80,170.00,14.00,23.00,10.00,29.72,
TKC,2022-05-12 23:55,-95.6072,44.2491,67.00,56.30,260.00,13.00,26.00,10.00,29.69,-TSRA
Y19,2022-05-12 23:55,-100.8944,46.7680,59.00,59.00,100.00,16.00,25.00,9.00,29.53,VCTS
RUG,2022-05-12 23:55,-100.0243,48.3904,59.00,53.60,60.00,23.00,34.00,10.00,29.65,
08D,2022-05-12 23:55,-102.4064,48.3008,48.20,48.20,30.00,26.00,33.00,5.00,29.65,BR
BAC,2022-05-12 23:55,-98.0180,46.9412,62.60,62.60,50.00,11.00,,9.00,29.58,
S25,2022-05-12 23:55,-103.2552,47.7966,48.20,48.20,20.00,15.00,,2.00,29.68,VCTS RA
IKV,2022-05-12 23:55,-93.5695,41.6878,89.60,66.20,170.00,14.00,21.00,9.00,29.78,
AIO,2022-05-12 23:55,-95.0465,41.4059,91.40,60.80,180.00,20.00,28.00,10.00,29.72,
ICL,2022-05-12 23:55,-95.0223,40.7242,91.40,53.60,180.00,16.00,26.00,10.00,29.76,
CBF,2022-05-12 23:55,-95.7604,41.2611,89.60,46.40,180.00,18.00,27.00,10.00,29.69,
OLZ,2022-05-12 23:55,-91.9760,42.6831,89.60,62.60,170.00,20.00,,10.00,29.82,
SDA,2022-05-12 23:55,-95.4112,40.7533,91.40,53.60,180.00,17.00,26.00,10.00,29.71,
CKP,2022-05-12 23:55,-95.5538,42.7304,78.30,59.00,0.00,0.00,,10.00,29.68,
DEH,2022-05-12 23:55,-91.7433,43.2755,89.60,57.20,170.00,11.00,19.00,10.00,29.80,
FXY,2022-05-12 23:55,-93.6237,43.2323,89.60,60.80,170.00,23.00,32.00,10.00,29.74,
LRJ,2022-05-12 23:55,-96.1923,42.7754,73.40,62.60,0.00,0.00,,9.00,29.62,
I75,2022-05-12 23:55,-93.6876,41.0472,89.00,63.00,160.00,15.00,20.00,10.00,29.80,
PRO,2022-05-12 23:55,-94.1637,41.8278,91.80,61.70,180.00,23.00,,10.00,29.75,
RDK,2022-05-12 23:55,-95.2624,41.0106,91.40,53.60,180.00,18.00,26.00,10.00,29.74,
SHL,2022-05-12 23:55,-95.8353,43.2082,68.00,64.40,60.00,7.00,,10.00,29.64,
AXA,2022-05-12 23:55,-94.2724,43.0796,89.60,66.20,170.00,21.00,32.00,10.00,29.70,
ADU,2022-05-12 23:55,-94.9204,41.6994,87.80,57.20,170.00,16.00,23.00,10.00,29.74,
CIN,2022-05-12 23:55,-94.7889,42.0444,89.60,60.80,180.00,21.00,31.00,9.00,29.70,
HNR,2022-05-12 23:55,-95.3355,41.5834,91.40,57.20,180.00,20.00,26.00,10.00,29.70,
MUT,2022-05-12 23:55,-91.1406,41.3670,91.40,64.40,180.00,14.00,23.00,10.00,29.86,
GGI,2022-05-12 23:55,-92.7332,41.7097,90.50,63.50,160.00,16.00,23.00,10.00,29.83,
MXO,2022-05-12 23:55,-91.1605,42.2204,93.20,62.60,180.00,12.00,18.00,10.00,29.84,
PEA,2022-05-12 23:55,-92.9431,41.3989,90.00,63.00,160.00,16.00,,10.00,29.81,
EBS,2022-05-12 23:55,-93.8691,42.4392,89.60,68.00,180.00,23.00,30.00,10.00,29.74,
BNW,2022-05-12 23:55,-93.8486,42.0486,89.60,66.20,170.00,21.00,26.00,10.00,29.78,
CAV,2022-05-12 23:55,-93.7593,42.7430,91.40,68.00,180.00,25.00,33.00,10.00,29.74,
DNS,2022-05-12 23:55,-95.3800,41.9842,89.60,55.40,190.00,21.00,30.00,7.00,29.70,
FFL,2022-05-12 23:55,-91.9834,41.0521,89.60,62.60,160.00,15.00,22.00,10.00,29.86,
TNU,2022-05-12 23:55,-93.0190,41.6701,91.40,62.60,180.00,15.00,24.00,5.00,29.79,HZ
9V9,2022-05-12 23:55,-99.3183,43.7667,66.40,56.30,270.00,26.00,39.00,10.00,29.64,
EVM,2022-05-12 23:55,-92.4981,47.4251,59.00,57.20,50.00,9.00,,10.00,29.81,
5H4,2022-05-12 23:55,-99.9317,47.7912,59.00,55.40,60.00,25.00,31.00,10.00,29.60,
96D,2022-05-12 23:55,-97.9028,48.9406,62.60,53.60,40.00,18.00,,10.00,29.69,
HON,2022-05-12 23:55,-98.2286,44.3852,67.00,59.00,150.00,9.00,,10.00,,
ANW,2022-05-12 23:55,-99.9930,42.5792,62.40,42.40,290.00,17.00,25.00,10.00,29.76,
PMV,2022-05-12 23:55,-95.9179,40.9502,91.80,50.20,170.00,22.00,27.00,10.00,29.70,
AHQ,2022-05-12 23:55,-96.5946,41.2406,70.50,55.00,250.00,19.00,32.00,4.00,29.73,RA
CKN,2022-05-12 23:55,-96.6214,47.8417,59.00,,80.00,18.00,27.00,10.00,29.65,
FBL,2022-05-12 23:55,-93.3108,44.3247,91.40,57.20,140.00,16.00,22.00,10.00,29.72,
FFM,2022-05-12 23:55,-96.1567,46.2844,69.80,62.60,90.00,13.00,18.00,10.00,29.53,
LXL,2022-05-12 23:55,-94.3469,45.9492,77.00,64.40,110.00,10.00,14.00,10.00,29.68,
AUH,2022-05-12 23:55,-97.9946,40.8941,71.60,55.20,170.00,7.00,,10.00,29.66,
04W,2022-05-12 23:55,-92.8952,46.0229,78.80,60.80,70.00,8.00,15.00,10.00,29.76,
JKJ,2022-05-12 23:55,-96.6640,46.8393,66.20,60.80,90.00,13.00,,10.00,29.57,
VWU,2022-05-12 23:55,-94.5167,48.1539,59.00,55.40,80.00,13.00,,10.00,29.78,-TSDZ
3N8,2022-05-12 23:55,-95.9281,47.2605,62.20,59.00,90.00,11.00,17.00,10.00,29.65,
Y49,2022-05-12 23:55,-94.6453,47.1595,56.00,55.40,80.00,9.00,,10.00,29.74,
HPT,2022-05-12 23:55,-93.2244,42.7175,89.60,57.20,180.00,21.00,27.00,10.00,29.77,
GRN,2022-05-12 23:55,-102.1753,42.8060,58.30,36.50,260.00,17.00,22.00,10.00,29.78,
SXK,2022-05-12 23:55,-96.1614,42.9858,69.80,64.40,100.00,5.00,,10.00,29.63,
LXN,2022-05-12 23:55,-99.7759,40.7904,69.80,40.60,330.00,20.00,26.00,10.00,29.80,
MLE,2022-05-12 23:55,-96.1120,41.1960,91.60,52.70,180.00,11.00,20.00,10.00,29.69,
OGA,2022-05-12 23:55,-101.7697,41.1195,70.70,29.10,310.00,16.00,26.00,10.00,29.82,
ONL,2022-05-12 23:55,-98.6881,42.4697,72.50,57.70,290.00,20.00,25.00,10.00,29.70,VCTS
TVK,2022-05-12 23:55,-92.8983,40.6832,89.60,62.60,140.00,12.00,18.00,10.00,29.85,
20U,2022-05-12 23:55,-103.9821,46.9252,48.20,48.20,350.00,14.00,,2.50,29.68,+RA
BWW,2022-05-12 23:55,-103.3007,46.1655,50.00,50.00,320.00,19.00,25.00,3.00,29.62,-RA
9D7,2022-05-12 23:55,-99.2364,48.4800,62.60,,60.00,20.00,32.00,10.00,29.68,
46D,2022-05-12 23:55,-99.1513,47.4511,59.00,57.20,80.00,15.00,29.00,10.00,29.61,
2C8,2022-05-12 23:55,-97.6320,48.7837,62.60,53.60,30.00,16.00,,10.00,29.69,
D50,2022-05-12 23:55,-103.2973,48.9285,51.80,42.80,50.00,18.00,24.00,10.00,29.79,
D57,2022-05-12 23:55,-101.8602,46.8128,57.20,57.20,70.00,15.00,,0.75,29.52,VCTS RA
GAF,2022-05-12 23:55,-97.3709,48.4047,60.80,57.20,40.00,18.00,,9.00,29.70,VCTS
GWR,2022-05-12 23:55,-97.6435,46.2187,64.40,64.40,90.00,18.00,,10.00,29.51,
2D5,2022-05-12 23:55,-98.0799,46.1731,64.40,64.40,100.00,10.00,23.00,3.00,29.57,TSRA
BWP,2022-05-12 23:55,-96.6074,46.2441,69.80,64.40,80.00,11.00,,10.00,29.52,
BTN,2022-05-12 23:55,-97.7428,45.8150,66.20,66.20,140.00,30.00,39.00,4.00,29.59,RA BR
PHP,2022-05-12 23:55,-101.6000,44.0500,62.00,54.00,250.00,16.00,24.00,10.00,29.66,
SPF,2022-05-12 23:55,-103.7830,44.4803,50.00,44.60,290.00,18.00,25.00,10.00,29.69,
BTA,2022-05-12 23:55,-96.1090,41.4148,90.50,55.00,190.00,16.00,22.00,10.00,29.71,
CFE,2022-05-12 23:55,-93.8433,45.1590,87.80,64.40,150.00,8.00,,10.00,29.66,
OXV,2022-05-12 23:55,-93.1114,41.2984,89.60,64.40,160.00,15.00,21.00,10.00,29.79,
SLB,2022-05-12 23:55,-95.2399,42.5972,89.60,62.60,190.00,22.00,29.00,10.00,29.69,
IFA,2022-05-12 23:55,-93.2651,42.4691,90.30,64.00,170.00,16.00,28.00,10.00,29.79,
HDE,2022-05-12 23:55,-99.3365,40.4521,61.30,54.00,330.00,24.00,40.00,2.50,29.79,VCTSRA
LCG,2022-05-12 23:55,-96.9814,42.2419,69.60,62.00,150.00,29.00,48.00,10.00,29.67,-TSRA
OOA,2022-05-12 23:55,-92.4919,41.2273,92.80,60.00,170.00,18.00,,10.00,29.83,
BIE,2022-05-12 23:55,-96.7541,40.3013,89.20,56.00,180.00,18.00,24.00,10.00,29.71,
SGS,2022-05-12 23:55,-93.0329,44.8571,92.00,56.00,160.00,9.00,15.00,10.00,29.70,
FET,2022-05-12 23:55,-96.5200,41.4500,69.00,58.00,220.00,6.00,14.00,3.00,29.75,+TSRA
SYN,2022-05-12 23:55,-93.0145,44.4736,89.00,58.00,170.00,13.00,,10.00,29.71,
BJI,2022-05-12 23:55,-94.9337,47.5094,58.00,56.50,90.00,7.00,,10.00,29.74,
OFF,2022-05-12 23:56,-95.9125,41.1183,91.80,49.80,180.00,15.00,23.00,9.00,29.70,
TVF,2022-05-12 23:56,-96.1850,48.0657,59.00,57.00,60.00,15.00,,10.00,29.72,-RA
OTG,2022-05-12 23:56,-95.5792,43.6551,66.00,61.00,290.00,14.00,,10.00,29.68,
FRM,2022-05-12 23:56,-94.4156,43.6439,88.00,66.00,170.00,20.00,,10.00,29.67,
GPZ,2022-05-12 23:56,-93.5097,47.2111,59.00,57.00,70.00,7.00,,10.00,29.79,
OLU,2022-05-12 23:56,-97.3426,41.4480,75.00,55.00,190.00,13.00,,10.00,29.62,
OFK,2022-05-12 23:56,-97.4351,41.9855,72.00,61.00,,6.00,,10.00,29.61,-RA
GNA,2022-05-12 23:56,-90.3457,47.7453,47.00,43.00,80.00,11.00,17.00,,30.02,
FOD,2022-05-12 23:56,-94.2032,42.5497,90.00,66.00,180.00,18.00,29.00,10.00,29.74,
MIB,2022-05-12 23:56,-101.3580,48.4158,55.00,50.00,50.00,16.00,25.00,10.00,29.69,-RA
RCA,2022-05-12 23:56,-103.1036,44.1451,54.00,47.80,280.00,6.00,,9.00,29.67,-RA
D07,2022-05-12 23:56,-102.0200,45.0300,56.00,52.00,270.00,22.00,31.00,,29.58,
FSD,2022-05-12 23:56,-96.7536,43.5769,73.00,57.00,0.00,0.00,,10.00,29.62,
MKT,2022-05-12 23:56,-93.9200,44.2200,91.00,62.00,160.00,15.00,20.00,10.00,29.68,
EAR,2022-05-12 23:56,-99.0068,40.7270,72.00,53.00,300.00,25.00,39.00,3.00,29.75,HZ
JMS,2022-05-12 23:56,-98.6800,46.9300,59.00,58.00,60.00,26.00,34.00,1.75,29.53,VCTS -RA BR
CWI,2022-05-12 23:56,-90.3328,41.8295,90.00,67.00,180.00,16.00,,10.00,29.88,
RYM,2022-05-12 23:56,-94.3575,46.0895,76.60,63.00,110.00,10.00,,10.00,29.67,
8D3,2022-05-12 23:56,-96.9914,45.6689,70.00,62.00,220.00,33.00,51.00,,29.61,
YKN,2022-05-12 23:56,-97.3859,42.9167,68.00,62.00,0.00,0.00,,10.00,29.58,VCTS
MML,2022-05-12 23:56,-95.8200,44.4500,69.00,58.00,260.00,36.00,46.00,10.00,29.65,-TSRA
DVL,2022-05-12 23:56,-98.9083,48.1146,60.00,53.00,60.00,23.00,34.00,10.00,29.61,
2WX,2022-05-12 23:56,-103.5464,45.6044,51.00,49.00,300.00,21.00,27.00,,29.58,
DIK,2022-05-12 23:56,-102.8019,46.7973,51.00,50.00,350.00,8.00,,1.00,29.60,+RA BR
RDR,2022-05-12 23:56,-97.4012,47.9611,60.00,58.30,60.00,16.00,24.00,0.25,29.71,+TSRA
1HW,2022-05-12 23:58,-102.8289,41.3251,66.60,24.30,290.00,29.00,43.00,10.00,29.87,
1CW,2022-05-12 23:58,-103.6706,41.5900,61.30,24.30,290.00,26.00,36.00,10.00,29.89,
1BW,2022-05-12 23:58,-103.9950,41.5117,58.60,21.00,280.00,37.00,44.00,10.00,29.92,
PNM,2022-05-13 00:15,-93.6082,45.5599,82.40,66.20,70.00,8.00,,,29.69,
FSE,2022-05-13 00:15,-95.7735,47.5928,57.20,55.40,70.00,8.00,,10.00,29.69,-RA
ADC,2022-05-13 00:15,-95.2109,46.4503,66.20,59.00,80.00,11.00,18.00,10.00,29.64,
SYN,2022-05-13 00:15,-93.0145,44.4736,88.70,58.30,160.00,12.00,,10.00,29.70,
ORB,2022-05-13 00:33,-92.8560,48.0159,55.40,53.60,0.00,0.00,,10.00,29.79,TS
EVM,2022-05-13 00:35,-92.4981,47.4251,59.00,57.20,80.00,3.00,,10.00,29.83,
JYG,2022-05-13 00:36,-94.5579,43.9863,71.60,60.80,290.00,16.00,21.00,7.00,29.72,-TSRA
XWA,2022-05-13 00:51,-103.7505,48.2597,48.00,46.00,40.00,23.00,34.00,3.00,29.69,+RA BR
IOW,2022-05-13 00:52,-91.5445,41.6394,87.00,61.00,170.00,12.00,19.00,10.00,29.86,
VTN,2022-05-13 00:52,-100.5489,42.8567,66.00,36.00,260.00,19.00,32.00,10.00,29.76,
SUX,2022-05-13 00:52,-96.3795,42.3917,68.00,61.00,130.00,6.00,,10.00,29.66,VCTS -RA
BIS,2022-05-13 00:52,-100.7458,46.7727,61.00,59.00,90.00,23.00,35.00,10.00,29.51,
IEN,2022-05-13 00:52,-102.5110,43.0225,56.00,39.00,260.00,15.00,32.00,10.00,29.79,
RAP,2022-05-13 00:52,-103.0574,44.0453,52.00,45.00,220.00,6.00,,10.00,29.72,-RA
OMA,2022-05-13 00:52,-95.8992,41.3103,81.00,52.00,340.00,7.00,,10.00,29.75,
CID,2022-05-13 00:52,-91.7246,41.8829,86.00,62.00,170.00,14.00,25.00,10.00,29.83,
EST,2022-05-13 00:52,-94.7476,43.4008,75.00,60.00,110.00,5.00,,2.50,29.69,HZ
DVN,2022-05-13 00:52,-90.5948,41.6133,89.00,65.00,160.00,13.00,,10.00,29.89,
N60,2022-05-13 00:52,-101.4394,47.6458,53.00,51.00,30.00,13.00,24.00,,29.57,
MBG,2022-05-13 00:52,-100.4078,45.5464,65.00,62.00,190.00,8.00,,5.00,29.51,BR
CDD,2022-05-13 00:53,-92.4830,48.2660,53.60,51.80,0.00,0.00,,10.00,29.87,-TSRA
IML,2022-05-13 00:53,-101.6201,40.5103,74.00,18.00,300.00,16.00,28.00,10.00,29.84,
SNY,2022-05-13 00:53,-102.9847,41.1014,64.00,24.10,290.00,16.00,29.00,10.00,29.89,
MCK,2022-05-13 00:53,-100.5921,40.2063,73.00,30.00,330.00,18.00,,10.00,29.78,
HEI,2022-05-13 00:53,-102.6560,46.0149,52.00,50.00,300.00,16.00,,4.00,29.57,BR
BDE,2022-05-13 00:53,-94.6122,48.7284,59.00,55.00,310.00,7.00,14.00,6.00,29.80,VCTS -RA BR
FNB,2022-05-13 00:53,-95.5920,40.0788,88.00,57.00,180.00,13.00,24.00,10.00,29.76,
MSP,2022-05-13 00:53,-93.2313,44.8854,88.00,59.00,160.00,12.00,21.00,10.00,29.68,
PKD,2022-05-13 00:53,-95.0700,46.9000,59.00,55.00,90.00,8.00,,10.00,29.64,
STC,2022-05-13 00:53,-94.0513,45.5433,71.00,59.00,250.00,33.00,53.00,8.00,29.81,VCTS -RA
HSI,2022-05-13 00:53,-98.4279,40.6052,69.00,54.00,320.00,26.00,51.00,10.00,29.77,
ODX,2022-05-13 00:53,-98.9517,41.6236,63.00,50.00,310.00,13.00,19.00,10.00,29.75,
OWA,2022-05-13 00:53,-93.2606,44.1233,87.80,62.60,150.00,14.00,21.00,10.00,29.72,
AQP,2022-05-13 00:53,-96.0043,45.2275,64.40,60.80,40.00,5.00,,10.00,29.58,-RA
FOZ,2022-05-13 00:53,-93.6502,47.7828,57.20,55.40,70.00,8.00,16.00,10.00,29.80,
XVG,2022-05-13 00:53,-94.2039,46.9900,60.80,57.20,80.00,6.00,,10.00,29.68,
AMW,2022-05-13 00:53,-93.6185,41.9904,85.00,66.00,160.00,13.00,,10.00,29.76,
LWD,2022-05-13 00:53,-93.9005,40.6306,84.00,61.00,160.00,8.00,,10.00,29.81,
LBF,2022-05-13 00:53,-100.6690,41.1219,69.00,32.00,310.00,15.00,24.00,10.00,29.81,
GRI,2022-05-13 00:53,-98.3096,40.9675,71.00,52.00,310.00,25.00,38.00,8.00,29.76,
ORB,2022-05-13 00:53,-92.8560,48.0159,55.40,53.60,50.00,3.00,,10.00,29.77,
ATY,2022-05-13 00:53,-97.1547,44.9140,63.00,59.00,0.00,0.00,,10.00,29.53,
DVP,2022-05-13 00:53,-95.7826,43.9868,67.80,59.70,0.00,0.00,,10.00,29.63,VCTS
FAR,2022-05-13 00:53,-96.8111,46.9253,65.00,59.00,80.00,13.00,,10.00,29.54,TS
ABR,2022-05-13 00:53,-98.4200,45.4500,66.00,61.00,230.00,12.00,,10.00,29.55,
BBW,2022-05-13 00:53,-99.6385,41.4365,69.00,32.00,300.00,19.00,29.00,10.00,29.78,
DBQ,2022-05-13 00:53,-90.7091,42.3984,86.00,65.00,170.00,13.00,,10.00,29.87,
MCW,2022-05-13 00:53,-93.3261,43.1544,86.00,60.00,180.00,21.00,29.00,10.00,29.76,
HIB,2022-05-13 00:53,-92.8390,47.3866,59.00,56.00,100.00,10.00,,10.00,29.79,
FCM,2022-05-13 00:53,-93.4607,44.8261,88.00,60.00,150.00,13.00,,10.00,29.66,
STP,2022-05-13 00:53,-93.0600,44.9345,86.00,60.00,140.00,8.00,,10.00,29.68,
BRL,2022-05-13 00:53,-91.1255,40.7729,82.00,65.00,170.00,6.00,,10.00,29.88,
OTM,2022-05-13 00:53,-92.4446,41.1008,86.00,62.00,160.00,13.00,,10.00,29.83,
SPW,2022-05-13 00:53,-95.2101,43.1682,73.00,62.00,170.00,5.00,,10.00,29.70,
AIA,2022-05-13 00:53,-102.8000,42.0572,59.00,33.00,270.00,26.00,42.00,10.00,29.86,
GFK,2022-05-13 00:53,-97.1761,47.9492,61.00,58.00,60.00,19.00,27.00,7.00,29.62,VCTS -RA
MHE,2022-05-13 00:53,-98.0386,43.7748,70.00,60.00,260.00,13.00,23.00,10.00,29.60,
ICR,2022-05-13 00:53,-99.8422,43.3903,64.00,47.00,260.00,16.00,24.00,10.00,29.68,
BRD,2022-05-13 00:53,-94.1308,46.4047,72.00,58.00,120.00,8.00,18.00,10.00,29.68,
CDR,2022-05-13 00:53,-103.0954,42.8376,56.00,38.00,260.00,13.00,,10.00,29.82,
RWF,2022-05-13 00:53,-95.0820,44.5469,65.00,60.00,60.00,4.00,,10.00,29.63,VCTS -RA
MIC,2022-05-13 00:53,-93.3511,45.0622,89.00,60.00,150.00,13.00,,10.00,29.66,
BFF,2022-05-13 00:53,-103.5956,41.8740,60.00,35.00,280.00,17.00,28.00,10.00,29.89,
MIW,2022-05-13 00:53,-92.9163,42.1106,87.00,62.00,160.00,17.00,24.00,10.00,29.79,
PIR,2022-05-13 00:53,-100.2860,44.3827,62.00,53.00,280.00,23.00,32.00,9.00,29.58,-RA
CUT,2022-05-13 00:53,-103.6114,43.7331,40.00,38.00,270.00,10.00,,9.00,29.78,-RA
AXN,2022-05-13 00:53,-95.3947,45.8663,65.00,59.00,230.00,26.00,42.00,10.00,,VCTS -RA
LNK,2022-05-13 00:54,-96.7633,40.8312,72.00,63.00,150.00,16.00,28.00,5.00,29.75,TS HZ
DSM,2022-05-13 00:54,-93.6531,41.5339,86.00,63.00,160.00,13.00,,10.00,29.77,
INL,2022-05-13 00:54,-93.3956,48.5595,55.00,52.00,80.00,10.00,24.00,3.00,29.83,TSRA BR
RST,2022-05-13 00:54,-92.4916,43.9041,86.00,57.00,160.00,13.00,23.00,10.00,29.78,
MOT,2022-05-13 00:54,-101.2803,48.2594,53.00,50.00,30.00,22.00,32.00,5.00,29.61,-RA BR
ALO,2022-05-13 00:54,-92.4013,42.5544,88.00,60.00,170.00,13.00,24.00,10.00,29.79,
TQE,2022-05-13 00:54,-96.1779,41.7635,70.00,60.00,210.00,13.00,25.00,10.00,29.72,
S32,2022-05-13 00:55,-98.1059,47.4228,59.00,59.00,60.00,17.00,26.00,10.00,29.62,
OXV,2022-05-13 00:55,-93.1114,41.2984,87.80,64.40,160.00,9.00,16.00,9.00,29.81,
CCY,2022-05-13 00:55,-92.6132,43.0730,87.80,60.80,170.00,14.00,20.00,10.00,29.79,
MPZ,2022-05-13 00:55,-91.5122,40.9453,86.00,64.40,170.00,9.00,,10.00,29.88,
CNC,2022-05-13 00:55,-93.3608,41.0184,86.00,62.60,160.00,13.00,,10.00,29.81,
CSQ,2022-05-13 00:55,-94.3608,41.0188,84.20,60.80,170.00,12.00,,10.00,29.79,
FSW,2022-05-13 00:55,-91.3267,40.6615,86.00,66.20,170.00,8.00,,10.00,29.88,
AWG,2022-05-13 00:55,-91.6748,41.2751,87.80,64.40,170.00,11.00,17.00,9.00,29.85,
SGS,2022-05-13 00:55,-93.0329,44.8571,88.00,56.50,150.00,7.00,,10.00,29.69,
ACQ,2022-05-13 00:55,-93.5529,44.0735,86.00,60.80,150.00,12.00,18.00,,29.72,
EOK,2022-05-13 00:55,-91.4274,40.4615,86.00,68.00,140.00,8.00,,10.00,29.88,
AEL,2022-05-13 00:55,-93.3672,43.6815,87.80,60.80,170.00,14.00,19.00,10.00,29.73,
PNM,2022-05-13 00:55,-93.6082,45.5599,80.60,66.20,80.00,11.00,,,29.69,
HZE,2022-05-13 00:55,-101.5810,47.2899,55.40,55.40,50.00,15.00,23.00,1.75,29.56,VCTS RA
D55,2022-05-13 00:55,-98.3937,48.7531,60.80,59.00,60.00,21.00,34.00,10.00,29.65,
7L2,2022-05-13 00:55,-100.2456,46.2206,62.60,62.60,100.00,14.00,,10.00,29.55,
06D,2022-05-13 00:55,-99.6208,48.8844,57.20,57.20,50.00,21.00,28.00,10.00,29.70,
MWM,2022-05-13 00:55,-95.1094,43.9134,66.20,60.80,0.00,0.00,,10.00,29.66,
IBM,2022-05-13 00:55,-103.6774,41.1881,60.40,20.70,270.00,31.00,38.00,10.00,29.94,
AIT,2022-05-13 00:55,-93.6768,46.5484,66.20,57.20,100.00,7.00,,10.00,29.71,
AUM,2022-05-13 00:55,-92.9333,43.6647,87.80,60.80,160.00,9.00,14.00,10.00,29.76,
GHW,2022-05-13 00:55,-95.3204,45.6439,66.20,57.20,230.00,28.00,39.00,10.00,29.71,TSDZ
HCO,2022-05-13 00:55,-96.9430,48.7527,62.60,55.40,80.00,15.00,18.00,10.00,29.72,TS
ULM,2022-05-13 00:55,-94.5000,44.3200,64.40,60.80,330.00,5.00,16.00,10.00,29.73,+TSRA
OGA,2022-05-13 00:55,-101.7697,41.1195,68.50,29.50,320.00,15.00,20.00,10.00,29.86,
BJI,2022-05-13 00:55,-94.9337,47.5094,57.20,55.60,70.00,9.00,,10.00,29.69,
COQ,2022-05-13 00:55,-92.5036,46.7011,55.40,50.00,90.00,17.00,24.00,10.00,29.82,
DTL,2022-05-13 00:55,-95.8856,46.8252,66.20,59.00,140.00,16.00,21.00,10.00,29.62,VCTS
ELO,2022-05-13 00:55,-91.8371,47.8287,59.00,59.00,40.00,4.00,,10.00,29.86,
FSE,2022-05-13 00:55,-95.7735,47.5928,57.20,55.40,70.00,14.00,21.00,10.00,29.63,VCTS
MJQ,2022-05-13 00:55,-94.9865,43.6500,66.20,62.60,0.00,0.00,,10.00,29.70,
JMR,2022-05-13 00:55,-93.2718,45.8861,73.40,59.00,90.00,6.00,,10.00,29.74,
PQN,2022-05-13 00:55,-96.3004,43.9821,69.80,60.80,160.00,6.00,,10.00,29.60,VCTS
RGK,2022-05-13 00:55,-92.4868,44.5915,87.80,57.20,150.00,8.00,,10.00,29.71,
ROX,2022-05-13 00:55,-95.6971,48.8560,57.20,55.40,80.00,20.00,27.00,10.00,29.76,-TSRA
TWM,2022-05-13 00:55,-91.7450,47.0492,,,70.00,19.00,28.00,10.00,29.89,
ONA,2022-05-13 00:55,-91.7083,44.0772,87.80,66.20,170.00,5.00,,10.00,29.77,
FET,2022-05-13 00:55,-96.5200,41.4500,67.50,60.40,160.00,12.00,27.00,2.00,29.74,+TSRA
HJH,2022-05-13 00:55,-97.5870,40.1523,74.00,55.20,160.00,9.00,,10.00,29.71,
HDE,2022-05-13 00:55,-99.3365,40.4521,63.50,48.60,330.00,14.00,18.00,10.00,29.78,
AFK,2022-05-13 00:55,-95.8657,40.6069,86.00,55.80,190.00,15.00,,10.00,29.77,
ONL,2022-05-13 00:55,-98.6881,42.4697,62.80,48.20,280.00,14.00,,10.00,29.73,
TIF,2022-05-13 00:55,-100.5690,41.9622,65.30,31.80,280.00,19.00,25.00,10.00,29.81,
LCG,2022-05-13 00:55,-96.9814,42.2419,71.00,62.40,230.00,4.00,,10.00,29.64,
JYR,2022-05-13 00:55,-97.6228,40.8967,71.60,62.60,200.00,10.00,,10.00,29.67,VCTS
CQM,2022-05-13 00:55,-92.6894,47.8219,55.40,53.60,80.00,5.00,,10.00,29.79,VCTS
DYT,2022-05-13 00:55,-92.0434,46.7219,41.00,41.00,30.00,12.00,,6.00,29.90,BR
FGN,2022-05-13 00:55,-94.9028,49.3183,57.20,48.20,60.00,11.00,,10.00,29.82,VCTS
GYL,2022-05-13 00:55,-94.0812,44.7560,73.00,59.20,270.00,17.00,32.00,10.00,29.77,
DXX,2022-05-13 00:55,-96.1779,44.9864,68.00,60.80,0.00,0.00,,10.00,29.58,
LVN,2022-05-13 00:55,-93.2273,44.6252,84.20,57.20,150.00,9.00,,10.00,29.70,
MZH,2022-05-13 00:55,-92.8048,46.4186,66.20,55.40,100.00,5.00,,10.00,29.79,
BDH,2022-05-13 00:55,-95.1304,45.1177,64.40,60.80,320.00,9.00,,10.00,29.72,-TSRA
CFE,2022-05-13 00:55,-93.8433,45.1590,86.00,64.40,200.00,4.00,,10.00,29.68,
TOB,2022-05-13 00:55,-92.8315,44.0180,86.00,53.60,160.00,20.00,24.00,10.00,29.76,
GDB,2022-05-13 00:55,-95.5560,44.7533,73.20,58.30,210.00,10.00,,10.00,29.58,VCTS
14Y,2022-05-13 00:55,-94.8739,45.8983,62.60,59.00,250.00,15.00,,,29.77,VCTS
LYV,2022-05-13 00:55,-96.2158,43.6212,66.20,59.00,0.00,0.00,,10.00,29.63,VCTS
HZX,2022-05-13 00:55,-93.3098,46.6188,68.00,55.40,110.00,15.00,20.00,10.00,29.74,
OVL,2022-05-13 00:55,-95.0328,44.7786,64.40,60.80,20.00,7.00,,10.00,29.68,-VCTSRA
PEX,2022-05-13 00:55,-94.7466,45.3723,64.40,60.80,260.00,16.00,24.00,10.00,29.75,-TSRA
PWC,2022-05-13 00:55,-94.3817,46.7248,66.20,57.20,120.00,13.00,18.00,10.00,29.71,
FKA,2022-05-13 00:55,-92.1797,43.6767,85.00,58.30,170.00,16.00,21.00,7.00,29.80,
9MN,2022-05-13 00:55,-92.4831,44.0198,88.70,55.00,140.00,17.00,22.00,10.00,29.77,
ROS,2022-05-13 00:55,-92.9530,45.6980,78.00,62.80,90.00,8.00,,10.00,29.73,
D39,2022-05-13 00:55,-94.9334,45.7066,64.40,60.30,230.00,13.00,24.00,10.00,29.74,-TSRA
SYN,2022-05-13 00:55,-93.0145,44.4736,87.80,58.80,160.00,16.00,23.00,10.00,29.69,
21D,2022-05-13 00:55,-92.8557,44.9975,86.00,60.80,160.00,11.00,14.00,10.00,29.72,
TKC,2022-05-13 00:55,-95.6072,44.2491,73.20,54.70,230.00,8.00,,10.00,29.60,
RRT,2022-05-13 00:55,-95.3483,48.9414,51.80,48.20,40.00,13.00,17.00,7.00,29.83,TSRA
Y19,2022-05-13 00:55,-100.8944,46.7680,59.00,59.00,110.00,18.00,25.00,10.00,29.52,
2D5,2022-05-13 00:55,-98.0799,46.1731,62.60,62.60,120.00,14.00,,4.00,29.53,VCTS RA
RUG,2022-05-13 00:55,-100.0243,48.3904,59.00,51.80,60.00,29.00,39.00,10.00,29.56,
08D,2022-05-13 00:55,-102.4064,48.3008,48.20,48.20,40.00,26.00,34.00,5.00,29.66,VCTS RA
BAC,2022-05-13 00:55,-98.0180,46.9412,60.80,60.80,360.00,10.00,20.00,0.75,29.68,-TSRA BR
S25,2022-05-13 00:55,-103.2552,47.7966,48.20,48.20,30.00,22.00,,2.00,29.63,VCTS RA
ICL,2022-05-13 00:55,-95.0223,40.7242,87.80,55.40,190.00,10.00,15.00,10.00,29.79,
CBF,2022-05-13 00:55,-95.7604,41.2611,87.80,44.60,200.00,10.00,17.00,10.00,29.74,
IKV,2022-05-13 00:55,-93.5695,41.6878,87.80,64.40,170.00,10.00,17.00,9.00,29.78,
AIO,2022-05-13 00:55,-95.0465,41.4059,87.80,59.00,180.00,12.00,18.00,10.00,29.74,
CKP,2022-05-13 00:55,-95.5538,42.7304,71.40,62.20,230.00,23.00,47.00,5.00,29.80,VCTSRA
DEH,2022-05-13 00:55,-91.7433,43.2755,86.00,57.20,170.00,11.00,16.00,10.00,29.80,
FXY,2022-05-13 00:55,-93.6237,43.2323,87.80,62.60,160.00,19.00,28.00,10.00,29.73,
OLZ,2022-05-13 00:55,-91.9760,42.6831,86.00,60.80,170.00,17.00,,10.00,29.83,
PRO,2022-05-13 00:55,-94.1637,41.8278,87.60,61.70,170.00,14.00,,10.00,29.76,
RDK,2022-05-13 00:55,-95.2624,41.0106,89.60,53.60,190.00,15.00,24.00,10.00,29.75,
SHL,2022-05-13 00:55,-95.8353,43.2082,68.00,64.40,120.00,10.00,,10.00,29.64,
SDA,2022-05-13 00:55,-95.4112,40.7533,87.80,53.60,180.00,14.00,20.00,10.00,29.75,
SLB,2022-05-13 00:55,-95.2399,42.5972,87.80,55.40,240.00,36.00,52.00,9.00,29.80,
AXA,2022-05-13 00:55,-94.2724,43.0796,87.80,66.20,180.00,16.00,29.00,10.00,29.71,
ADU,2022-05-13 00:55,-94.9204,41.6994,84.20,53.60,190.00,9.00,16.00,10.00,29.78,
CIN,2022-05-13 00:55,-94.7889,42.0444,86.00,57.20,180.00,16.00,21.00,10.00,29.74,
HNR,2022-05-13 00:55,-95.3355,41.5834,87.80,57.20,200.00,11.00,,10.00,29.75,
LRJ,2022-05-13 00:55,-96.1923,42.7754,64.40,62.60,280.00,7.00,20.00,5.00,29.71,-RA
MUT,2022-05-13 00:55,-91.1406,41.3670,87.80,64.40,180.00,11.00,,10.00,29.86,
I75,2022-05-13 00:55,-93.6876,41.0472,84.40,63.00,150.00,9.00,,10.00,29.81,
GGI,2022-05-13 00:55,-92.7332,41.7097,87.40,64.40,160.00,14.00,18.00,10.00,29.84,
MXO,2022-05-13 00:55,-91.1605,42.2204,87.80,62.60,170.00,12.00,,10.00,29.85,
EBS,2022-05-13 00:55,-93.8691,42.4392,86.00,68.00,170.00,19.00,,10.00,29.73,
BNW,2022-05-13 00:55,-93.8486,42.0486,86.00,64.40,170.00,12.00,22.00,10.00,29.79,
CAV,2022-05-13 00:55,-93.7593,42.7430,87.80,68.00,170.00,22.00,28.00,10.00,29.74,
DNS,2022-05-13 00:55,-95.3800,41.9842,80.60,48.20,270.00,20.00,34.00,5.00,29.80,HZ
FFL,2022-05-13 00:55,-91.9834,41.0521,86.00,64.40,160.00,11.00,,10.00,29.86,
TNU,2022-05-13 00:55,-93.0190,41.6701,87.80,62.60,170.00,14.00,21.00,9.00,29.80,
96D,2022-05-13 00:55,-97.9028,48.9406,62.60,55.40,40.00,16.00,22.00,10.00,29.64,
EVM,2022-05-13 00:55,-92.4981,47.4251,59.00,57.20,80.00,5.00,,10.00,29.82,
ANW,2022-05-13 00:55,-99.9930,42.5792,65.80,29.10,280.00,27.00,36.00,10.00,29.76,
PMV,2022-05-13 00:55,-95.9179,40.9502,88.50,50.20,170.00,14.00,20.00,10.00,29.75,
CKN,2022-05-13 00:55,-96.6214,47.8417,57.20,,70.00,15.00,30.00,10.00,29.64,VCTS
FBL,2022-05-13 00:55,-93.3108,44.3247,87.80,60.80,150.00,10.00,,10.00,29.72,
FFM,2022-05-13 00:55,-96.1567,46.2844,64.40,62.60,240.00,27.00,45.00,7.00,29.61,-VCTSRA
04W,2022-05-13 00:55,-92.8952,46.0229,77.00,59.00,80.00,11.00,15.00,10.00,29.75,
LXL,2022-05-13 00:55,-94.3469,45.9492,68.00,60.80,250.00,22.00,40.00,3.00,29.83,+VCTSRA
JKJ,2022-05-13 00:55,-96.6640,46.8393,66.20,59.00,110.00,7.00,,10.00,29.58,TS
VWU,2022-05-13 00:55,-94.5167,48.1539,57.20,55.40,60.00,8.00,21.00,10.00,29.77,
3N8,2022-05-13 00:55,-95.9281,47.2605,60.60,57.20,90.00,16.00,24.00,10.00,29.58,
Y49,2022-05-13 00:55,-94.6453,47.1595,55.20,55.20,70.00,10.00,15.00,10.00,29.68,
HPT,2022-05-13 00:55,-93.2244,42.7175,86.00,59.00,180.00,19.00,25.00,10.00,29.77,
SXK,2022-05-13 00:55,-96.1614,42.9858,68.00,64.40,200.00,24.00,41.00,4.00,29.71,-RA
LXN,2022-05-13 00:55,-99.7759,40.7904,68.00,35.60,320.00,13.00,,10.00,29.80,
TVK,2022-05-13 00:55,-92.8983,40.6832,82.40,66.20,140.00,10.00,,9.00,29.86,
20U,2022-05-13 00:55,-103.9821,46.9252,48.20,48.20,350.00,15.00,,2.00,29.65,+RA
BWW,2022-05-13 00:55,-103.3007,46.1655,50.00,50.00,340.00,17.00,23.00,3.00,29.57,BR
9D7,2022-05-13 00:55,-99.2364,48.4800,59.00,59.00,50.00,22.00,32.00,10.00,29.64,
46D,2022-05-13 00:55,-99.1513,47.4511,59.00,57.20,80.00,22.00,32.00,10.00,29.57,
2C8,2022-05-13 00:55,-97.6320,48.7837,62.60,55.40,70.00,13.00,24.00,10.00,29.63,
D50,2022-05-13 00:55,-103.2973,48.9285,48.20,46.40,30.00,19.00,26.00,5.00,29.73,RA
D57,2022-05-13 00:55,-101.8602,46.8128,57.20,57.20,30.00,10.00,,0.50,29.51,+RA
GAF,2022-05-13 00:55,-97.3709,48.4047,57.20,57.20,80.00,21.00,30.00,5.00,29.66,VCTS RA
GWR,2022-05-13 00:55,-97.6435,46.2187,64.40,64.40,240.00,14.00,25.00,2.50,29.57,BR
5H4,2022-05-13 00:55,-99.9317,47.7912,57.20,55.40,80.00,27.00,37.00,9.00,29.56,
BWP,2022-05-13 00:55,-96.6074,46.2441,66.20,62.60,200.00,17.00,30.00,4.00,29.60,-TSRA BR
BTN,2022-05-13 00:55,-97.7428,45.8150,64.40,64.40,30.00,18.00,,5.00,29.43,-RA BR
PHP,2022-05-13 00:55,-101.6000,44.0500,58.00,46.00,250.00,18.00,35.00,10.00,29.68,
SPF,2022-05-13 00:55,-103.7830,44.4803,48.20,42.80,290.00,16.00,23.00,10.00,29.73,-RA
BVN,2022-05-13 00:55,-98.0558,41.7286,67.60,57.20,290.00,23.00,32.00,10.00,29.72,
BIE,2022-05-13 00:55,-96.7541,40.3013,73.00,59.50,170.00,9.00,,10.00,29.74,TS
BTA,2022-05-13 00:55,-96.1090,41.4148,78.00,51.40,270.00,11.00,15.00,10.00,29.77,
VTI,2022-05-13 00:55,-92.0248,42.2176,91.00,60.00,160.00,14.00,18.00,10.00,29.82,
MLE,2022-05-13 00:55,-96.1120,41.1960,81.30,51.00,320.00,6.00,,10.00,29.76,VCTS
HCD,2022-05-13 00:55,-94.3825,44.8599,64.60,64.00,260.00,6.00,14.00,1.25,29.82,+VCTSRA
9V9,2022-05-13 00:55,-99.3183,43.7667,63.70,49.00,260.00,22.00,29.00,10.00,29.62,
AUH,2022-05-13 00:55,-97.9946,40.8941,68.20,60.00,270.00,17.00,22.00,10.00,29.71,
GRN,2022-05-13 00:55,-102.1753,42.8060,56.50,38.00,280.00,12.00,16.00,10.00,29.82,
HON,2022-05-13 00:55,-98.2286,44.3852,70.00,62.00,250.00,15.00,23.00,10.00,,
PEA,2022-05-13 00:55,-92.9431,41.3989,87.00,64.00,150.00,9.00,,10.00,29.82,
IFA,2022-05-13 00:55,-93.2651,42.4691,87.00,65.30,160.00,17.00,,10.00,29.78,
DLH,2022-05-13 00:55,-92.1936,46.8421,56.00,52.00,100.00,21.00,30.00,10.00,29.86,
OOA,2022-05-13 00:55,-92.4919,41.2273,89.00,60.60,160.00,14.00,,10.00,29.84,
AHQ,2022-05-13 00:55,-96.5946,41.2406,69.00,58.50,200.00,15.00,25.00,3.00,29.74,+RA
FRM,2022-05-13 00:56,-94.4156,43.6439,77.00,59.00,280.00,6.00,,2.00,29.73,HZ
TVF,2022-05-13 00:56,-96.1850,48.0657,58.00,55.00,60.00,20.00,29.00,10.00,29.66,-RA
MKT,2022-05-13 00:56,-93.9200,44.2200,80.00,59.00,280.00,26.00,37.00,7.00,29.75,
OLU,2022-05-13 00:56,-97.3426,41.4480,77.00,59.00,190.00,10.00,,10.00,29.64,
EAR,2022-05-13 00:56,-99.0068,40.7270,64.00,52.00,320.00,11.00,,10.00,29.77,
GNA,2022-05-13 00:56,-90.3457,47.7453,44.00,41.00,70.00,14.00,22.00,,29.99,
RDR,2022-05-13 00:56,-97.4012,47.9611,60.00,58.50,80.00,18.00,24.00,10.00,29.63,-RA
JMS,2022-05-13 00:56,-98.6800,46.9300,60.00,59.00,70.00,16.00,28.00,10.00,29.56,-TSRA
CWI,2022-05-13 00:56,-90.3328,41.8295,85.00,68.00,170.00,10.00,,10.00,29.89,
MML,2022-05-13 00:56,-95.8200,44.4500,69.00,61.00,240.00,7.00,,10.00,29.58,
RYM,2022-05-13 00:56,-94.3575,46.0895,75.70,61.70,250.00,32.00,42.00,10.00,29.81,VCTS SQ
OFF,2022-05-13 00:56,-95.9125,41.1183,90.00,49.50,190.00,12.00,18.00,10.00,29.75,
DVL,2022-05-13 00:56,-98.9083,48.1146,59.00,54.00,70.00,17.00,26.00,10.00,29.63,-RA
DIK,2022-05-13 00:56,-102.8019,46.7973,51.00,50.00,340.00,12.00,,4.00,29.54,-RA BR
MIB,2022-05-13 00:56,-101.3580,48.4158,52.50,40.60,70.00,16.00,22.00,10.00,29.61,-RA VCTS
2WX,2022-05-13 00:56,-103.5464,45.6044,50.00,48.00,290.00,23.00,33.00,,29.58,
RCA,2022-05-13 00:56,-103.1036,44.1451,51.00,45.00,290.00,7.00,,10.00,29.69,
8D3,2022-05-13 00:56,-96.9914,45.6689,67.00,59.00,,4.00,18.00,,29.50,
GPZ,2022-05-13 00:56,-93.5097,47.2111,59.00,58.00,110.00,5.00,,10.00,29.75,
FOD,2022-05-13 00:56,-94.2032,42.5497,88.00,65.00,170.00,14.00,24.00,10.00,29.74,
D07,2022-05-13 00:56,-102.0200,45.0300,55.00,51.00,260.00,21.00,31.00,,29.61,
YKN,2022-05-13 00:56,-97.3859,42.9167,75.00,60.00,220.00,10.00,,10.00,29.64,
OFK,2022-05-13 00:56,-97.4351,41.9855,76.00,58.00,270.00,12.00,21.00,10.00,29.66,
OTG,2022-05-13 00:56,-95.5792,43.6551,65.00,62.00,100.00,11.00,,10.00,29.66,-RA
FSD,2022-05-13 00:56,-96.7536,43.5769,71.00,60.00,180.00,11.00,17.00,10.00,29.61,-TSRA
1HW,2022-05-13 00:58,-102.8289,41.3251,63.00,26.80,310.00,17.00,24.00,10.00,29.89,
1CW,2022-05-13 00:58,-103.6706,41.5900,62.00,20.30,280.00,24.00,37.00,10.00,29.90,
1BW,2022-05-13 00:58,-103.9950,41.5117,58.00,22.30,250.00,30.00,37.00,10.00,29.93,
PNM,2022-05-13 01:15,-93.6082,45.5599,78.80,60.80,260.00,26.00,36.00,,29.80,
FSE,2022-05-13 01:15,-95.7735,47.5928,57.20,55.40,70.00,12.00,22.00,10.00,29.63,VCTS
SYN,2022-05-13 01:15,-93.0145,44.4736,87.00,59.00,170.00,15.00,21.00,10.00,29.70,
MGG,2022-05-13 01:25,-93.9856,45.2360,64.40,59.00,270.00,8.00,,4.00,29.80,TSRA
ORB,2022-05-13 01:33,-92.8560,48.0159,55.40,55.40,90.00,6.00,,10.00,29.75,
EVM,2022-05-13 01:35,-92.4981,47.4251,59.00,57.20,100.00,8.00,,10.00,29.81,VCTS
JYG,2022-05-13 01:36,-94.5579,43.9863,66.20,62.60,0.00,0.00,,10.00,29.71,
XWA,2022-05-13 01:51,-103.7505,48.2597,48.00,46.00,30.00,21.00,31.00,1.75,29.68,+RA BR
EST,2022-05-13 01:52,-94.7476,43.4008,77.00,57.00,240.00,27.00,46.00,5.00,29.78,-RA
RAP,2022-05-13 01:52,-103.0574,44.0453,49.00,46.00,220.00,6.00,,4.00,29.74,RA BR
N60,2022-05-13 01:52,-101.4394,47.6458,54.00,51.00,50.00,13.00,32.00,,29.56,
OMA,2022-05-13 01:52,-95.8992,41.3103,82.00,53.00,240.00,11.00,16.00,10.00,29.80,VCTS
CID,2022-05-13 01:52,-91.7246,41.8829,84.00,62.00,170.00,11.00,,10.00,29.84,
DVN,2022-05-13 01:52,-90.5948,41.6133,86.00,65.00,170.00,13.00,,10.00,29.91,
BIS,2022-05-13 01:52,-100.7458,46.7727,61.00,58.00,80.00,17.00,24.00,10.00,29.48,
IEN,2022-05-13 01:52,-102.5110,43.0225,52.00,38.00,250.00,12.00,20.00,10.00,29.79,
IOW,2022-05-13 01:52,-91.5445,41.6394,85.00,62.00,160.00,11.00,,6.00,29.87,HZ
VTN,2022-05-13 01:52,-100.5489,42.8567,62.00,35.00,260.00,13.00,24.00,10.00,29.75,
SUX,2022-05-13 01:52,-96.3795,42.3917,69.00,60.00,140.00,15.00,,10.00,29.72,
MBG,2022-05-13 01:52,-100.4078,45.5464,62.00,56.00,240.00,12.00,,10.00,29.47,
CDD,2022-05-13 01:53,-92.4830,48.2660,53.60,51.80,10.00,4.00,,10.00,29.85,-VCTSRA
IML,2022-05-13 01:53,-101.6201,40.5103,68.00,28.00,320.00,16.00,32.00,10.00,29.85,
SNY,2022-05-13 01:53,-102.9847,41.1014,61.00,21.90,300.00,24.00,39.00,10.00,29.89,
MCW,2022-05-13 01:53,-93.3261,43.1544,83.00,61.00,170.00,17.00,28.00,10.00,29.78,
CDR,2022-05-13 01:53,-103.0954,42.8376,50.00,41.00,280.00,16.00,29.00,10.00,29.83,
MCK,2022-05-13 01:53,-100.5921,40.2063,67.00,30.00,10.00,6.00,,10.00,29.80,
AXN,2022-05-13 01:53,-95.3947,45.8663,64.00,59.00,120.00,6.00,,10.00,,
BDE,2022-05-13 01:53,-94.6122,48.7284,58.00,54.00,60.00,14.00,,5.00,29.79,VCTS +RA BR
MSP,2022-05-13 01:53,-93.2313,44.8854,75.00,59.00,290.00,19.00,42.00,10.00,29.78,
HSI,2022-05-13 01:53,-98.4279,40.6052,62.00,54.00,310.00,6.00,,10.00,29.83,-RA
ODX,2022-05-13 01:53,-98.9517,41.6236,63.00,46.00,320.00,8.00,,10.00,29.79,
OWA,2022-05-13 01:53,-93.2606,44.1233,86.00,62.60,180.00,11.00,15.00,10.00,29.77,
AQP,2022-05-13 01:53,-96.0043,45.2275,64.40,59.00,70.00,4.00,,10.00,29.58,
FOZ,2022-05-13 01:53,-93.6502,47.7828,57.20,55.40,70.00,6.00,,10.00,29.80,
XVG,2022-05-13 01:53,-94.2039,46.9900,64.40,59.00,180.00,11.00,22.00,10.00,29.80,-TSRA
OTM,2022-05-13 01:53,-92.4446,41.1008,82.00,63.00,150.00,12.00,,10.00,29.82,
AIA,2022-05-13 01:53,-102.8000,42.0572,56.00,34.00,280.00,26.00,38.00,10.00,29.87,
GRI,2022-05-13 01:53,-98.3096,40.9675,63.00,52.00,330.00,12.00,24.00,10.00,29.82,VCTS
ORB,2022-05-13 01:53,-92.8560,48.0159,55.40,55.40,90.00,4.00,,10.00,29.77,
ATY,2022-05-13 01:53,-97.1547,44.9140,63.00,57.00,250.00,6.00,,10.00,29.60,
GFK,2022-05-13 01:53,-97.1761,47.9492,60.00,57.00,90.00,20.00,33.00,2.00,29.63,+TSRA BR
ABR,2022-05-13 01:53,-98.4200,45.4500,68.00,63.00,200.00,17.00,28.00,10.00,29.51,
CUT,2022-05-13 01:53,-103.6114,43.7331,40.00,37.00,260.00,15.00,29.00,10.00,29.78,-RA
MHE,2022-05-13 01:53,-98.0386,43.7748,66.00,54.00,260.00,12.00,20.00,10.00,29.69,
PIR,2022-05-13 01:53,-100.2860,44.3827,62.00,50.00,270.00,17.00,30.00,10.00,29.60,
ICR,2022-05-13 01:53,-99.8422,43.3903,60.00,46.00,250.00,9.00,,10.00,29.70,
BBW,2022-05-13 01:53,-99.6385,41.4365,67.00,28.90,300.00,12.00,,10.00,29.79,
BRD,2022-05-13 01:53,-94.1308,46.4047,65.00,61.00,220.00,10.00,,5.00,,-RA BR
DBQ,2022-05-13 01:53,-90.7091,42.3984,81.00,65.00,170.00,12.00,,10.00,29.88,
FCM,2022-05-13 01:53,-93.4607,44.8261,72.00,60.00,320.00,10.00,22.00,10.00,29.74,
STC,2022-05-13 01:53,-94.0513,45.5433,63.00,62.00,100.00,6.00,,6.00,29.77,-TSRA BR
FNB,2022-05-13 01:53,-95.5920,40.0788,84.00,60.00,170.00,7.00,,10.00,29.79,
MIC,2022-05-13 01:53,-93.3511,45.0622,73.00,60.00,280.00,16.00,34.00,10.00,29.78,
LWD,2022-05-13 01:53,-93.9005,40.6306,81.00,60.00,170.00,8.00,,10.00,29.84,
LBF,2022-05-13 01:53,-100.6690,41.1219,63.00,33.00,300.00,12.00,,10.00,29.84,
HEI,2022-05-13 01:53,-102.6560,46.0149,51.00,49.00,300.00,13.00,,3.00,29.53,BR
HIB,2022-05-13 01:53,-92.8390,47.3866,58.00,56.00,110.00,15.00,,10.00,29.78,
PKD,2022-05-13 01:53,-95.0700,46.9000,67.00,58.00,240.00,23.00,32.00,10.00,29.70,-RA
RWF,2022-05-13 01:53,-95.0820,44.5469,65.00,62.00,90.00,7.00,,10.00,29.67,VCTS
STP,2022-05-13 01:53,-93.0600,44.9345,85.00,60.00,270.00,30.00,37.00,10.00,29.79,
BFF,2022-05-13 01:53,-103.5956,41.8740,56.00,35.00,290.00,16.00,28.00,10.00,29.91,
SPW,2022-05-13 01:53,-95.2101,43.1682,71.00,60.00,240.00,13.00,24.00,10.00,29.76,VCTS
FAR,2022-05-13 01:53,-96.8111,46.9253,65.00,62.00,200.00,10.00,,10.00,29.54,-RA
AMW,2022-05-13 01:53,-93.6185,41.9904,83.00,64.00,160.00,12.00,,10.00,29.79,
BRL,2022-05-13 01:53,-91.1255,40.7729,78.00,63.00,160.00,5.00,,10.00,29.89,
MIW,2022-05-13 01:53,-92.9163,42.1106,83.00,63.00,160.00,11.00,,10.00,29.81,
DVP,2022-05-13 01:53,-95.7826,43.9868,62.00,59.20,190.00,32.00,53.00,2.00,29.78,+TSRA
LNK,2022-05-13 01:54,-96.7633,40.8312,73.00,64.00,250.00,3.00,,10.00,29.71,
ALO,2022-05-13 01:54,-92.4013,42.5544,86.00,61.00,170.00,13.00,23.00,10.00,29.80,
INL,2022-05-13 01:54,-93.3956,48.5595,54.00,52.00,90.00,16.00,24.00,4.00,29.76,+TSRA BR
RST,2022-05-13 01:54,-92.4916,43.9041,82.00,59.00,160.00,12.00,,10.00,29.79,
TQE,2022-05-13 01:54,-96.1779,41.7635,73.00,59.00,170.00,25.00,54.00,6.00,29.75,TSRA
MOT,2022-05-13 01:54,-101.2803,48.2594,53.00,50.00,30.00,16.00,30.00,4.00,29.62,VCTS RA BR
DSM,2022-05-13 01:54,-93.6531,41.5339,83.00,62.00,170.00,11.00,,10.00,29.80,
S32,2022-05-13 01:55,-98.1059,47.4228,59.00,59.00,100.00,17.00,23.00,2.00,29.64,RA
OXV,2022-05-13 01:55,-93.1114,41.2984,82.40,62.60,160.00,9.00,,10.00,29.81,
VTI,2022-05-13 01:55,-92.0248,42.2176,83.80,59.50,150.00,10.00,16.00,10.00,29.83,
CCY,2022-05-13 01:55,-92.6132,43.0730,82.40,60.80,170.00,12.00,18.00,10.00,29.81,
IFA,2022-05-13 01:55,-93.2651,42.4691,84.20,65.70,160.00,17.00,22.00,10.00,29.81,
CNC,2022-05-13 01:55,-93.3608,41.0184,80.60,62.60,160.00,9.00,,10.00,29.82,
AWG,2022-05-13 01:55,-91.6748,41.2751,82.40,64.40,170.00,10.00,,10.00,29.86,
CSQ,2022-05-13 01:55,-94.3608,41.0188,78.80,64.40,180.00,9.00,,10.00,29.84,
FSW,2022-05-13 01:55,-91.3267,40.6615,84.20,64.40,170.00,8.00,,10.00,29.89,
EOK,2022-05-13 01:55,-91.4274,40.4615,82.40,66.20,160.00,7.00,,10.00,29.89,
SGS,2022-05-13 01:55,-93.0329,44.8571,84.70,58.50,210.00,5.00,,10.00,29.74,
ACQ,2022-05-13 01:55,-93.5529,44.0735,78.80,60.80,310.00,9.00,19.00,,29.78,
MPZ,2022-05-13 01:55,-91.5122,40.9453,82.40,64.40,170.00,9.00,,10.00,29.89,
AEL,2022-05-13 01:55,-93.3672,43.6815,86.00,62.60,190.00,12.00,17.00,10.00,29.76,
7L2,2022-05-13 01:55,-100.2456,46.2206,62.60,62.60,130.00,6.00,,10.00,29.47,
HZE,2022-05-13 01:55,-101.5810,47.2899,53.60,53.60,50.00,15.00,,2.50,29.52,-RA
D55,2022-05-13 01:55,-98.3937,48.7531,59.00,59.00,60.00,21.00,27.00,6.00,29.65,BR
06D,2022-05-13 01:55,-99.6208,48.8844,55.40,55.40,40.00,22.00,,10.00,29.65,
D60,2022-05-13 01:55,-102.8974,48.3803,48.20,48.20,50.00,23.00,31.00,2.00,29.66,+RA
IBM,2022-05-13 01:55,-103.6774,41.1881,56.30,23.00,280.00,25.00,34.00,10.00,29.97,
GHW,2022-05-13 01:55,-95.3204,45.6439,64.40,59.00,80.00,7.00,,10.00,29.64,VCTS
ULM,2022-05-13 01:55,-94.5000,44.3200,64.40,60.80,50.00,6.00,,10.00,29.71,
AIT,2022-05-13 01:55,-93.6768,46.5484,60.80,60.80,240.00,8.00,,7.00,29.84,+TSRA
AUM,2022-05-13 01:55,-92.9333,43.6647,84.20,62.60,170.00,13.00,18.00,10.00,29.78,
HCO,2022-05-13 01:55,-96.9430,48.7527,57.20,55.40,80.00,24.00,31.00,10.00,29.57,
MJQ,2022-05-13 01:55,-94.9865,43.6500,69.80,59.00,200.00,14.00,25.00,10.00,29.80,-RA
JMR,2022-05-13 01:55,-93.2718,45.8861,60.80,59.00,280.00,13.00,28.00,2.00,29.89,+VCTSRA
PQN,2022-05-13 01:55,-96.3004,43.9821,66.20,57.20,200.00,28.00,36.00,10.00,29.70,-TSRA
RGK,2022-05-13 01:55,-92.4868,44.5915,86.00,57.20,150.00,6.00,,10.00,29.74,
ROX,2022-05-13 01:55,-95.6971,48.8560,55.40,55.40,60.00,25.00,,10.00,29.69,-VCTSDZ
ONA,2022-05-13 01:55,-91.7083,44.0772,86.00,64.40,170.00,5.00,,10.00,29.77,
BVN,2022-05-13 01:55,-98.0558,41.7286,64.40,50.50,340.00,7.00,,10.00,29.82,
FET,2022-05-13 01:55,-96.5200,41.4500,76.60,57.40,130.00,16.00,31.00,10.00,29.70,-VCTSRA
HJH,2022-05-13 01:55,-97.5870,40.1523,79.20,56.50,170.00,12.00,,10.00,29.73,VCTS
LXN,2022-05-13 01:55,-99.7759,40.7904,63.30,38.50,340.00,7.00,,10.00,29.80,
AFK,2022-05-13 01:55,-95.8657,40.6069,83.50,57.00,170.00,14.00,,10.00,29.77,
OGA,2022-05-13 01:55,-101.7697,41.1195,63.50,29.10,310.00,16.00,,10.00,29.86,
ONL,2022-05-13 01:55,-98.6881,42.4697,62.60,44.20,300.00,6.00,,10.00,29.78,
TIF,2022-05-13 01:55,-100.5690,41.9622,62.20,32.20,270.00,12.00,,10.00,29.83,
LCG,2022-05-13 01:55,-96.9814,42.2419,69.30,59.00,210.00,11.00,,10.00,29.76,
JYR,2022-05-13 01:55,-97.6228,40.8967,68.00,60.80,290.00,13.00,18.00,8.00,29.88,TSRA
BJI,2022-05-13 01:55,-94.9337,47.5094,56.30,55.40,110.00,8.00,,10.00,29.74,
COQ,2022-05-13 01:55,-92.5036,46.7011,53.60,48.20,80.00,21.00,27.00,10.00,29.82,
DTL,2022-05-13 01:55,-95.8856,46.8252,66.20,57.20,100.00,17.00,26.00,5.00,29.53,-RA HZ
ELO,2022-05-13 01:55,-91.8371,47.8287,57.20,57.20,140.00,12.00,21.00,7.00,29.87,+VCTSRA
FGN,2022-05-13 01:55,-94.9028,49.3183,55.40,48.20,60.00,11.00,16.00,7.00,29.81,
FSE,2022-05-13 01:55,-95.7735,47.5928,57.20,55.40,120.00,13.00,23.00,10.00,29.65,
MZH,2022-05-13 01:55,-92.8048,46.4186,60.80,51.80,70.00,10.00,19.00,10.00,29.81,
BDH,2022-05-13 01:55,-95.1304,45.1177,66.20,60.80,100.00,15.00,,10.00,29.66,
HDE,2022-05-13 01:55,-99.3365,40.4521,62.00,47.80,350.00,11.00,,10.00,29.79,
MLE,2022-05-13 01:55,-96.1120,41.1960,70.70,63.70,70.00,5.00,,7.00,29.74,-VCTSRA
CFE,2022-05-13 01:55,-93.8433,45.1590,64.40,62.60,270.00,8.00,13.00,7.00,29.78,VCTS RA
CQM,2022-05-13 01:55,-92.6894,47.8219,55.40,53.60,100.00,6.00,,10.00,29.79,VCTS
TOB,2022-05-13 01:55,-92.8315,44.0180,82.40,55.40,160.00,16.00,,10.00,29.77,
DYT,2022-05-13 01:55,-92.0434,46.7219,41.00,41.00,20.00,21.00,,10.00,29.87,
GYL,2022-05-13 01:55,-94.0812,44.7560,64.00,62.60,30.00,5.00,,10.00,29.74,
LYV,2022-05-13 01:55,-96.2158,43.6212,62.60,60.80,130.00,15.00,18.00,10.00,29.72,-VCTSRA
HZX,2022-05-13 01:55,-93.3098,46.6188,66.20,55.40,210.00,19.00,32.00,10.00,29.90,
LVN,2022-05-13 01:55,-93.2273,44.6252,75.20,57.20,280.00,12.00,31.00,10.00,29.77,
VVV,2022-05-13 01:55,-96.4244,45.3057,62.60,60.80,110.00,6.00,,10.00,29.58,
PEX,2022-05-13 01:55,-94.7466,45.3723,62.60,60.80,80.00,10.00,,7.00,29.68,VCTSRA
PWC,2022-05-13 01:55,-94.3817,46.7248,64.40,59.00,170.00,10.00,,10.00,29.84,-TSRA
ROS,2022-05-13 01:55,-92.9530,45.6980,76.60,62.40,290.00,16.00,20.00,10.00,29.86,
SYN,2022-05-13 01:55,-93.0145,44.4736,84.60,59.40,180.00,10.00,,10.00,29.74,
SAZ,2022-05-13 01:55,-94.8066,46.3809,66.20,60.80,210.00,7.00,15.00,10.00,29.78,RA
21D,2022-05-13 01:55,-92.8557,44.9975,82.40,60.80,160.00,7.00,,10.00,29.75,
TKC,2022-05-13 01:55,-95.6072,44.2491,67.50,57.70,180.00,28.00,42.00,10.00,29.73,TS
RRT,2022-05-13 01:55,-95.3483,48.9414,44.60,41.00,50.00,18.00,23.00,4.00,29.74,BR
MWM,2022-05-13 01:55,-95.1094,43.9134,64.40,60.80,120.00,8.00,,7.00,29.72,-RA
14Y,2022-05-13 01:55,-94.8739,45.8983,62.60,57.20,70.00,9.00,,10.00,29.71,-RA
OVL,2022-05-13 01:55,-95.0328,44.7786,62.60,60.80,100.00,14.00,22.00,10.00,29.66,
D39,2022-05-13 01:55,-94.9334,45.7066,64.80,58.50,60.00,7.00,,10.00,29.67,-RA
Y19,2022-05-13 01:55,-100.8944,46.7680,59.00,59.00,100.00,13.00,23.00,9.00,29.49,-RA
RUG,2022-05-13 01:55,-100.0243,48.3904,57.20,53.60,60.00,23.00,33.00,9.00,29.57,VCTS DZ
S25,2022-05-13 01:55,-103.2552,47.7966,48.20,48.20,30.00,15.00,23.00,3.00,29.63,-RA
2D5,2022-05-13 01:55,-98.0799,46.1731,62.60,62.60,80.00,8.00,,10.00,29.47,
IKV,2022-05-13 01:55,-93.5695,41.6878,82.40,64.40,170.00,8.00,,9.00,29.81,
AIO,2022-05-13 01:55,-95.0465,41.4059,82.40,60.80,180.00,6.00,,10.00,29.80,
CKP,2022-05-13 01:55,-95.5538,42.7304,66.20,64.00,160.00,9.00,,10.00,29.77,-DZ
ICL,2022-05-13 01:55,-95.0223,40.7242,80.60,57.20,180.00,5.00,,10.00,29.83,
DEH,2022-05-13 01:55,-91.7433,43.2755,82.40,59.00,170.00,9.00,17.00,10.00,29.81,
OLZ,2022-05-13 01:55,-91.9760,42.6831,82.40,62.60,170.00,14.00,,10.00,29.83,
RDK,2022-05-13 01:55,-95.2624,41.0106,84.20,55.40,180.00,8.00,,10.00,29.80,
SHL,2022-05-13 01:55,-95.8353,43.2082,69.80,57.20,240.00,22.00,36.00,8.00,29.74,-RA
SDA,2022-05-13 01:55,-95.4112,40.7533,86.00,55.40,180.00,10.00,,10.00,29.78,
SLB,2022-05-13 01:55,-95.2399,42.5972,69.80,59.00,270.00,7.00,,8.00,29.80,
AXA,2022-05-13 01:55,-94.2724,43.0796,86.00,66.20,180.00,18.00,,10.00,29.75,
ADU,2022-05-13 01:55,-94.9204,41.6994,82.40,53.60,0.00,0.00,,10.00,29.83,
CIN,2022-05-13 01:55,-94.7889,42.0444,80.60,48.20,250.00,10.00,17.00,10.00,29.81,
FXY,2022-05-13 01:55,-93.6237,43.2323,84.20,64.40,170.00,14.00,20.00,10.00,29.78,
HNR,2022-05-13 01:55,-95.3355,41.5834,80.60,51.80,290.00,15.00,20.00,10.00,29.82,
LRJ,2022-05-13 01:55,-96.1923,42.7754,73.40,57.20,190.00,18.00,,10.00,29.71,
MUT,2022-05-13 01:55,-91.1406,41.3670,82.40,64.40,170.00,10.00,,10.00,29.88,
OOA,2022-05-13 01:55,-92.4919,41.2273,83.70,61.30,150.00,12.00,,10.00,29.84,
PRO,2022-05-13 01:55,-94.1637,41.8278,82.60,62.20,180.00,10.00,,10.00,29.80,
GGI,2022-05-13 01:55,-92.7332,41.7097,83.50,64.40,150.00,11.00,,10.00,29.84,
MXO,2022-05-13 01:55,-91.1605,42.2204,84.20,62.60,170.00,10.00,,10.00,29.86,
PEA,2022-05-13 01:55,-92.9431,41.3989,83.70,64.20,150.00,9.00,,10.00,29.83,
EBS,2022-05-13 01:55,-93.8691,42.4392,84.20,66.20,180.00,14.00,,10.00,29.78,
BNW,2022-05-13 01:55,-93.8486,42.0486,84.20,64.40,180.00,9.00,,10.00,29.82,
CAV,2022-05-13 01:55,-93.7593,42.7430,84.20,68.00,190.00,14.00,,10.00,29.78,
DNS,2022-05-13 01:55,-95.3800,41.9842,78.80,50.00,250.00,19.00,32.00,10.00,29.84,
FFL,2022-05-13 01:55,-91.9834,41.0521,84.20,64.40,160.00,10.00,16.00,10.00,29.87,
TNU,2022-05-13 01:55,-93.0190,41.6701,82.40,64.40,160.00,13.00,,8.00,29.81,
9V9,2022-05-13 01:55,-99.3183,43.7667,62.00,49.30,270.00,13.00,18.00,10.00,29.69,
96D,2022-05-13 01:55,-97.9028,48.9406,60.80,55.40,80.00,13.00,18.00,10.00,29.70,VCTS
EVM,2022-05-13 01:55,-92.4981,47.4251,59.00,55.40,100.00,10.00,18.00,10.00,29.84,
AHQ,2022-05-13 01:55,-96.5946,41.2406,71.00,60.60,120.00,11.00,,10.00,29.68,
AUH,2022-05-13 01:55,-97.9946,40.8941,62.80,55.80,270.00,5.00,21.00,10.00,29.83,TSRA
PMV,2022-05-13 01:55,-95.9179,40.9502,84.40,54.00,0.00,0.00,,10.00,29.78,
CKN,2022-05-13 01:55,-96.6214,47.8417,57.20,,70.00,14.00,20.00,3.00,29.68,TSRA
FBL,2022-05-13 01:55,-93.3108,44.3247,82.40,62.60,270.00,11.00,16.00,10.00,29.78,
FFM,2022-05-13 01:55,-96.1567,46.2844,64.40,62.60,0.00,0.00,,10.00,29.53,
04W,2022-05-13 01:55,-92.8952,46.0229,73.40,57.20,80.00,10.00,,10.00,29.78,
LXL,2022-05-13 01:55,-94.3469,45.9492,62.60,60.80,350.00,5.00,,7.00,29.78,RA
JKJ,2022-05-13 01:55,-96.6640,46.8393,66.20,60.80,170.00,14.00,,10.00,29.55,-RA
VWU,2022-05-13 01:55,-94.5167,48.1539,57.20,55.40,60.00,16.00,19.00,10.00,29.72,
3N8,2022-05-13 01:55,-95.9281,47.2605,63.30,58.60,140.00,21.00,28.00,10.00,29.63,-RA
Y49,2022-05-13 01:55,-94.6453,47.1595,57.20,56.70,120.00,4.00,15.00,10.00,29.73,VCTS
GRN,2022-05-13 01:55,-102.1753,42.8060,53.20,38.70,270.00,8.00,,10.00,29.81,
HPT,2022-05-13 01:55,-93.2244,42.7175,84.20,60.80,170.00,16.00,20.00,10.00,29.79,
SXK,2022-05-13 01:55,-96.1614,42.9858,73.40,57.20,170.00,14.00,26.00,10.00,29.69,
TVK,2022-05-13 01:55,-92.8983,40.6832,78.80,64.40,140.00,10.00,,10.00,29.87,
20U,2022-05-13 01:55,-103.9821,46.9252,46.40,46.40,350.00,14.00,19.00,7.00,29.65,-DZ
BWW,2022-05-13 01:55,-103.3007,46.1655,50.00,50.00,330.00,15.00,,1.50,29.58,BR
9D7,2022-05-13 01:55,-99.2364,48.4800,57.20,53.60,60.00,15.00,21.00,10.00,29.63,
46D,2022-05-13 01:55,-99.1513,47.4511,59.00,57.20,90.00,15.00,29.00,10.00,29.54,TS
2C8,2022-05-13 01:55,-97.6320,48.7837,60.80,53.60,70.00,11.00,20.00,10.00,29.66,
D50,2022-05-13 01:55,-103.2973,48.9285,48.20,48.20,40.00,15.00,20.00,3.00,29.73,+RA
D57,2022-05-13 01:55,-101.8602,46.8128,55.40,55.40,10.00,11.00,,0.75,29.47,BR
GAF,2022-05-13 01:55,-97.3709,48.4047,57.20,57.20,80.00,22.00,32.00,5.00,29.60,VCTS RA
GWR,2022-05-13 01:55,-97.6435,46.2187,64.40,64.40,0.00,0.00,,10.00,29.48,
5H4,2022-05-13 01:55,-99.9317,47.7912,55.40,55.40,90.00,18.00,25.00,6.00,29.58,VCTS BR
08D,2022-05-13 01:55,-102.4064,48.3008,48.20,48.20,30.00,19.00,26.00,1.50,29.64,+RA
BAC,2022-05-13 01:55,-98.0180,46.9412,59.00,59.00,50.00,14.00,,3.00,29.60,-RA BR
BWP,2022-05-13 01:55,-96.6074,46.2441,64.40,60.80,130.00,4.00,,10.00,29.52,
BTN,2022-05-13 01:55,-97.7428,45.8150,62.60,62.60,150.00,9.00,,10.00,29.53,
HON,2022-05-13 01:55,-98.2286,44.3852,66.00,57.00,250.00,11.00,24.00,10.00,,
PHP,2022-05-13 01:55,-101.6000,44.0500,55.00,45.00,260.00,12.00,,10.00,29.66,
SPF,2022-05-13 01:55,-103.7830,44.4803,44.60,42.80,270.00,13.00,18.00,6.00,29.75,-RA
BIE,2022-05-13 01:55,-96.7541,40.3013,74.70,60.40,180.00,8.00,,10.00,29.73,
BTA,2022-05-13 01:55,-96.1090,41.4148,71.00,58.60,170.00,9.00,22.00,7.00,29.81,+TSRA
CBF,2022-05-13 01:55,-95.7604,41.2611,80.60,44.60,310.00,11.00,,10.00,29.79,
DLH,2022-05-13 01:55,-92.1936,46.8421,54.00,51.00,90.00,25.00,44.00,10.00,29.86,
HCD,2022-05-13 01:55,-94.3825,44.8599,64.40,64.00,30.00,7.00,,10.00,29.74,
GDB,2022-05-13 01:55,-95.5560,44.7533,72.00,60.00,110.00,13.00,18.00,10.00,29.62,VCTS
FKA,2022-05-13 01:55,-92.1797,43.6767,82.80,60.00,170.00,18.00,25.00,10.00,29.81,
I75,2022-05-13 01:55,-93.6876,41.0472,80.80,62.00,160.00,8.00,,10.00,29.83,
ANW,2022-05-13 01:55,-99.9930,42.5792,61.20,33.00,270.00,15.00,20.00,10.00,29.77,
9MN,2022-05-13 01:55,-92.4831,44.0198,85.00,57.40,140.00,11.00,16.00,10.00,29.78,
8D3,2022-05-13 01:56,-96.9914,45.6689,63.00,59.00,140.00,8.00,,,29.54,
OTG,2022-05-13 01:56,-95.5792,43.6551,66.00,64.00,240.00,15.00,,10.00,29.82,-TSRA
OLU,2022-05-13 01:56,-97.3426,41.4480,70.00,59.00,290.00,20.00,30.00,10.00,29.80,VCTS -RA
JMS,2022-05-13 01:56,-98.6800,46.9300,61.00,59.00,70.00,27.00,38.00,10.00,29.42,-RA
FOD,2022-05-13 01:56,-94.2032,42.5497,85.00,64.00,190.00,15.00,22.00,10.00,29.79,
RYM,2022-05-13 01:56,-94.3575,46.0895,63.50,61.70,40.00,4.00,,10.00,29.77,VCTS RA
DVL,2022-05-13 01:56,-98.9083,48.1146,57.00,54.00,70.00,22.00,32.00,10.00,29.55,-TSRA
RDR,2022-05-13 01:56,-97.4012,47.9611,60.80,58.50,120.00,11.00,,7.00,29.67,+TSRA
2WX,2022-05-13 01:56,-103.5464,45.6044,49.00,48.00,280.00,18.00,26.00,,29.59,
RCA,2022-05-13 01:56,-103.1036,44.1451,50.40,46.60,30.00,4.00,,10.00,29.70,-RA
D07,2022-05-13 01:56,-102.0200,45.0300,52.00,48.00,250.00,20.00,,,29.58,
FSD,2022-05-13 01:56,-96.7536,43.5769,75.00,57.00,190.00,13.00,,10.00,29.65,
FRM,2022-05-13 01:56,-94.4156,43.6439,73.00,62.00,120.00,7.00,,5.00,29.74,HZ
GPZ,2022-05-13 01:56,-93.5097,47.2111,61.00,58.00,130.00,9.00,,10.00,29.73,
MKT,2022-05-13 01:56,-93.9200,44.2200,72.00,62.00,40.00,6.00,,10.00,29.75,
EAR,2022-05-13 01:56,-99.0068,40.7270,63.00,51.00,350.00,5.00,,10.00,29.82,
GNA,2022-05-13 01:56,-90.3457,47.7453,45.00,42.00,80.00,10.00,,,29.91,
DIK,2022-05-13 01:56,-102.8019,46.7973,50.00,49.00,10.00,15.00,,6.00,29.51,BR
CWI,2022-05-13 01:56,-90.3328,41.8295,82.00,67.00,170.00,8.00,,10.00,29.90,
OFF,2022-05-13 01:56,-95.9125,41.1183,80.20,58.00,330.00,7.00,,9.00,29.78,-TSRA
YKN,2022-05-13 01:56,-97.3859,42.9167,70.00,60.00,260.00,23.00,29.00,10.00,29.74,
OFK,2022-05-13 01:56,-97.4351,41.9855,66.00,53.00,290.00,20.00,31.00,10.00,29.78,
TVF,2022-05-13 01:56,-96.1850,48.0657,58.00,56.00,20.00,10.00,23.00,10.00,29.70,-TSRA
MML,2022-05-13 01:56,-95.8200,44.4500,71.00,60.00,220.00,29.00,39.00,10.00,29.66,TSRA
1HW,2022-05-13 01:58,-102.8289,41.3251,61.00,22.80,290.00,24.00,31.00,10.00,29.89,
1CW,2022-05-13 01:58,-103.6706,41.5900,58.80,18.90,280.00,20.00,31.00,10.00,29.93,
1BW,2022-05-13 01:58,-103.9950,41.5117,53.80,19.80,280.00,29.00,35.00,10.00,29.97,
PNM,2022-05-13 02:15,-93.6082,45.5599,64.40,62.60,20.00,3.00,,10.00,29.79,-RA
FSE,2022-05-13 02:15,-95.7735,47.5928,59.00,55.40,110.00,11.00,22.00,10.00,29.64,
SYN,2022-05-13 02:15,-93.0145,44.4736,82.00,61.30,190.00,5.00,,10.00,29.75,
ORB,2022-05-13 02:33,-92.8560,48.0159,55.40,55.40,100.00,8.00,,10.00,29.77,
EVM,2022-05-13 02:35,-92.4981,47.4251,53.60,51.80,110.00,13.00,24.00,10.00,29.82,
JYG,2022-05-13 02:36,-94.5579,43.9863,69.80,62.60,210.00,5.00,,10.00,29.80,-VCTSRA
XWA,2022-05-13 02:51,-103.7505,48.2597,47.00,46.00,20.00,24.00,34.00,2.00,29.64,+RA BR
N60,2022-05-13 02:52,-101.4394,47.6458,54.00,52.00,50.00,17.00,39.00,,29.48,
OMA,2022-05-13 02:52,-95.8992,41.3103,77.00,57.00,120.00,5.00,,10.00,29.74,
VTN,2022-05-13 02:52,-100.5489,42.8567,55.00,36.00,250.00,7.00,,10.00,29.77,
CID,2022-05-13 02:52,-91.7246,41.8829,82.00,63.00,170.00,11.00,,10.00,29.86,
MBG,2022-05-13 02:52,-100.4078,45.5464,59.00,52.00,220.00,15.00,23.00,10.00,29.51,
IEN,2022-05-13 02:52,-102.5110,43.0225,52.00,41.00,270.00,23.00,37.00,10.00,29.80,
IOW,2022-05-13 02:52,-91.5445,41.6394,84.00,62.00,170.00,11.00,,10.00,29.88,
EST,2022-05-13 02:52,-94.7476,43.4008,70.00,60.00,240.00,10.00,,10.00,29.79,
SUX,2022-05-13 02:52,-96.3795,42.3917,68.00,60.00,190.00,3.00,,10.00,29.74,-RA
DVN,2022-05-13 02:52,-90.5948,41.6133,82.00,65.00,150.00,8.00,,10.00,29.92,
BIS,2022-05-13 02:52,-100.7458,46.7727,60.00,58.00,80.00,10.00,,10.00,29.44,
RAP,2022-05-13 02:52,-103.0574,44.0453,49.00,44.00,220.00,8.00,,10.00,29.73,-RA
CDD,2022-05-13 02:53,-92.4830,48.2660,51.80,50.00,80.00,3.00,,4.00,29.85,VCTSRA
IML,2022-05-13 02:53,-101.6201,40.5103,62.00,28.90,320.00,12.00,,10.00,29.87,
SNY,2022-05-13 02:53,-102.9847,41.1014,58.00,24.10,290.00,24.00,37.00,10.00,29.92,
MCK,2022-05-13 02:53,-100.5921,40.2063,64.00,30.00,360.00,9.00,,10.00,29.84,
HEI,2022-05-13 02:53,-102.6560,46.0149,50.00,48.00,280.00,16.00,,3.00,29.49,BR
AXN,2022-05-13 02:53,-95.3947,45.8663,63.00,59.00,100.00,10.00,,10.00,,VCTS
BDE,2022-05-13 02:53,-94.6122,48.7284,57.00,54.00,90.00,17.00,27.00,9.00,29.73,-TSRA
FNB,2022-05-13 02:53,-95.5920,40.0788,80.00,61.00,190.00,5.00,14.00,10.00,29.80,
FCM,2022-05-13 02:53,-93.4607,44.8261,70.00,61.00,60.00,8.00,17.00,10.00,29.74,
PKD,2022-05-13 02:53,-95.0700,46.9000,63.00,59.00,110.00,11.00,17.00,10.00,29.63,
RWF,2022-05-13 02:53,-95.0820,44.5469,66.00,61.00,210.00,10.00,20.00,10.00,29.74,-TSRA
OWA,2022-05-13 02:53,-93.2606,44.1233,82.40,62.60,170.00,11.00,,10.00,29.79,
BFF,2022-05-13 02:53,-103.5956,41.8740,53.00,34.00,280.00,13.00,22.00,10.00,29.94,
AQP,2022-05-13 02:53,-96.0043,45.2275,66.20,59.00,150.00,17.00,24.00,5.00,29.72,RA
FOZ,2022-05-13 02:53,-93.6502,47.7828,59.00,57.20,80.00,6.00,,7.00,29.85,
XVG,2022-05-13 02:53,-94.2039,46.9900,62.60,60.80,170.00,8.00,14.00,10.00,29.79,VCTSRA
BRL,2022-05-13 02:53,-91.1255,40.7729,78.00,64.00,150.00,6.00,,10.00,29.90,
MIW,2022-05-13 02:53,-92.9163,42.1106,81.00,63.00,160.00,10.00,,10.00,29.83,
OTM,2022-05-13 02:53,-92.4446,41.1008,80.00,63.00,160.00,11.00,,10.00,29.85,
LBF,2022-05-13 02:53,-100.6690,41.1219,61.00,34.00,310.00,9.00,,10.00,29.82,
AIA,2022-05-13 02:53,-102.8000,42.0572,52.00,34.00,280.00,19.00,26.00,10.00,29.90,
GRI,2022-05-13 02:53,-98.3096,40.9675,63.00,52.00,120.00,3.00,,10.00,29.85,
ORB,2022-05-13 02:53,-92.8560,48.0159,55.40,55.40,70.00,4.00,,10.00,29.75,VCTS
DVP,2022-05-13 02:53,-95.7826,43.9868,65.30,58.30,160.00,8.00,,10.00,29.68,-RA
FAR,2022-05-13 02:53,-96.8111,46.9253,62.00,59.00,40.00,10.00,,10.00,29.53,
GFK,2022-05-13 02:53,-97.1761,47.9492,60.00,57.00,80.00,15.00,25.00,8.00,29.60,RA
ATY,2022-05-13 02:53,-97.1547,44.9140,65.00,61.00,220.00,15.00,,10.00,29.68,
ICR,2022-05-13 02:53,-99.8422,43.3903,58.00,41.00,240.00,10.00,,10.00,29.76,
BBW,2022-05-13 02:53,-99.6385,41.4365,65.00,30.00,320.00,10.00,,10.00,29.79,
DBQ,2022-05-13 02:53,-90.7091,42.3984,79.00,65.00,170.00,12.00,,10.00,29.89,
MCW,2022-05-13 02:53,-93.3261,43.1544,81.00,62.00,180.00,13.00,,10.00,29.82,
HIB,2022-05-13 02:53,-92.8390,47.3866,57.00,53.00,160.00,8.00,31.00,1.50,29.92,RA BR
MSP,2022-05-13 02:53,-93.2313,44.8854,72.00,60.00,60.00,8.00,,10.00,29.77,
HSI,2022-05-13 02:53,-98.4279,40.6052,63.00,53.00,0.00,0.00,,10.00,29.88,
MIC,2022-05-13 02:53,-93.3511,45.0622,70.00,60.00,60.00,6.00,,10.00,29.74,
STC,2022-05-13 02:53,-94.0513,45.5433,64.00,62.00,60.00,7.00,,10.00,29.71,
AMW,2022-05-13 02:53,-93.6185,41.9904,77.00,65.00,160.00,5.00,,10.00,29.83,
MHE,2022-05-13 02:53,-98.0386,43.7748,64.00,53.00,230.00,8.00,,10.00,29.72,
PIR,2022-05-13 02:53,-100.2860,44.3827,59.00,47.00,250.00,13.00,21.00,10.00,29.66,
BRD,2022-05-13 02:53,-94.1308,46.4047,64.00,60.00,,6.00,,4.00,,RA BR
CDR,2022-05-13 02:53,-103.0954,42.8376,51.00,42.00,280.00,20.00,31.00,10.00,29.85,
ODX,2022-05-13 02:53,-98.9517,41.6236,60.00,44.00,320.00,7.00,,10.00,29.79,
STP,2022-05-13 02:53,-93.0600,44.9345,74.00,60.00,10.00,6.00,,10.00,29.79,
LWD,2022-05-13 02:53,-93.9005,40.6306,78.00,60.00,190.00,8.00,,10.00,29.87,
SPW,2022-05-13 02:53,-95.2101,43.1682,69.00,62.00,170.00,12.00,,10.00,29.80,
ABR,2022-05-13 02:53,-98.4200,45.4500,65.00,60.00,220.00,15.00,,10.00,29.55,
CUT,2022-05-13 02:53,-103.6114,43.7331,38.00,35.00,260.00,16.00,34.00,10.00,29.79,-RA
TQE,2022-05-13 02:54,-96.1779,41.7635,75.00,59.00,200.00,25.00,31.00,10.00,29.79,
LNK,2022-05-13 02:54,-96.7633,40.8312,73.00,53.00,280.00,26.00,44.00,10.00,29.90,
RST,2022-05-13 02:54,-92.4916,43.9041,81.00,60.00,180.00,15.00,23.00,10.00,29.82,
DSM,2022-05-13 02:54,-93.6531,41.5339,80.00,62.00,170.00,9.00,,10.00,29.83,
ALO,2022-05-13 02:54,-92.4013,42.5544,83.00,62.00,170.00,11.00,,10.00,29.82,
INL,2022-05-13 02:54,-93.3956,48.5595,53.00,51.00,40.00,10.00,27.00,6.00,29.79,+TSRA BR
MOT,2022-05-13 02:54,-101.2803,48.2594,53.00,51.00,30.00,17.00,23.00,10.00,29.57,VCTS
OXV,2022-05-13 02:55,-93.1114,41.2984,82.40,64.40,180.00,9.00,,10.00,29.85,
CCY,2022-05-13 02:55,-92.6132,43.0730,80.60,62.60,180.00,12.00,19.00,10.00,29.83,
IFA,2022-05-13 02:55,-93.2651,42.4691,81.70,65.70,180.00,12.00,,10.00,29.85,
AEL,2022-05-13 02:55,-93.3672,43.6815,84.20,64.40,180.00,12.00,20.00,10.00,29.79,
CNC,2022-05-13 02:55,-93.3608,41.0184,77.00,62.60,170.00,9.00,,10.00,29.85,
CSQ,2022-05-13 02:55,-94.3608,41.0188,77.00,64.40,170.00,10.00,,10.00,29.84,
FSW,2022-05-13 02:55,-91.3267,40.6615,82.40,66.20,160.00,7.00,,10.00,29.90,
AWG,2022-05-13 02:55,-91.6748,41.2751,80.60,66.20,160.00,12.00,,10.00,29.86,
ACQ,2022-05-13 02:55,-93.5529,44.0735,71.60,60.80,50.00,6.00,,,29.78,
MPZ,2022-05-13 02:55,-91.5122,40.9453,80.60,64.40,160.00,10.00,,10.00,29.89,
SGS,2022-05-13 02:55,-93.0329,44.8571,75.00,59.00,20.00,8.00,,10.00,29.77,
PNM,2022-05-13 02:55,-93.6082,45.5599,64.40,62.60,60.00,9.00,14.00,10.00,29.75,
HZE,2022-05-13 02:55,-101.5810,47.2899,55.40,55.40,50.00,15.00,22.00,3.00,29.47,-RA
D55,2022-05-13 02:55,-98.3937,48.7531,55.40,55.40,90.00,23.00,28.00,6.00,29.66,VCTS RA
7L2,2022-05-13 02:55,-100.2456,46.2206,62.60,62.60,180.00,10.00,,7.00,29.47,
06D,2022-05-13 02:55,-99.6208,48.8844,53.60,53.60,40.00,19.00,29.00,,29.61,-TSRA
D60,2022-05-13 02:55,-102.8974,48.3803,48.20,48.20,40.00,26.00,33.00,3.00,29.60,-RA
GHW,2022-05-13 02:55,-95.3204,45.6439,64.40,59.00,110.00,21.00,26.00,10.00,29.69,-VCTSDZ
IBM,2022-05-13 02:55,-103.6774,41.1881,53.00,23.50,300.00,17.00,23.00,10.00,30.00,
AIT,2022-05-13 02:55,-93.6768,46.5484,60.80,60.80,0.00,0.00,,10.00,29.82,VCTSRA
AUM,2022-05-13 02:55,-92.9333,43.6647,80.60,62.60,180.00,10.00,,10.00,29.83,
HCO,2022-05-13 02:55,-96.9430,48.7527,57.20,55.40,90.00,16.00,31.00,7.00,29.70,VCTSRA
JMR,2022-05-13 02:55,-93.2718,45.8861,59.00,57.20,70.00,5.00,,10.00,29.82,-VCTSRA
ULM,2022-05-13 02:55,-94.5000,44.3200,64.40,62.60,270.00,12.00,,10.00,29.82,TSRA
LXN,2022-05-13 02:55,-99.7759,40.7904,59.50,41.00,350.00,4.00,,10.00,29.83,
OGA,2022-05-13 02:55,-101.7697,41.1195,57.60,29.30,240.00,7.00,,10.00,29.87,
BJI,2022-05-13 02:55,-94.9337,47.5094,57.00,56.80,130.00,9.00,,10.00,29.72,RA
COQ,2022-05-13 02:55,-92.5036,46.7011,59.00,51.80,240.00,8.00,18.00,5.00,29.96,+RA
ELO,2022-05-13 02:55,-91.8371,47.8287,53.60,53.60,100.00,6.00,,10.00,29.86,-TSRA
FSE,2022-05-13 02:55,-95.7735,47.5928,60.80,55.40,20.00,6.00,,10.00,29.58,-RA
HCD,2022-05-13 02:55,-94.3825,44.8599,65.30,63.50,100.00,8.00,,10.00,29.71,
MJQ,2022-05-13 02:55,-94.9865,43.6500,66.20,60.80,0.00,0.00,,10.00,29.77,
MZH,2022-05-13 02:55,-92.8048,46.4186,60.80,57.20,80.00,3.00,,4.00,29.89,TSRA
PQN,2022-05-13 02:55,-96.3004,43.9821,66.20,59.00,190.00,12.00,16.00,10.00,29.70,
RGK,2022-05-13 02:55,-92.4868,44.5915,82.40,59.00,0.00,0.00,,10.00,29.78,
ROX,2022-05-13 02:55,-95.6971,48.8560,55.40,55.40,70.00,24.00,28.00,,29.79,
ONA,2022-05-13 02:55,-91.7083,44.0772,86.00,64.40,170.00,7.00,,10.00,29.79,
FET,2022-05-13 02:55,-96.5200,41.4500,76.00,59.50,260.00,23.00,39.00,10.00,29.89,
HJH,2022-05-13 02:55,-97.5870,40.1523,65.80,56.70,270.00,12.00,,10.00,29.87,-TSRA
HDE,2022-05-13 02:55,-99.3365,40.4521,58.80,48.20,40.00,6.00,,10.00,29.83,
MLE,2022-05-13 02:55,-96.1120,41.1960,70.00,66.00,0.00,0.00,,10.00,29.78,
AFK,2022-05-13 02:55,-95.8657,40.6069,82.20,56.80,170.00,15.00,23.00,10.00,29.76,
LCG,2022-05-13 02:55,-96.9814,42.2419,64.00,56.70,280.00,10.00,,10.00,29.83,-TSRA
JYR,2022-05-13 02:55,-97.6228,40.8967,62.60,55.40,60.00,11.00,,9.00,29.84,VCTS RA
CQM,2022-05-13 02:55,-92.6894,47.8219,57.20,55.40,100.00,9.00,15.00,10.00,29.76,
DYT,2022-05-13 02:55,-92.0434,46.7219,44.60,42.80,40.00,20.00,26.00,10.00,29.84,VCTS
FGN,2022-05-13 02:55,-94.9028,49.3183,53.60,50.00,90.00,13.00,25.00,10.00,29.75,
GYL,2022-05-13 02:55,-94.0812,44.7560,64.80,63.00,100.00,7.00,,7.00,29.72,
LVN,2022-05-13 02:55,-93.2273,44.6252,71.60,57.20,50.00,5.00,,10.00,29.77,
PWC,2022-05-13 02:55,-94.3817,46.7248,62.60,60.80,90.00,14.00,17.00,10.00,29.74,RA
BDH,2022-05-13 02:55,-95.1304,45.1177,66.20,62.60,200.00,11.00,23.00,4.00,29.85,+TSRA
MWM,2022-05-13 02:55,-95.1094,43.9134,64.40,60.80,110.00,3.00,,10.00,29.72,
CFE,2022-05-13 02:55,-93.8433,45.1590,64.40,62.60,80.00,10.00,15.00,10.00,29.71,VCTS
TOB,2022-05-13 02:55,-92.8315,44.0180,80.60,59.00,180.00,15.00,,10.00,29.82,
GDB,2022-05-13 02:55,-95.5560,44.7533,66.70,62.40,180.00,17.00,25.00,7.00,29.75,RA
14Y,2022-05-13 02:55,-94.8739,45.8983,60.80,59.00,100.00,10.00,,10.00,29.68,TS
LYV,2022-05-13 02:55,-96.2158,43.6212,68.00,55.40,200.00,23.00,28.00,10.00,29.73,
HZX,2022-05-13 02:55,-93.3098,46.6188,62.60,59.00,0.00,0.00,,7.00,29.85,VCTS
OVL,2022-05-13 02:55,-95.0328,44.7786,62.60,60.80,210.00,19.00,24.00,4.00,29.81,-TSRA
VVV,2022-05-13 02:55,-96.4244,45.3057,62.60,60.80,160.00,16.00,23.00,10.00,29.70,-VCTSRA
PEX,2022-05-13 02:55,-94.7466,45.3723,64.40,60.80,210.00,6.00,,10.00,29.73,TSRA
FKA,2022-05-13 02:55,-92.1797,43.6767,80.60,60.60,180.00,16.00,20.00,10.00,29.82,
9MN,2022-05-13 02:55,-92.4831,44.0198,83.00,57.70,150.00,8.00,17.00,10.00,29.81,
SYN,2022-05-13 02:55,-93.0145,44.4736,76.60,60.80,0.00,0.00,,10.00,29.76,
SAZ,2022-05-13 02:55,-94.8066,46.3809,64.40,60.80,70.00,3.00,,10.00,29.66,
21D,2022-05-13 02:55,-92.8557,44.9975,71.60,59.00,10.00,6.00,,10.00,29.81,
RRT,2022-05-13 02:55,-95.3483,48.9414,48.20,44.60,70.00,11.00,21.00,4.00,29.83,+TSRA
Y19,2022-05-13 02:55,-100.8944,46.7680,57.20,57.20,90.00,10.00,,10.00,29.44,
2D5,2022-05-13 02:55,-98.0799,46.1731,62.60,62.60,110.00,6.00,12.00,10.00,29.52,
RUG,2022-05-13 02:55,-100.0243,48.3904,53.60,53.60,360.00,15.00,20.00,1.50,29.60,+RA
08D,2022-05-13 02:55,-102.4064,48.3008,48.20,48.20,40.00,17.00,26.00,5.00,29.60,-RA
S25,2022-05-13 02:55,-103.2552,47.7966,48.20,48.20,30.00,17.00,22.00,10.00,29.57,-DZ
ICL,2022-05-13 02:55,-95.0223,40.7242,82.40,57.20,170.00,9.00,16.00,10.00,29.81,
CBF,2022-05-13 02:55,-95.7604,41.2611,77.00,46.40,100.00,8.00,13.00,10.00,29.74,
IKV,2022-05-13 02:55,-93.5695,41.6878,82.40,62.60,190.00,7.00,,10.00,29.85,
AIO,2022-05-13 02:55,-95.0465,41.4059,78.80,57.20,330.00,10.00,,10.00,29.79,
CKP,2022-05-13 02:55,-95.5538,42.7304,67.30,61.00,190.00,9.00,,10.00,29.81,-DZ
DEH,2022-05-13 02:55,-91.7433,43.2755,80.60,59.00,180.00,8.00,,10.00,29.84,
OLZ,2022-05-13 02:55,-91.9760,42.6831,78.80,62.60,180.00,12.00,,10.00,29.86,
OOA,2022-05-13 02:55,-92.4919,41.2273,80.80,62.60,170.00,10.00,,10.00,29.86,
RDK,2022-05-13 02:55,-95.2624,41.0106,82.40,57.20,150.00,11.00,,10.00,29.78,
SHL,2022-05-13 02:55,-95.8353,43.2082,68.00,59.00,190.00,18.00,27.00,8.00,29.77,
SDA,2022-05-13 02:55,-95.4112,40.7533,84.20,57.20,160.00,14.00,20.00,10.00,29.75,
SLB,2022-05-13 02:55,-95.2399,42.5972,69.80,57.20,240.00,18.00,24.00,10.00,29.80,
AXA,2022-05-13 02:55,-94.2724,43.0796,75.20,59.00,210.00,8.00,,8.00,29.80,
ADU,2022-05-13 02:55,-94.9204,41.6994,77.00,48.20,290.00,3.00,,10.00,29.83,
CIN,2022-05-13 02:55,-94.7889,42.0444,77.00,50.00,230.00,5.00,10.00,10.00,29.81,
FXY,2022-05-13 02:55,-93.6237,43.2323,80.60,64.40,180.00,13.00,,10.00,29.81,
HNR,2022-05-13 02:55,-95.3355,41.5834,77.00,55.40,20.00,4.00,,10.00,29.79,
LRJ,2022-05-13 02:55,-96.1923,42.7754,69.80,59.00,150.00,15.00,22.00,9.00,29.72,-RA
MUT,2022-05-13 02:55,-91.1406,41.3670,78.80,64.40,160.00,7.00,,10.00,29.88,
I75,2022-05-13 02:55,-93.6876,41.0472,79.20,61.50,170.00,8.00,,7.00,29.86,
PRO,2022-05-13 02:55,-94.1637,41.8278,81.00,61.70,170.00,9.00,,10.00,29.82,
MXO,2022-05-13 02:55,-91.1605,42.2204,80.60,64.40,140.00,7.00,,10.00,29.87,
PEA,2022-05-13 02:55,-92.9431,41.3989,80.00,63.70,170.00,6.00,,10.00,29.86,
EBS,2022-05-13 02:55,-93.8691,42.4392,80.60,66.20,210.00,10.00,,10.00,29.82,
BNW,2022-05-13 02:55,-93.8486,42.0486,82.40,64.40,180.00,9.00,16.00,10.00,29.85,
CAV,2022-05-13 02:55,-93.7593,42.7430,82.40,66.20,210.00,12.00,18.00,10.00,29.83,
DNS,2022-05-13 02:55,-95.3800,41.9842,75.20,53.60,160.00,5.00,,10.00,29.77,
FFL,2022-05-13 02:55,-91.9834,41.0521,82.40,64.40,160.00,11.00,,10.00,29.87,
TNU,2022-05-13 02:55,-93.0190,41.6701,78.80,64.40,160.00,9.00,,9.00,29.84,
9V9,2022-05-13 02:55,-99.3183,43.7667,59.50,47.30,250.00,10.00,,10.00,29.74,
96D,2022-05-13 02:55,-97.9028,48.9406,57.20,57.20,110.00,13.00,20.00,5.00,29.74,-TSRA
EVM,2022-05-13 02:55,-92.4981,47.4251,53.60,51.80,180.00,14.00,36.00,10.00,29.86,RA
PMV,2022-05-13 02:55,-95.9179,40.9502,82.80,56.50,150.00,10.00,15.00,10.00,29.76,
CKN,2022-05-13 02:55,-96.6214,47.8417,57.20,,80.00,13.00,18.00,10.00,29.63,
FBL,2022-05-13 02:55,-93.3108,44.3247,73.40,60.80,40.00,3.00,,10.00,29.79,
FFM,2022-05-13 02:55,-96.1567,46.2844,64.40,60.80,110.00,6.00,,10.00,29.56,
04W,2022-05-13 02:55,-92.8952,46.0229,62.60,62.60,40.00,7.00,,4.00,29.86,TSRA
LXL,2022-05-13 02:55,-94.3469,45.9492,62.60,60.80,130.00,6.00,14.00,5.00,29.69,+TSRA
JKJ,2022-05-13 02:55,-96.6640,46.8393,64.40,60.80,130.00,7.00,,10.00,29.55,
VWU,2022-05-13 02:55,-94.5167,48.1539,57.20,55.40,90.00,12.00,,10.00,29.78,
3N8,2022-05-13 02:55,-95.9281,47.2605,63.00,59.40,190.00,14.00,19.00,10.00,29.59,
GRN,2022-05-13 02:55,-102.1753,42.8060,51.80,37.60,270.00,14.00,19.00,10.00,29.81,
HPT,2022-05-13 02:55,-93.2244,42.7175,82.40,60.80,190.00,15.00,24.00,10.00,29.82,
SXK,2022-05-13 02:55,-96.1614,42.9858,68.00,59.00,180.00,15.00,22.00,10.00,29.75,-DZ
EOK,2022-05-13 02:55,-91.4274,40.4615,80.60,68.00,,,,10.00,29.90,
20U,2022-05-13 02:55,-103.9821,46.9252,46.40,46.40,330.00,18.00,,3.00,29.59,RA
BWW,2022-05-13 02:55,-103.3007,46.1655,48.20,48.20,310.00,17.00,23.00,1.75,29.53,-RA
9D7,2022-05-13 02:55,-99.2364,48.4800,57.20,57.20,70.00,19.00,26.00,2.50,29.63,RA
46D,2022-05-13 02:55,-99.1513,47.4511,59.00,59.00,120.00,11.00,23.00,10.00,29.49,
2C8,2022-05-13 02:55,-97.6320,48.7837,57.20,57.20,70.00,6.00,14.00,3.00,29.73,-TSRA
D50,2022-05-13 02:55,-103.2973,48.9285,48.20,48.20,30.00,16.00,23.00,3.00,29.71,+RA
D57,2022-05-13 02:55,-101.8602,46.8128,55.40,55.40,30.00,14.00,,1.00,29.39,BR
GAF,2022-05-13 02:55,-97.3709,48.4047,57.20,57.20,110.00,12.00,17.00,2.00,29.67,+TSRA
GWR,2022-05-13 02:55,-97.6435,46.2187,62.60,62.60,170.00,15.00,,10.00,29.56,
5H4,2022-05-13 02:55,-99.9317,47.7912,55.40,55.40,70.00,14.00,20.00,10.00,29.52,
S32,2022-05-13 02:55,-98.1059,47.4228,59.00,59.00,60.00,24.00,32.00,6.00,29.52,RA
BAC,2022-05-13 02:55,-98.0180,46.9412,57.20,57.20,80.00,15.00,22.00,10.00,29.52,
BWP,2022-05-13 02:55,-96.6074,46.2441,64.40,60.80,140.00,7.00,,10.00,29.55,
BTN,2022-05-13 02:55,-97.7428,45.8150,62.60,60.80,170.00,12.00,,10.00,29.54,
PHP,2022-05-13 02:55,-101.6000,44.0500,54.00,43.00,260.00,15.00,25.00,10.00,29.69,
SPF,2022-05-13 02:55,-103.7830,44.4803,42.80,42.80,280.00,14.00,,4.00,29.76,RA
BVN,2022-05-13 02:55,-98.0558,41.7286,64.20,48.70,200.00,11.00,14.00,10.00,29.86,
BIE,2022-05-13 02:55,-96.7541,40.3013,78.60,57.20,210.00,8.00,,10.00,29.80,
BTA,2022-05-13 02:55,-96.1090,41.4148,70.20,60.80,260.00,12.00,27.00,10.00,29.82,
DTL,2022-05-13 02:55,-95.8856,46.8252,64.40,57.20,190.00,6.00,,10.00,29.61,
TVK,2022-05-13 02:55,-92.8983,40.6832,75.20,62.60,150.00,7.00,,10.00,29.88,
VTI,2022-05-13 02:55,-92.0248,42.2176,81.00,59.50,150.00,10.00,,10.00,29.85,
ONL,2022-05-13 02:55,-98.6881,42.4697,60.40,44.00,250.00,5.00,,10.00,29.80,
ROS,2022-05-13 02:55,-92.9530,45.6980,63.50,60.00,30.00,7.00,,10.00,29.83,VCTSRA
AHQ,2022-05-13 02:55,-96.5946,41.2406,69.40,58.00,290.00,27.00,49.00,10.00,29.88,
Y49,2022-05-13 02:55,-94.6453,47.1595,62.80,60.00,210.00,4.00,17.00,7.00,29.72,RA
HON,2022-05-13 02:55,-98.2286,44.3852,64.00,56.00,220.00,6.00,,10.00,,
DLH,2022-05-13 02:55,-92.1936,46.8421,53.00,51.00,160.00,11.00,25.00,10.00,29.93,-TSRA
TIF,2022-05-13 02:55,-100.5690,41.9622,62.00,33.00,280.00,21.00,33.00,10.00,29.83,
GGI,2022-05-13 02:55,-92.7332,41.7097,81.00,64.00,160.00,9.00,,10.00,29.87,
ANW,2022-05-13 02:55,-99.9930,42.5792,58.00,35.00,260.00,7.00,,10.00,29.80,
AUH,2022-05-13 02:55,-97.9946,40.8941,63.00,53.00,210.00,6.00,,10.00,29.91,
D39,2022-05-13 02:55,-94.9334,45.7066,64.00,59.40,100.00,10.00,,10.00,29.66,-TSRA
TKC,2022-05-13 02:55,-95.6072,44.2491,69.00,54.70,240.00,16.00,27.00,10.00,29.68,-RA
2WX,2022-05-13 02:56,-103.5464,45.6044,48.00,46.00,270.00,28.00,38.00,,29.54,
FRM,2022-05-13 02:56,-94.4156,43.6439,73.00,59.00,260.00,13.00,,10.00,29.79,
OTG,2022-05-13 02:56,-95.5792,43.6551,74.00,55.00,190.00,22.00,27.00,10.00,29.72,
OLU,2022-05-13 02:56,-97.3426,41.4480,64.00,59.00,0.00,0.00,,10.00,29.88,-TSRA
EAR,2022-05-13 02:56,-99.0068,40.7270,60.00,50.00,50.00,5.00,,10.00,29.83,
OFK,2022-05-13 02:56,-97.4351,41.9855,68.00,45.00,300.00,12.00,24.00,10.00,29.85,-RA
GNA,2022-05-13 02:56,-90.3457,47.7453,44.00,41.00,80.00,16.00,,,29.92,
RDR,2022-05-13 02:56,-97.4012,47.9611,59.20,57.40,80.00,14.00,,8.00,29.60,VCTS -RA
JMS,2022-05-13 02:56,-98.6800,46.9300,60.00,57.00,90.00,10.00,17.00,10.00,29.51,
MML,2022-05-13 02:56,-95.8200,44.4500,69.00,59.00,190.00,15.00,31.00,10.00,29.68,-RA
RYM,2022-05-13 02:56,-94.3575,46.0895,63.30,61.20,80.00,11.00,,10.00,29.67,-TSRA
DVL,2022-05-13 02:56,-98.9083,48.1146,56.00,54.00,60.00,24.00,28.00,10.00,29.49,-RA
RCA,2022-05-13 02:56,-103.1036,44.1451,49.80,47.80,,,,10.00,29.71,-RA
8D3,2022-05-13 02:56,-96.9914,45.6689,63.00,59.00,170.00,7.00,,,29.58,
OFF,2022-05-13 02:56,-95.9125,41.1183,79.30,53.00,100.00,4.00,,10.00,29.77,
GPZ,2022-05-13 02:56,-93.5097,47.2111,63.00,60.00,170.00,10.00,15.00,8.00,29.86,TSRA
TVF,2022-05-13 02:56,-96.1850,48.0657,57.00,56.00,50.00,19.00,24.00,10.00,29.65,-RA
MKT,2022-05-13 02:56,-93.9200,44.2200,73.00,62.00,190.00,16.00,22.00,10.00,29.79,
DIK,2022-05-13 02:56,-102.8019,46.7973,50.00,49.00,10.00,15.00,23.00,5.00,29.43,-RA BR
CWI,2022-05-13 02:56,-90.3328,41.8295,81.00,67.00,160.00,9.00,,10.00,29.92,
MIB,2022-05-13 02:56,-101.3580,48.4158,52.30,42.00,80.00,17.00,27.00,10.00,29.55,-RA
D07,2022-05-13 02:56,-102.0200,45.0300,50.00,47.00,250.00,28.00,39.00,,29.60,
FSD,2022-05-13 02:56,-96.7536,43.5769,70.00,60.00,240.00,8.00,25.00,10.00,29.76,
FOD,2022-05-13 02:56,-94.2032,42.5497,78.00,53.00,240.00,13.00,18.00,10.00,29.84,
YKN,2022-05-13 02:56,-97.3859,42.9167,65.00,56.00,260.00,8.00,,10.00,29.77,
1HW,2022-05-13 02:58,-102.8289,41.3251,57.70,23.90,300.00,21.00,,10.00,29.91,
1CW,2022-05-13 02:58,-103.6706,41.5900,54.50,20.30,270.00,21.00,26.00,10.00,29.94,
1BW,2022-05-13 02:58,-103.9950,41.5117,50.50,20.30,270.00,21.00,,10.00,30.00,
PNM,2022-05-13 03:15,-93.6082,45.5599,64.40,62.60,60.00,5.00,,10.00,29.76,
FSE,2022-05-13 03:15,-95.7735,47.5928,59.00,55.40,0.00,0.00,,10.00,29.60,
SYN,2022-05-13 03:15,-93.0145,44.4736,74.00,61.50,0.00,0.00,,10.00,29.77,
ORB,2022-05-13 03:33,-92.8560,48.0159,55.40,55.40,100.00,4.00,,10.00,29.88,-VCTSRA
EVM,2022-05-13 03:35,-92.4981,47.4251,55.40,53.60,0.00,0.00,,7.00,29.91,VCTSRA
JYG,2022-05-13 03:36,-94.5579,43.9863,66.20,62.60,120.00,3.00,,10.00,29.75,
XWA,2022-05-13 03:51,-103.7505,48.2597,47.00,46.00,20.00,25.00,32.00,3.00,29.59,RA BR
IOW,2022-05-13 03:52,-91.5445,41.6394,82.00,61.00,170.00,11.00,,10.00,29.88,
OMA,2022-05-13 03:52,-95.8992,41.3103,69.00,57.00,280.00,18.00,33.00,6.00,29.88,+TSRA
CID,2022-05-13 03:52,-91.7246,41.8829,80.00,63.00,170.00,11.00,,10.00,29.86,
SUX,2022-05-13 03:52,-96.3795,42.3917,64.00,59.00,280.00,21.00,32.00,10.00,29.82,-RA
BIS,2022-05-13 03:52,-100.7458,46.7727,61.00,59.00,80.00,12.00,,10.00,29.41,
RAP,2022-05-13 03:52,-103.0574,44.0453,49.00,41.00,260.00,12.00,,10.00,29.75,
N60,2022-05-13 03:52,-101.4394,47.6458,55.00,51.00,60.00,16.00,36.00,,29.45,
EST,2022-05-13 03:52,-94.7476,43.4008,70.00,58.00,210.00,8.00,,10.00,29.76,
VTN,2022-05-13 03:52,-100.5489,42.8567,53.00,38.00,210.00,4.00,,10.00,29.79,
DVN,2022-05-13 03:52,-90.5948,41.6133,80.00,65.00,150.00,9.00,,10.00,29.93,
MBG,2022-05-13 03:52,-100.4078,45.5464,58.00,51.00,210.00,12.00,18.00,10.00,29.53,
IEN,2022-05-13 03:52,-102.5110,43.0225,49.00,42.00,270.00,26.00,44.00,10.00,29.84,
CDD,2022-05-13 03:53,-92.4830,48.2660,51.80,50.00,0.00,0.00,,3.00,29.95,+VCTSRA
IML,2022-05-13 03:53,-101.6201,40.5103,62.00,28.00,300.00,16.00,26.00,10.00,29.90,
SNY,2022-05-13 03:53,-102.9847,41.1014,55.00,24.10,300.00,21.00,30.00,10.00,29.95,
MCK,2022-05-13 03:53,-100.5921,40.2063,61.00,30.00,80.00,3.00,,10.00,29.90,
HIB,2022-05-13 03:53,-92.8390,47.3866,56.00,55.00,0.00,0.00,,5.00,29.81,RA BR
FNB,2022-05-13 03:53,-95.5920,40.0788,81.00,61.00,210.00,10.00,,10.00,29.83,
HSI,2022-05-13 03:53,-98.4279,40.6052,62.00,52.00,70.00,13.00,,10.00,29.89,
MIC,2022-05-13 03:53,-93.3511,45.0622,70.00,61.00,90.00,6.00,,10.00,29.73,
FCM,2022-05-13 03:53,-93.4607,44.8261,71.00,61.00,240.00,11.00,16.00,10.00,29.82,-TSRA
OWA,2022-05-13 03:53,-93.2606,44.1233,75.20,62.60,210.00,7.00,13.00,10.00,29.83,-RA
PKD,2022-05-13 03:53,-95.0700,46.9000,63.00,61.00,130.00,9.00,,10.00,29.60,
AQP,2022-05-13 03:53,-96.0043,45.2275,66.20,60.80,130.00,9.00,,10.00,29.64,-RA
FOZ,2022-05-13 03:53,-93.6502,47.7828,62.60,59.00,110.00,7.00,,10.00,29.81,
XVG,2022-05-13 03:53,-94.2039,46.9900,62.60,60.80,0.00,0.00,,10.00,29.64,
AMW,2022-05-13 03:53,-93.6185,41.9904,78.00,63.00,160.00,9.00,,10.00,29.81,
OTM,2022-05-13 03:53,-92.4446,41.1008,77.00,63.00,170.00,8.00,,10.00,29.85,
LBF,2022-05-13 03:53,-100.6690,41.1219,54.00,37.00,300.00,8.00,,10.00,29.87,
GRI,2022-05-13 03:53,-98.3096,40.9675,64.00,50.00,0.00,0.00,,10.00,29.91,
ORB,2022-05-13 03:53,-92.8560,48.0159,55.40,55.40,100.00,5.00,,5.00,29.85,VCTSRA
DVP,2022-05-13 03:53,-95.7826,43.9868,68.50,57.00,200.00,24.00,34.00,10.00,29.71,
CUT,2022-05-13 03:53,-103.6114,43.7331,37.00,34.00,270.00,23.00,35.00,10.00,29.81,-RA
MHE,2022-05-13 03:53,-98.0386,43.7748,62.00,52.00,220.00,8.00,,10.00,29.74,
ATY,2022-05-13 03:53,-97.1547,44.9140,62.00,59.00,240.00,7.00,,10.00,29.66,
BBW,2022-05-13 03:53,-99.6385,41.4365,64.00,30.90,300.00,7.00,,10.00,29.86,
BRD,2022-05-13 03:53,-94.1308,46.4047,65.00,59.00,150.00,16.00,33.00,6.00,,-RA
MCW,2022-05-13 03:53,-93.3261,43.1544,79.00,62.00,200.00,10.00,,10.00,29.83,
AXN,2022-05-13 03:53,-95.3947,45.8663,64.00,60.00,170.00,22.00,37.00,6.00,,RA BR
BDE,2022-05-13 03:53,-94.6122,48.7284,57.00,53.00,80.00,15.00,28.00,10.00,29.79,VCTS -RA
MSP,2022-05-13 03:53,-93.2313,44.8854,72.00,60.00,70.00,11.00,,10.00,29.75,
ODX,2022-05-13 03:53,-98.9517,41.6236,59.00,44.00,140.00,3.00,,10.00,29.85,
RWF,2022-05-13 03:53,-95.0820,44.5469,64.00,60.00,120.00,15.00,22.00,10.00,29.72,
STC,2022-05-13 03:53,-94.0513,45.5433,63.00,62.00,250.00,6.00,,2.50,29.85,TSRA BR
STP,2022-05-13 03:53,-93.0600,44.9345,72.00,60.00,100.00,5.00,,10.00,29.75,
BRL,2022-05-13 03:53,-91.1255,40.7729,79.00,67.00,150.00,7.00,,10.00,29.90,
LWD,2022-05-13 03:53,-93.9005,40.6306,77.00,60.00,170.00,9.00,,10.00,29.84,
SPW,2022-05-13 03:53,-95.2101,43.1682,68.00,60.00,220.00,6.00,,10.00,29.74,
GFK,2022-05-13 03:53,-97.1761,47.9492,59.00,56.00,70.00,20.00,30.00,10.00,29.50,-RA
PIR,2022-05-13 03:53,-100.2860,44.3827,57.00,44.00,250.00,16.00,23.00,10.00,29.65,
ICR,2022-05-13 03:53,-99.8422,43.3903,59.00,40.00,220.00,12.00,,10.00,29.75,
DBQ,2022-05-13 03:53,-90.7091,42.3984,80.00,65.00,170.00,14.00,,10.00,29.89,
CDR,2022-05-13 03:53,-103.0954,42.8376,49.00,40.00,280.00,29.00,48.00,10.00,29.89,
HEI,2022-05-13 03:53,-102.6560,46.0149,49.00,47.00,280.00,20.00,,5.00,29.49,BR
BFF,2022-05-13 03:53,-103.5956,41.8740,51.00,35.00,280.00,13.00,19.00,10.00,29.97,
AIA,2022-05-13 03:53,-102.8000,42.0572,51.00,35.00,280.00,25.00,35.00,10.00,29.90,
FAR,2022-05-13 03:53,-96.8111,46.9253,60.00,58.00,170.00,6.00,,10.00,29.55,
ABR,2022-05-13 03:53,-98.4200,45.4500,62.00,56.00,210.00,16.00,26.00,10.00,29.59,
MIW,2022-05-13 03:53,-92.9163,42.1106,80.00,63.00,170.00,11.00,,10.00,29.83,
LNK,2022-05-13 03:54,-96.7633,40.8312,65.00,57.00,300.00,10.00,,6.00,29.93,VCTS HZ
INL,2022-05-13 03:54,-93.3956,48.5595,54.00,52.00,50.00,6.00,,4.00,29.87,-RA BR
DSM,2022-05-13 03:54,-93.6531,41.5339,77.00,62.00,160.00,8.00,,10.00,29.82,
RST,2022-05-13 03:54,-92.4916,43.9041,79.00,60.00,170.00,13.00,,10.00,29.82,
MOT,2022-05-13 03:54,-101.2803,48.2594,54.00,51.00,30.00,18.00,27.00,10.00,29.52,
ALO,2022-05-13 03:54,-92.4013,42.5544,80.00,62.00,170.00,10.00,,10.00,29.84,
TQE,2022-05-13 03:54,-96.1779,41.7635,67.00,60.00,260.00,15.00,29.00,6.00,29.89,VCTS RA
S32,2022-05-13 03:55,-98.1059,47.4228,57.20,57.20,70.00,21.00,29.00,10.00,29.51,
OXV,2022-05-13 03:55,-93.1114,41.2984,80.60,62.60,180.00,9.00,,10.00,29.84,
CCY,2022-05-13 03:55,-92.6132,43.0730,78.80,62.60,170.00,11.00,,10.00,29.84,
VTI,2022-05-13 03:55,-92.0248,42.2176,79.00,62.20,160.00,7.00,,10.00,29.86,
IFA,2022-05-13 03:55,-93.2651,42.4691,78.00,66.00,160.00,9.00,,10.00,29.84,
CNC,2022-05-13 03:55,-93.3608,41.0184,75.20,64.40,170.00,9.00,,10.00,29.84,
CSQ,2022-05-13 03:55,-94.3608,41.0188,77.00,64.40,160.00,11.00,,10.00,29.82,
AWG,2022-05-13 03:55,-91.6748,41.2751,78.80,64.40,170.00,10.00,,10.00,29.86,
FSW,2022-05-13 03:55,-91.3267,40.6615,78.80,66.20,160.00,6.00,,10.00,29.90,
EOK,2022-05-13 03:55,-91.4274,40.4615,78.80,68.00,160.00,7.00,,10.00,29.90,
MPZ,2022-05-13 03:55,-91.5122,40.9453,78.80,64.40,170.00,9.00,,10.00,29.89,
ACQ,2022-05-13 03:55,-93.5529,44.0735,69.80,62.60,190.00,5.00,,,29.82,
AEL,2022-05-13 03:55,-93.3672,43.6815,78.80,55.40,270.00,5.00,,7.00,29.82,-RA
PNM,2022-05-13 03:55,-93.6082,45.5599,64.40,62.60,200.00,10.00,20.00,5.00,29.81,+RA
RGK,2022-05-13 03:55,-92.4868,44.5915,80.60,60.80,150.00,5.00,,10.00,29.76,
HZE,2022-05-13 03:55,-101.5810,47.2899,53.60,53.60,60.00,15.00,22.00,2.50,29.45,-RA
D55,2022-05-13 03:55,-98.3937,48.7531,55.40,55.40,70.00,29.00,40.00,10.00,29.49,
7L2,2022-05-13 03:55,-100.2456,46.2206,57.20,57.20,210.00,26.00,32.00,10.00,29.49,
06D,2022-05-13 03:55,-99.6208,48.8844,51.80,51.80,50.00,19.00,25.00,10.00,29.63,
D60,2022-05-13 03:55,-102.8974,48.3803,48.20,48.20,40.00,23.00,33.00,2.00,29.55,+RA
DLH,2022-05-13 03:55,-92.1936,46.8421,56.00,54.00,120.00,7.00,,10.00,29.85,-TSRA
GHW,2022-05-13 03:55,-95.3204,45.6439,62.60,60.80,170.00,17.00,21.00,10.00,29.78,+RA
IBM,2022-05-13 03:55,-103.6774,41.1881,50.40,23.70,290.00,16.00,24.00,10.00,30.01,
AIT,2022-05-13 03:55,-93.6768,46.5484,60.80,60.80,70.00,4.00,,7.00,29.72,
AUM,2022-05-13 03:55,-92.9333,43.6647,80.60,62.60,170.00,9.00,,10.00,29.82,
HCO,2022-05-13 03:55,-96.9430,48.7527,57.20,57.20,80.00,20.00,27.00,10.00,29.62,+RA
MJQ,2022-05-13 03:55,-94.9865,43.6500,68.00,57.20,210.00,11.00,19.00,10.00,29.74,
JMR,2022-05-13 03:55,-93.2718,45.8861,60.80,59.00,80.00,6.00,,10.00,29.74,VCTS
ULM,2022-05-13 03:55,-94.5000,44.3200,64.40,60.80,120.00,7.00,,10.00,29.74,
PQN,2022-05-13 03:55,-96.3004,43.9821,66.20,60.80,270.00,14.00,,10.00,29.74,
ONA,2022-05-13 03:55,-91.7083,44.0772,84.20,64.40,210.00,6.00,,10.00,29.82,
FET,2022-05-13 03:55,-96.5200,41.4500,64.40,58.30,270.00,10.00,,10.00,29.92,-VCTSRA
HJH,2022-05-13 03:55,-97.5870,40.1523,62.00,58.50,150.00,4.00,,10.00,29.90,-VCTSRA
LXN,2022-05-13 03:55,-99.7759,40.7904,56.70,42.80,50.00,4.00,,10.00,29.90,
OGA,2022-05-13 03:55,-101.7697,41.1195,52.70,30.60,240.00,7.00,,10.00,29.89,
ONL,2022-05-13 03:55,-98.6881,42.4697,60.30,38.80,290.00,4.00,,10.00,29.81,
TIF,2022-05-13 03:55,-100.5690,41.9622,60.00,34.00,280.00,14.00,22.00,10.00,29.85,
JYR,2022-05-13 03:55,-97.6228,40.8967,60.80,59.00,260.00,9.00,,10.00,29.96,
BJI,2022-05-13 03:55,-94.9337,47.5094,59.20,59.20,120.00,8.00,,10.00,29.61,
COQ,2022-05-13 03:55,-92.5036,46.7011,57.20,55.40,80.00,7.00,,10.00,29.80,-RA
DTL,2022-05-13 03:55,-95.8856,46.8252,60.80,57.20,140.00,9.00,,10.00,29.60,
ELO,2022-05-13 03:55,-91.8371,47.8287,55.40,53.60,230.00,8.00,16.00,3.00,29.94,+TSRA
FSE,2022-05-13 03:55,-95.7735,47.5928,55.40,53.60,10.00,9.00,,10.00,29.62,
HCD,2022-05-13 03:55,-94.3825,44.8599,64.40,63.30,80.00,7.00,,10.00,29.75,-RA
MZH,2022-05-13 03:55,-92.8048,46.4186,59.00,55.40,80.00,4.00,,10.00,29.77,
ROX,2022-05-13 03:55,-95.6971,48.8560,53.60,53.60,80.00,23.00,31.00,10.00,29.73,
BDH,2022-05-13 03:55,-95.1304,45.1177,64.40,62.60,50.00,3.00,,10.00,29.68,-RA
MLE,2022-05-13 03:55,-96.1120,41.1960,70.70,55.00,280.00,15.00,23.00,10.00,29.89,
AFK,2022-05-13 03:55,-95.8657,40.6069,76.60,50.40,300.00,22.00,37.00,10.00,29.92,
BBB,2022-05-13 03:55,-95.6506,45.3319,62.60,60.80,110.00,8.00,15.00,10.00,29.64,RA
CQM,2022-05-13 03:55,-92.6894,47.8219,57.20,53.60,110.00,3.00,,10.00,29.85,TSRA
DYT,2022-05-13 03:55,-92.0434,46.7219,44.60,44.60,80.00,9.00,15.00,8.00,29.86,VCTS RA
FGN,2022-05-13 03:55,-94.9028,49.3183,53.60,50.00,80.00,9.00,,5.00,29.83,TS
GDB,2022-05-13 03:55,-95.5560,44.7533,67.00,61.00,160.00,4.00,,10.00,29.66,
HZX,2022-05-13 03:55,-93.3098,46.6188,60.80,59.00,80.00,6.00,,10.00,29.74,
ANE,2022-05-13 03:55,-93.2102,45.1449,68.00,62.60,90.00,7.00,,10.00,29.74,
LVN,2022-05-13 03:55,-93.2273,44.6252,73.40,59.00,260.00,8.00,23.00,10.00,29.83,-VCTSRA
VVV,2022-05-13 03:55,-96.4244,45.3057,62.60,60.80,0.00,0.00,,10.00,29.63,
PWC,2022-05-13 03:55,-94.3817,46.7248,64.40,59.00,140.00,5.00,,10.00,29.69,VCTS
ROS,2022-05-13 03:55,-92.9530,45.6980,63.50,59.70,80.00,6.00,,10.00,29.76,
SAZ,2022-05-13 03:55,-94.8066,46.3809,64.40,60.80,140.00,17.00,21.00,10.00,29.72,-RA
RRT,2022-05-13 03:55,-95.3483,48.9414,46.40,42.80,60.00,15.00,23.00,2.50,29.79,BR
MWM,2022-05-13 03:55,-95.1094,43.9134,69.80,57.20,190.00,16.00,25.00,10.00,29.72,
CFE,2022-05-13 03:55,-93.8433,45.1590,64.40,62.60,240.00,8.00,20.00,5.00,29.86,VCTS RA BR
14Y,2022-05-13 03:55,-94.8739,45.8983,62.60,59.00,200.00,22.00,39.00,7.00,29.78,-VCTSRA
LYV,2022-05-13 03:55,-96.2158,43.6212,64.40,59.00,230.00,14.00,,10.00,29.78,-RA
OVL,2022-05-13 03:55,-95.0328,44.7786,62.60,60.80,120.00,7.00,,10.00,29.68,
PEX,2022-05-13 03:55,-94.7466,45.3723,62.60,60.80,100.00,5.00,,10.00,29.76,-VCTSRA
FKA,2022-05-13 03:55,-92.1797,43.6767,79.20,61.00,180.00,14.00,17.00,7.00,29.86,
D39,2022-05-13 03:55,-94.9334,45.7066,63.00,62.20,210.00,16.00,26.00,7.00,29.77,RA
21D,2022-05-13 03:55,-92.8557,44.9975,69.80,59.00,80.00,5.00,,10.00,29.79,
TKC,2022-05-13 03:55,-95.6072,44.2491,74.00,52.20,200.00,16.00,22.00,10.00,29.70,
RUG,2022-05-13 03:55,-100.0243,48.3904,53.60,53.60,50.00,26.00,34.00,5.00,29.53,-RA
08D,2022-05-13 03:55,-102.4064,48.3008,50.00,50.00,60.00,23.00,36.00,10.00,29.53,
BAC,2022-05-13 03:55,-98.0180,46.9412,57.20,57.20,90.00,13.00,,9.00,29.55,
S25,2022-05-13 03:55,-103.2552,47.7966,48.20,48.20,40.00,15.00,,9.00,29.53,-DZ
AIO,2022-05-13 03:55,-95.0465,41.4059,80.60,60.80,190.00,9.00,17.00,10.00,29.79,
ICL,2022-05-13 03:55,-95.0223,40.7242,80.60,59.00,170.00,11.00,,10.00,29.80,
CBF,2022-05-13 03:55,-95.7604,41.2611,69.80,57.20,290.00,20.00,31.00,4.00,29.90,-RA
OLZ,2022-05-13 03:55,-91.9760,42.6831,78.80,64.40,180.00,12.00,,10.00,29.87,
SLB,2022-05-13 03:55,-95.2399,42.5972,69.80,57.20,240.00,12.00,,10.00,29.77,
IKV,2022-05-13 03:55,-93.5695,41.6878,77.00,62.60,170.00,5.00,,9.00,29.83,
CKP,2022-05-13 03:55,-95.5538,42.7304,65.30,61.20,240.00,10.00,,10.00,29.80,
DEH,2022-05-13 03:55,-91.7433,43.2755,80.60,60.80,180.00,10.00,19.00,10.00,29.85,
FXY,2022-05-13 03:55,-93.6237,43.2323,73.40,55.40,220.00,8.00,,10.00,29.84,
LRJ,2022-05-13 03:55,-96.1923,42.7754,66.20,62.60,,3.00,,6.00,29.78,-RA
OOA,2022-05-13 03:55,-92.4919,41.2273,76.00,62.60,170.00,6.00,,10.00,29.87,
RDK,2022-05-13 03:55,-95.2624,41.0106,82.40,59.00,210.00,11.00,19.00,10.00,29.81,
SHL,2022-05-13 03:55,-95.8353,43.2082,68.00,59.00,240.00,20.00,27.00,10.00,29.77,
SDA,2022-05-13 03:55,-95.4112,40.7533,82.40,59.00,200.00,14.00,,10.00,29.82,
AXA,2022-05-13 03:55,-94.2724,43.0796,71.60,57.20,190.00,6.00,,10.00,29.78,
ADU,2022-05-13 03:55,-94.9204,41.6994,73.40,51.80,220.00,3.00,,10.00,29.81,
CIN,2022-05-13 03:55,-94.7889,42.0444,73.40,51.80,210.00,6.00,,10.00,29.78,
HNR,2022-05-13 03:55,-95.3355,41.5834,75.20,59.00,270.00,24.00,37.00,9.00,29.88,
MXO,2022-05-13 03:55,-91.1605,42.2204,78.80,64.40,140.00,8.00,13.00,10.00,29.88,
MUT,2022-05-13 03:55,-91.1406,41.3670,77.00,66.20,140.00,4.00,,10.00,29.89,
EBS,2022-05-13 03:55,-93.8691,42.4392,75.20,62.60,280.00,4.00,,10.00,29.80,
PEA,2022-05-13 03:55,-92.9431,41.3989,78.30,63.50,150.00,7.00,,10.00,29.85,
BNW,2022-05-13 03:55,-93.8486,42.0486,77.00,64.40,170.00,7.00,,10.00,29.83,
CAV,2022-05-13 03:55,-93.7593,42.7430,78.80,53.60,230.00,9.00,,10.00,29.83,
DNS,2022-05-13 03:55,-95.3800,41.9842,71.60,60.80,240.00,12.00,20.00,7.00,29.86,
FFL,2022-05-13 03:55,-91.9834,41.0521,80.60,64.40,160.00,10.00,,10.00,29.87,
TNU,2022-05-13 03:55,-93.0190,41.6701,77.00,64.40,160.00,9.00,,10.00,29.84,
9V9,2022-05-13 03:55,-99.3183,43.7667,56.30,45.30,210.00,7.00,,10.00,29.73,
96D,2022-05-13 03:55,-97.9028,48.9406,55.40,55.40,70.00,14.00,20.00,4.00,29.57,-RA
EVM,2022-05-13 03:55,-92.4981,47.4251,55.40,53.60,90.00,4.00,,7.00,29.88,TSRA
ANW,2022-05-13 03:55,-99.9930,42.5792,51.00,39.20,190.00,6.00,,10.00,29.81,
PMV,2022-05-13 03:55,-95.9179,40.9502,73.20,55.80,270.00,25.00,32.00,10.00,29.90,RA
AHQ,2022-05-13 03:55,-96.5946,41.2406,63.50,59.00,270.00,12.00,,10.00,29.92,-RA
CKN,2022-05-13 03:55,-96.6214,47.8417,57.20,,80.00,22.00,32.00,10.00,29.52,
FBL,2022-05-13 03:55,-93.3108,44.3247,71.60,62.60,0.00,0.00,,10.00,29.80,-RA
FFM,2022-05-13 03:55,-96.1567,46.2844,62.60,60.80,150.00,19.00,26.00,10.00,29.61,
HON,2022-05-13 03:55,-98.2286,44.3852,62.00,55.00,230.00,8.00,,10.00,,
04W,2022-05-13 03:55,-92.8952,46.0229,62.60,62.60,70.00,7.00,,10.00,29.76,
LXL,2022-05-13 03:55,-94.3469,45.9492,62.60,60.80,180.00,16.00,28.00,3.00,29.82,+TSRA
JKJ,2022-05-13 03:55,-96.6640,46.8393,64.40,60.80,160.00,10.00,,10.00,29.57,
VWU,2022-05-13 03:55,-94.5167,48.1539,59.00,55.40,60.00,16.00,30.00,10.00,29.67,-RA
3N8,2022-05-13 03:55,-95.9281,47.2605,62.00,58.30,170.00,6.00,,10.00,29.58,
Y49,2022-05-13 03:55,-94.6453,47.1595,60.00,59.50,80.00,4.00,,10.00,29.62,VCTS
HPT,2022-05-13 03:55,-93.2244,42.7175,80.60,60.80,190.00,13.00,19.00,10.00,29.82,
SXK,2022-05-13 03:55,-96.1614,42.9858,69.80,55.40,200.00,20.00,30.00,5.00,29.78,-RA
TVK,2022-05-13 03:55,-92.8983,40.6832,73.40,62.60,0.00,0.00,,10.00,29.89,
20U,2022-05-13 03:55,-103.9821,46.9252,46.40,46.40,310.00,21.00,,3.00,29.58,-RA
BWW,2022-05-13 03:55,-103.3007,46.1655,46.40,46.40,310.00,23.00,,2.50,29.52,-RA
9D7,2022-05-13 03:55,-99.2364,48.4800,55.40,55.40,60.00,15.00,21.00,10.00,29.58,
46D,2022-05-13 03:55,-99.1513,47.4511,59.00,57.20,140.00,17.00,23.00,10.00,29.50,
2C8,2022-05-13 03:55,-97.6320,48.7837,55.40,55.40,70.00,18.00,24.00,2.00,29.57,-RA
D50,2022-05-13 03:55,-103.2973,48.9285,46.40,46.40,30.00,17.00,23.00,3.00,29.64,RA
D57,2022-05-13 03:55,-101.8602,46.8128,57.20,57.20,70.00,13.00,,0.50,29.37,BR
GAF,2022-05-13 03:55,-97.3709,48.4047,57.20,57.20,70.00,16.00,,7.00,29.57,-RA
GWR,2022-05-13 03:55,-97.6435,46.2187,62.60,62.60,150.00,17.00,,10.00,29.59,
5H4,2022-05-13 03:55,-99.9317,47.7912,55.40,55.40,60.00,18.00,,10.00,29.50,
Y19,2022-05-13 03:55,-100.8944,46.7680,59.00,59.00,110.00,10.00,,6.00,29.41,BR
2D5,2022-05-13 03:55,-98.0799,46.1731,62.60,62.60,170.00,16.00,24.00,9.00,29.55,
BWP,2022-05-13 03:55,-96.6074,46.2441,62.60,59.00,150.00,11.00,16.00,10.00,29.59,
BTN,2022-05-13 03:55,-97.7428,45.8150,64.40,62.60,190.00,15.00,22.00,10.00,29.58,
PHP,2022-05-13 03:55,-101.6000,44.0500,51.00,45.00,280.00,17.00,26.00,10.00,29.69,
SPF,2022-05-13 03:55,-103.7830,44.4803,42.80,39.20,270.00,22.00,,6.00,29.78,-RA
BVN,2022-05-13 03:55,-98.0558,41.7286,61.20,50.00,100.00,4.00,,10.00,29.88,
BIE,2022-05-13 03:55,-96.7541,40.3013,69.00,56.50,280.00,19.00,25.00,10.00,29.94,-RA
BTA,2022-05-13 03:55,-96.1090,41.4148,64.20,57.00,280.00,14.00,27.00,10.00,29.90,
TOB,2022-05-13 03:55,-92.8315,44.0180,78.80,59.00,170.00,14.00,,10.00,29.81,
HDE,2022-05-13 03:55,-99.3365,40.4521,57.60,49.00,90.00,6.00,,10.00,29.89,
GYL,2022-05-13 03:55,-94.0812,44.7560,66.00,62.00,120.00,4.00,,10.00,29.79,-RA
9MN,2022-05-13 03:55,-92.4831,44.0198,81.70,58.00,140.00,9.00,15.00,10.00,29.82,
I75,2022-05-13 03:55,-93.6876,41.0472,74.50,62.00,160.00,6.00,,7.00,29.85,
PRO,2022-05-13 03:55,-94.1637,41.8278,76.50,62.00,280.00,7.00,,10.00,29.81,
GGI,2022-05-13 03:55,-92.7332,41.7097,77.20,64.00,160.00,9.00,,10.00,29.86,
AUH,2022-05-13 03:55,-97.9946,40.8941,63.70,53.00,50.00,24.00,28.00,10.00,29.84,
GRN,2022-05-13 03:55,-102.1753,42.8060,51.30,40.00,270.00,24.00,36.00,10.00,29.83,
LCG,2022-05-13 03:55,-96.9814,42.2419,63.00,56.00,210.00,7.00,,10.00,29.91,-RA
SYN,2022-05-13 03:55,-93.0145,44.4736,72.00,62.00,0.00,0.00,,10.00,29.78,
SGS,2022-05-13 03:55,-93.0329,44.8571,73.00,59.20,80.00,3.00,,10.00,29.76,
MIB,2022-05-13 03:56,-101.3580,48.4158,53.00,41.50,80.00,20.00,28.00,10.00,29.50,
OTG,2022-05-13 03:56,-95.5792,43.6551,67.00,59.00,210.00,14.00,19.00,10.00,29.76,-RA
FRM,2022-05-13 03:56,-94.4156,43.6439,69.00,61.00,190.00,6.00,,10.00,29.80,
TVF,2022-05-13 03:56,-96.1850,48.0657,57.00,55.00,60.00,17.00,26.00,10.00,29.62,
OLU,2022-05-13 03:56,-97.3426,41.4480,65.00,54.00,200.00,8.00,19.00,10.00,29.93,-RA
EAR,2022-05-13 03:56,-99.0068,40.7270,58.00,52.00,80.00,7.00,,10.00,29.90,
OFK,2022-05-13 03:56,-97.4351,41.9855,68.00,41.00,80.00,9.00,21.00,10.00,29.84,
GNA,2022-05-13 03:56,-90.3457,47.7453,46.00,43.00,70.00,15.00,22.00,,29.89,
DIK,2022-05-13 03:56,-102.8019,46.7973,49.00,48.00,310.00,11.00,,2.00,29.43,+RA BR
CWI,2022-05-13 03:56,-90.3328,41.8295,80.00,68.00,160.00,10.00,,10.00,29.92,
RYM,2022-05-13 03:56,-94.3575,46.0895,,,190.00,23.00,36.00,9.00,29.80,TSRA
DVL,2022-05-13 03:56,-98.9083,48.1146,57.00,55.00,110.00,9.00,,10.00,29.53,
RDR,2022-05-13 03:56,-97.4012,47.9611,59.00,57.00,90.00,21.00,30.00,10.00,29.49,
2WX,2022-05-13 03:56,-103.5464,45.6044,48.00,45.00,280.00,29.00,38.00,,29.55,
RCA,2022-05-13 03:56,-103.1036,44.1451,49.00,41.50,300.00,7.00,,10.00,29.73,
FSD,2022-05-13 03:56,-96.7536,43.5769,67.00,52.00,240.00,6.00,,10.00,29.77,
8D3,2022-05-13 03:56,-96.9914,45.6689,66.00,59.00,180.00,9.00,,,29.62,
GPZ,2022-05-13 03:56,-93.5097,47.2111,61.00,60.00,50.00,4.00,,8.00,29.77,RA
MKT,2022-05-13 03:56,-93.9200,44.2200,72.00,62.00,110.00,3.00,,10.00,29.78,
FOD,2022-05-13 03:56,-94.2032,42.5497,77.00,51.00,170.00,5.00,,10.00,29.81,
YKN,2022-05-13 03:56,-97.3859,42.9167,65.00,51.00,190.00,5.00,,10.00,29.83,
OFF,2022-05-13 03:56,-95.9125,41.1183,73.00,53.00,290.00,15.00,24.00,10.00,29.91,
JMS,2022-05-13 03:56,-98.6800,46.9300,58.00,56.00,90.00,10.00,,10.00,29.49,
MML,2022-05-13 03:56,-95.8200,44.4500,71.00,58.00,220.00,18.00,25.00,10.00,29.66,
D07,2022-05-13 03:56,-102.0200,45.0300,47.00,44.00,250.00,35.00,45.00,,29.61,
1HW,2022-05-13 03:58,-102.8289,41.3251,57.20,21.70,290.00,29.00,35.00,10.00,29.92,
1CW,2022-05-13 03:58,-103.6706,41.5900,46.40,30.20,270.00,11.00,,10.00,29.98,
1BW,2022-05-13 03:58,-103.9950,41.5117,49.60,18.70,280.00,20.00,,10.00,30.01,
PNM,2022-05-13 04:15,-93.6082,45.5599,64.40,62.60,270.00,8.00,16.00,10.00,29.84,RA
FSE,2022-05-13 04:15,-95.7735,47.5928,55.40,53.60,20.00,7.00,,10.00,29.60,
SYN,2022-05-13 04:15,-93.0145,44.4736,74.50,61.70,0.00,0.00,,10.00,29.78,
ORB,2022-05-13 04:33,-92.8560,48.0159,55.40,55.40,130.00,3.00,,7.00,29.77,RA
EVM,2022-05-13 04:35,-92.4981,47.4251,53.60,53.60,30.00,8.00,,10.00,29.73,-RA
JYG,2022-05-13 04:36,-94.5579,43.9863,66.20,60.80,140.00,8.00,,10.00,29.71,
XWA,2022-05-13 04:51,-103.7505,48.2597,46.00,45.00,10.00,23.00,,4.00,29.54,-RA BR
VTN,2022-05-13 04:52,-100.5489,42.8567,58.00,39.00,270.00,22.00,34.00,10.00,29.79,
CID,2022-05-13 04:52,-91.7246,41.8829,79.00,63.00,170.00,10.00,,10.00,29.86,
EST,2022-05-13 04:52,-94.7476,43.4008,71.00,57.00,230.00,12.00,19.00,10.00,29.77,
SUX,2022-05-13 04:52,-96.3795,42.3917,62.00,52.00,290.00,7.00,19.00,10.00,29.86,-RA
DVN,2022-05-13 04:52,-90.5948,41.6133,80.00,68.00,160.00,13.00,,10.00,29.92,
OMA,2022-05-13 04:52,-95.8992,41.3103,68.00,56.00,300.00,6.00,,10.00,29.93,-RA
BIS,2022-05-13 04:52,-100.7458,46.7727,59.00,56.00,180.00,15.00,34.00,10.00,29.39,
N60,2022-05-13 04:52,-101.4394,47.6458,54.00,51.00,60.00,16.00,31.00,,29.38,
MBG,2022-05-13 04:52,-100.4078,45.5464,55.00,47.00,230.00,21.00,32.00,10.00,29.53,
RAP,2022-05-13 04:52,-103.0574,44.0453,48.00,40.00,280.00,8.00,,10.00,29.74,
IOW,2022-05-13 04:52,-91.5445,41.6394,80.00,62.00,150.00,8.00,,10.00,29.88,
IEN,2022-05-13 04:52,-102.5110,43.0225,47.00,40.00,270.00,21.00,33.00,10.00,29.86,
CDD,2022-05-13 04:53,-92.4830,48.2660,51.80,48.20,40.00,3.00,,10.00,29.82,RA
SNY,2022-05-13 04:53,-102.9847,41.1014,54.00,23.00,290.00,20.00,30.00,10.00,29.95,
CDR,2022-05-13 04:53,-103.0954,42.8376,47.00,39.00,290.00,16.00,22.00,10.00,29.89,
MCK,2022-05-13 04:53,-100.5921,40.2063,60.00,30.00,310.00,4.00,,10.00,29.93,
OWA,2022-05-13 04:53,-93.2606,44.1233,71.60,60.80,170.00,7.00,,10.00,29.80,
HEI,2022-05-13 04:53,-102.6560,46.0149,48.00,48.00,270.00,21.00,,4.00,29.46,-RA BR
FNB,2022-05-13 04:53,-95.5920,40.0788,77.00,55.00,320.00,22.00,31.00,10.00,29.91,VCTS
HIB,2022-05-13 04:53,-92.8390,47.3866,55.00,54.00,130.00,12.00,,10.00,29.75,-RA
MSP,2022-05-13 04:53,-93.2313,44.8854,68.00,63.00,330.00,8.00,,10.00,29.75,
FCM,2022-05-13 04:53,-93.4607,44.8261,68.00,63.00,350.00,4.00,,10.00,29.75,
RWF,2022-05-13 04:53,-95.0820,44.5469,64.00,61.00,110.00,7.00,,10.00,29.72,
ODX,2022-05-13 04:53,-98.9517,41.6236,55.00,46.00,180.00,5.00,,10.00,29.88,
MIC,2022-05-13 04:53,-93.3511,45.0622,67.00,63.00,320.00,8.00,,10.00,29.76,
STP,2022-05-13 04:53,-93.0600,44.9345,68.00,63.00,50.00,6.00,,10.00,29.76,
AQP,2022-05-13 04:53,-96.0043,45.2275,66.20,59.00,190.00,14.00,19.00,10.00,29.66,
FOZ,2022-05-13 04:53,-93.6502,47.7828,62.60,59.00,60.00,3.00,,10.00,29.70,
XVG,2022-05-13 04:53,-94.2039,46.9900,64.40,60.80,170.00,22.00,33.00,10.00,29.74,+RA
FAR,2022-05-13 04:53,-96.8111,46.9253,64.00,59.00,170.00,15.00,23.00,10.00,29.54,
AMW,2022-05-13 04:53,-93.6185,41.9904,73.00,63.00,150.00,7.00,,10.00,29.80,
MIW,2022-05-13 04:53,-92.9163,42.1106,78.00,63.00,160.00,10.00,,10.00,29.82,
OTM,2022-05-13 04:53,-92.4446,41.1008,76.00,64.00,170.00,10.00,,10.00,29.84,
LBF,2022-05-13 04:53,-100.6690,41.1219,53.00,36.00,310.00,8.00,,10.00,29.90,
AIA,2022-05-13 04:53,-102.8000,42.0572,48.00,37.00,290.00,21.00,28.00,10.00,29.92,
ORB,2022-05-13 04:53,-92.8560,48.0159,55.40,55.40,60.00,8.00,,10.00,29.67,-RA
DVP,2022-05-13 04:53,-95.7826,43.9868,64.00,59.50,240.00,18.00,,10.00,29.75,
GFK,2022-05-13 04:53,-97.1761,47.9492,59.00,55.00,90.00,17.00,32.00,10.00,29.50,
ABR,2022-05-13 04:53,-98.4200,45.4500,59.00,54.00,210.00,13.00,,10.00,29.60,
MHE,2022-05-13 04:53,-98.0386,43.7748,61.00,50.00,200.00,8.00,,10.00,29.76,
PIR,2022-05-13 04:53,-100.2860,44.3827,55.00,45.00,260.00,15.00,26.00,10.00,29.68,
ATY,2022-05-13 04:53,-97.1547,44.9140,61.00,57.00,210.00,13.00,,10.00,29.69,
MCW,2022-05-13 04:53,-93.3261,43.1544,75.00,56.00,200.00,6.00,,10.00,29.82,
AXN,2022-05-13 04:53,-95.3947,45.8663,63.00,60.00,160.00,9.00,,10.00,,
BDE,2022-05-13 04:53,-94.6122,48.7284,57.00,53.00,80.00,18.00,27.00,10.00,29.67,
STC,2022-05-13 04:53,-94.0513,45.5433,63.00,62.00,80.00,13.00,19.00,10.00,29.74,
LWD,2022-05-13 04:53,-93.9005,40.6306,72.00,60.00,190.00,6.00,,10.00,29.85,
SPW,2022-05-13 04:53,-95.2101,43.1682,70.00,58.00,240.00,12.00,23.00,10.00,29.78,
ICR,2022-05-13 04:53,-99.8422,43.3903,57.00,40.00,220.00,10.00,,10.00,29.75,
BRD,2022-05-13 04:53,-94.1308,46.4047,64.00,60.00,200.00,5.00,,4.00,,RA BR
DBQ,2022-05-13 04:53,-90.7091,42.3984,74.00,65.00,170.00,9.00,,9.00,29.91,
HSI,2022-05-13 04:53,-98.4279,40.6052,60.00,51.00,30.00,5.00,,10.00,29.92,
PKD,2022-05-13 04:53,-95.0700,46.9000,65.00,58.00,180.00,23.00,42.00,10.00,29.68,-RA
BFF,2022-05-13 04:53,-103.5956,41.8740,49.00,35.00,270.00,13.00,22.00,10.00,29.96,
BRL,2022-05-13 04:53,-91.1255,40.7729,78.00,69.00,160.00,9.00,,9.00,29.90,
GRI,2022-05-13 04:53,-98.3096,40.9675,62.00,49.00,70.00,8.00,,10.00,29.89,
CUT,2022-05-13 04:53,-103.6114,43.7331,38.00,35.00,260.00,20.00,35.00,10.00,29.79,-RA
BBW,2022-05-13 04:53,-99.6385,41.4365,60.00,35.00,0.00,0.00,,10.00,29.89,
IML,2022-05-13 04:53,-101.6201,40.5103,60.00,28.00,310.00,10.00,,10.00,29.94,
ALO,2022-05-13 04:54,-92.4013,42.5544,78.00,63.00,160.00,9.00,,10.00,29.83,
DSM,2022-05-13 04:54,-93.6531,41.5339,76.00,61.00,160.00,10.00,,10.00,29.80,
INL,2022-05-13 04:54,-93.3956,48.5595,54.00,52.00,60.00,11.00,26.00,10.00,29.72,-RA
RST,2022-05-13 04:54,-92.4916,43.9041,77.00,61.00,190.00,13.00,,10.00,29.81,
LNK,2022-05-13 04:54,-96.7633,40.8312,64.00,58.00,250.00,3.00,,10.00,29.95,
TQE,2022-05-13 04:54,-96.1779,41.7635,66.00,56.00,270.00,10.00,,10.00,29.90,
MOT,2022-05-13 04:54,-101.2803,48.2594,54.00,51.00,40.00,25.00,33.00,10.00,29.45,
S32,2022-05-13 04:55,-98.1059,47.4228,57.20,57.20,100.00,17.00,25.00,7.00,29.52,
OXV,2022-05-13 04:55,-93.1114,41.2984,75.20,62.60,170.00,6.00,,9.00,29.84,
CCY,2022-05-13 04:55,-92.6132,43.0730,77.00,62.60,170.00,11.00,,10.00,29.83,
IFA,2022-05-13 04:55,-93.2651,42.4691,74.50,65.30,280.00,9.00,,10.00,29.85,
VTI,2022-05-13 04:55,-92.0248,42.2176,78.40,63.70,160.00,8.00,,10.00,29.86,
CNC,2022-05-13 04:55,-93.3608,41.0184,73.40,64.40,170.00,6.00,,10.00,29.84,
CSQ,2022-05-13 04:55,-94.3608,41.0188,77.00,64.40,220.00,13.00,18.00,10.00,29.86,
FSW,2022-05-13 04:55,-91.3267,40.6615,78.80,69.80,150.00,9.00,,10.00,29.89,
AWG,2022-05-13 04:55,-91.6748,41.2751,78.80,64.40,170.00,9.00,,10.00,29.86,
SGS,2022-05-13 04:55,-93.0329,44.8571,69.60,63.70,70.00,3.00,,10.00,29.76,
ACQ,2022-05-13 04:55,-93.5529,44.0735,68.00,60.80,140.00,8.00,,,29.79,
EOK,2022-05-13 04:55,-91.4274,40.4615,77.00,69.80,140.00,6.00,,10.00,29.89,
MPZ,2022-05-13 04:55,-91.5122,40.9453,77.00,66.20,160.00,10.00,,10.00,29.88,
AEL,2022-05-13 04:55,-93.3672,43.6815,73.40,57.20,0.00,0.00,,10.00,29.80,
PNM,2022-05-13 04:55,-93.6082,45.5599,64.40,62.60,50.00,5.00,,10.00,29.79,-RA
PQN,2022-05-13 04:55,-96.3004,43.9821,64.40,57.20,250.00,17.00,22.00,10.00,29.80,
RGK,2022-05-13 04:55,-92.4868,44.5915,,,220.00,8.00,,10.00,3.54,
ROX,2022-05-13 04:55,-95.6971,48.8560,53.60,53.60,80.00,19.00,24.00,10.00,29.67,
HZE,2022-05-13 04:55,-101.5810,47.2899,53.60,53.60,60.00,13.00,23.00,2.00,29.37,-RA
7L2,2022-05-13 04:55,-100.2456,46.2206,53.60,53.60,200.00,20.00,30.00,10.00,29.48,
D60,2022-05-13 04:55,-102.8974,48.3803,48.20,48.20,40.00,23.00,30.00,4.00,29.49,BR
GHW,2022-05-13 04:55,-95.3204,45.6439,62.60,60.80,0.00,0.00,,10.00,29.64,
D55,2022-05-13 04:55,-98.3937,48.7531,55.40,55.40,70.00,16.00,,10.00,29.57,
06D,2022-05-13 04:55,-99.6208,48.8844,51.80,51.80,70.00,24.00,,3.00,29.59,-RA
AIT,2022-05-13 04:55,-93.6768,46.5484,60.80,59.00,170.00,7.00,18.00,10.00,29.81,+VCTSRA
AUM,2022-05-13 04:55,-92.9333,43.6647,78.80,64.40,240.00,8.00,,10.00,29.83,
HCO,2022-05-13 04:55,-96.9430,48.7527,57.20,55.40,90.00,26.00,34.00,10.00,29.53,-RA
ULM,2022-05-13 04:55,-94.5000,44.3200,64.40,60.80,110.00,9.00,,10.00,29.71,
BJI,2022-05-13 04:55,-94.9337,47.5094,60.00,59.20,140.00,7.00,,10.00,29.64,
COQ,2022-05-13 04:55,-92.5036,46.7011,53.60,51.80,110.00,8.00,,5.00,29.82,BR
ELO,2022-05-13 04:55,-91.8371,47.8287,53.60,53.60,80.00,9.00,14.00,10.00,29.81,-VCTSRA
FSE,2022-05-13 04:55,-95.7735,47.5928,53.60,51.80,80.00,7.00,17.00,10.00,29.64,
HCD,2022-05-13 04:55,-94.3825,44.8599,64.20,63.00,70.00,8.00,,10.00,29.75,
MJQ,2022-05-13 04:55,-94.9865,43.6500,69.80,53.60,220.00,18.00,24.00,10.00,29.80,
MZH,2022-05-13 04:55,-92.8048,46.4186,59.00,55.40,260.00,7.00,24.00,10.00,29.91,
JMR,2022-05-13 04:55,-93.2718,45.8861,57.20,57.20,0.00,0.00,,5.00,29.84,VCTSRA
ONA,2022-05-13 04:55,-91.7083,44.0772,82.40,64.40,180.00,6.00,,10.00,29.80,
FET,2022-05-13 04:55,-96.5200,41.4500,64.20,57.00,260.00,7.00,,10.00,29.93,-RA
AFK,2022-05-13 04:55,-95.8657,40.6069,65.00,57.20,310.00,16.00,24.00,10.00,29.94,-VCTSRA
LCG,2022-05-13 04:55,-96.9814,42.2419,65.00,49.30,280.00,9.00,,10.00,29.87,
BBB,2022-05-13 04:55,-95.6506,45.3319,64.40,60.80,180.00,13.00,16.00,10.00,29.70,
CQM,2022-05-13 04:55,-92.6894,47.8219,55.40,53.60,70.00,7.00,,10.00,29.71,-RA
TOB,2022-05-13 04:55,-92.8315,44.0180,73.40,55.40,230.00,6.00,,10.00,29.83,
DYT,2022-05-13 04:55,-92.0434,46.7219,42.80,42.80,90.00,8.00,,0.50,29.85,BR
FGN,2022-05-13 04:55,-94.9028,49.3183,51.80,48.20,70.00,15.00,22.00,10.00,29.71,
GYL,2022-05-13 04:55,-94.0812,44.7560,64.40,62.60,80.00,6.00,,10.00,29.75,
CKC,2022-05-13 04:55,-90.3829,47.8383,,,220.00,13.00,25.00,,30.02,VCTS
GDB,2022-05-13 04:55,-95.5560,44.7533,65.50,61.20,220.00,5.00,,10.00,29.71,
HZX,2022-05-13 04:55,-93.3098,46.6188,60.80,59.00,170.00,7.00,,7.00,29.87,TS
ANE,2022-05-13 04:55,-93.2102,45.1449,68.00,64.40,350.00,6.00,,10.00,29.78,-RA
LVN,2022-05-13 04:55,-93.2273,44.6252,68.00,60.80,0.00,0.00,,10.00,29.77,
VVV,2022-05-13 04:55,-96.4244,45.3057,62.60,60.80,130.00,6.00,,10.00,29.63,
PWC,2022-05-13 04:55,-94.3817,46.7248,62.60,60.80,190.00,19.00,27.00,10.00,29.80,-TSRA
SAZ,2022-05-13 04:55,-94.8066,46.3809,66.20,59.00,290.00,9.00,15.00,10.00,29.61,-RA
RRT,2022-05-13 04:55,-95.3483,48.9414,42.80,39.20,40.00,9.00,,0.25,29.70,DZ
BDH,2022-05-13 04:55,-95.1304,45.1177,64.40,62.60,120.00,10.00,,10.00,29.74,
CFE,2022-05-13 04:55,-93.8433,45.1590,64.40,62.60,90.00,6.00,,10.00,29.75,
14Y,2022-05-13 04:55,-94.8739,45.8983,60.80,59.00,110.00,5.00,,10.00,29.68,
LYV,2022-05-13 04:55,-96.2158,43.6212,62.60,57.20,240.00,19.00,,10.00,29.81,
OVL,2022-05-13 04:55,-95.0328,44.7786,62.60,59.00,120.00,6.00,,10.00,29.72,
PEX,2022-05-13 04:55,-94.7466,45.3723,62.60,60.80,150.00,9.00,,10.00,29.73,
FKA,2022-05-13 04:55,-92.1797,43.6767,76.00,61.30,180.00,10.00,,7.00,29.84,
9MN,2022-05-13 04:55,-92.4831,44.0198,80.00,59.00,160.00,6.00,16.00,10.00,29.81,
21D,2022-05-13 04:55,-92.8557,44.9975,68.00,60.80,330.00,3.00,,10.00,29.79,
TKC,2022-05-13 04:55,-95.6072,44.2491,67.80,58.60,240.00,17.00,27.00,10.00,29.72,
Y19,2022-05-13 04:55,-100.8944,46.7680,55.40,55.40,190.00,19.00,26.00,3.00,29.38,-DZ
2D5,2022-05-13 04:55,-98.0799,46.1731,60.80,60.80,200.00,24.00,29.00,10.00,29.55,
RUG,2022-05-13 04:55,-100.0243,48.3904,53.60,53.60,60.00,26.00,32.00,9.00,29.50,
08D,2022-05-13 04:55,-102.4064,48.3008,50.00,50.00,60.00,23.00,35.00,10.00,29.44,
S25,2022-05-13 04:55,-103.2552,47.7966,48.20,48.20,20.00,12.00,,7.00,29.47,-RA
IKV,2022-05-13 04:55,-93.5695,41.6878,75.20,60.80,170.00,6.00,,9.00,29.81,
AIO,2022-05-13 04:55,-95.0465,41.4059,64.40,64.40,280.00,13.00,24.00,6.00,29.93,RA
ICL,2022-05-13 04:55,-95.0223,40.7242,68.00,60.80,320.00,23.00,39.00,6.00,29.96,-RA
CBF,2022-05-13 04:55,-95.7604,41.2611,62.60,59.00,300.00,9.00,15.00,8.00,29.93,-DZ
OLZ,2022-05-13 04:55,-91.9760,42.6831,77.00,64.40,170.00,11.00,,10.00,29.86,
RDK,2022-05-13 04:55,-95.2624,41.0106,66.20,62.60,130.00,7.00,,,29.96,
SDA,2022-05-13 04:55,-95.4112,40.7533,71.60,55.40,300.00,12.00,18.00,10.00,29.94,
AXA,2022-05-13 04:55,-94.2724,43.0796,69.80,57.20,170.00,7.00,,10.00,29.78,
CIN,2022-05-13 04:55,-94.7889,42.0444,69.80,59.00,270.00,25.00,34.00,9.00,29.87,
CKP,2022-05-13 04:55,-95.5538,42.7304,68.50,61.30,250.00,18.00,23.00,10.00,29.84,
DEH,2022-05-13 04:55,-91.7433,43.2755,78.80,62.60,180.00,9.00,14.00,10.00,29.84,
FXY,2022-05-13 04:55,-93.6237,43.2323,69.80,53.60,130.00,3.00,,10.00,29.80,
LRJ,2022-05-13 04:55,-96.1923,42.7754,66.20,59.00,230.00,10.00,,10.00,29.85,
OOA,2022-05-13 04:55,-92.4919,41.2273,74.00,62.60,150.00,7.00,,10.00,29.85,
PRO,2022-05-13 04:55,-94.1637,41.8278,76.60,61.70,210.00,9.00,,10.00,29.82,
SHL,2022-05-13 04:55,-95.8353,43.2082,66.20,62.60,240.00,15.00,,10.00,29.81,
ADU,2022-05-13 04:55,-94.9204,41.6994,66.20,59.00,280.00,8.00,14.00,10.00,29.93,-DZ
GGI,2022-05-13 04:55,-92.7332,41.7097,74.50,63.50,160.00,7.00,,10.00,29.86,
HNR,2022-05-13 04:55,-95.3355,41.5834,62.60,62.60,260.00,12.00,17.00,10.00,29.94,
MXO,2022-05-13 04:55,-91.1605,42.2204,77.00,66.20,140.00,5.00,,10.00,29.87,
MUT,2022-05-13 04:55,-91.1406,41.3670,78.80,68.00,150.00,8.00,,10.00,29.88,
PEA,2022-05-13 04:55,-92.9431,41.3989,76.50,63.00,150.00,6.00,,10.00,29.84,
EBS,2022-05-13 04:55,-93.8691,42.4392,73.40,64.40,160.00,3.00,,10.00,29.79,
BNW,2022-05-13 04:55,-93.8486,42.0486,78.80,62.60,160.00,12.00,,10.00,29.80,
CAV,2022-05-13 04:55,-93.7593,42.7430,73.40,53.60,140.00,9.00,,10.00,29.78,
DNS,2022-05-13 04:55,-95.3800,41.9842,68.00,66.20,250.00,14.00,24.00,5.00,29.92,-RA
FFL,2022-05-13 04:55,-91.9834,41.0521,77.00,64.40,160.00,9.00,,10.00,29.87,
TNU,2022-05-13 04:55,-93.0190,41.6701,73.40,64.40,160.00,7.00,,10.00,29.83,
9V9,2022-05-13 04:55,-99.3183,43.7667,57.70,43.00,230.00,12.00,,10.00,29.73,
EVM,2022-05-13 04:55,-92.4981,47.4251,53.60,53.60,110.00,5.00,,10.00,29.81,
HON,2022-05-13 04:55,-98.2286,44.3852,62.00,50.00,220.00,12.00,,10.00,,
ANW,2022-05-13 04:55,-99.9930,42.5792,58.60,35.60,260.00,15.00,,10.00,29.82,
AUH,2022-05-13 04:55,-97.9946,40.8941,64.00,50.40,60.00,16.00,,10.00,29.86,
PMV,2022-05-13 04:55,-95.9179,40.9502,65.30,57.20,270.00,12.00,17.00,7.00,29.96,VCTSRA
AHQ,2022-05-13 04:55,-96.5946,41.2406,64.00,57.70,310.00,7.00,,10.00,29.92,-RA
CKN,2022-05-13 04:55,-96.6214,47.8417,57.20,,90.00,17.00,25.00,10.00,29.52,
FBL,2022-05-13 04:55,-93.3108,44.3247,71.60,62.60,160.00,6.00,,10.00,29.79,
FFM,2022-05-13 04:55,-96.1567,46.2844,64.40,60.80,170.00,13.00,,10.00,29.56,
LXL,2022-05-13 04:55,-94.3469,45.9492,62.60,60.80,110.00,8.00,15.00,10.00,29.71,-RA
04W,2022-05-13 04:55,-92.8952,46.0229,62.60,62.60,290.00,13.00,38.00,3.00,29.87,+VCTSRA
JKJ,2022-05-13 04:55,-96.6640,46.8393,64.40,59.00,170.00,13.00,,10.00,29.55,
VWU,2022-05-13 04:55,-94.5167,48.1539,59.00,55.40,80.00,14.00,20.00,10.00,29.67,
3N8,2022-05-13 04:55,-95.9281,47.2605,65.00,56.80,160.00,14.00,17.00,10.00,29.59,
Y49,2022-05-13 04:55,-94.6453,47.1595,66.00,58.30,180.00,24.00,38.00,10.00,29.65,-RA
GRN,2022-05-13 04:55,-102.1753,42.8060,47.30,39.40,280.00,21.00,34.00,10.00,29.85,
HPT,2022-05-13 04:55,-93.2244,42.7175,75.20,60.80,190.00,7.00,,10.00,29.82,
SXK,2022-05-13 04:55,-96.1614,42.9858,66.20,62.60,250.00,23.00,30.00,10.00,29.82,
HJH,2022-05-13 04:55,-97.5870,40.1523,63.50,59.50,140.00,10.00,,10.00,29.86,-RA
IBM,2022-05-13 04:55,-103.6774,41.1881,46.40,24.30,280.00,14.00,,10.00,30.00,
LXN,2022-05-13 04:55,-99.7759,40.7904,56.70,40.60,140.00,6.00,,10.00,29.92,
MLE,2022-05-13 04:55,-96.1120,41.1960,67.00,54.50,280.00,7.00,16.00,10.00,29.94,-RA
OGA,2022-05-13 04:55,-101.7697,41.1195,54.30,34.30,330.00,7.00,,10.00,29.93,
JYR,2022-05-13 04:55,-97.6228,40.8967,62.60,55.40,250.00,7.00,19.00,9.00,29.93,-RA
TVK,2022-05-13 04:55,-92.8983,40.6832,73.40,60.80,150.00,5.00,,10.00,29.87,
20U,2022-05-13 04:55,-103.9821,46.9252,46.40,46.40,300.00,23.00,30.00,3.00,29.55,-RA
BWW,2022-05-13 04:55,-103.3007,46.1655,46.40,46.40,300.00,21.00,28.00,2.00,29.50,RA
9D7,2022-05-13 04:55,-99.2364,48.4800,55.40,55.40,50.00,15.00,23.00,5.00,29.56,BR
46D,2022-05-13 04:55,-99.1513,47.4511,57.20,57.20,110.00,14.00,,10.00,29.49,
2C8,2022-05-13 04:55,-97.6320,48.7837,55.40,55.40,90.00,18.00,28.00,10.00,29.53,
D50,2022-05-13 04:55,-103.2973,48.9285,46.40,46.40,20.00,23.00,32.00,1.25,29.57,+RA
D57,2022-05-13 04:55,-101.8602,46.8128,57.20,57.20,90.00,10.00,,1.00,29.31,BR
GAF,2022-05-13 04:55,-97.3709,48.4047,59.00,59.00,90.00,24.00,32.00,10.00,29.51,
GWR,2022-05-13 04:55,-97.6435,46.2187,62.60,62.60,180.00,13.00,19.00,10.00,29.56,
5H4,2022-05-13 04:55,-99.9317,47.7912,55.40,55.40,70.00,15.00,,10.00,29.47,
BAC,2022-05-13 04:55,-98.0180,46.9412,57.20,57.20,110.00,12.00,,0.25,29.50,FG
BWP,2022-05-13 04:55,-96.6074,46.2441,62.60,59.00,180.00,14.00,,10.00,29.56,
96D,2022-05-13 04:55,-97.9028,48.9406,55.40,55.40,90.00,16.00,25.00,10.00,29.57,
PHP,2022-05-13 04:55,-101.6000,44.0500,50.00,46.00,270.00,11.00,,10.00,29.72,
SPF,2022-05-13 04:55,-103.7830,44.4803,44.60,39.20,260.00,24.00,36.00,10.00,29.76,
BVN,2022-05-13 04:55,-98.0558,41.7286,60.80,50.00,0.00,0.00,,10.00,29.90,
BIE,2022-05-13 04:55,-96.7541,40.3013,62.80,59.50,340.00,8.00,,10.00,29.92,
BTA,2022-05-13 04:55,-96.1090,41.4148,64.60,56.30,260.00,9.00,,10.00,29.92,
DTL,2022-05-13 04:55,-95.8856,46.8252,64.40,57.20,130.00,15.00,,10.00,29.55,
SLB,2022-05-13 04:55,-95.2399,42.5972,68.00,60.80,240.00,11.00,17.00,10.00,29.86,
TIF,2022-05-13 04:55,-100.5690,41.9622,58.50,35.00,290.00,20.00,28.00,10.00,29.88,
ROS,2022-05-13 04:55,-92.9530,45.6980,63.00,60.00,170.00,4.00,14.00,4.00,29.87,+TSRA
SYN,2022-05-13 04:55,-93.0145,44.4736,71.80,62.00,130.00,4.00,,10.00,29.76,
I75,2022-05-13 04:55,-93.6876,41.0472,74.50,62.00,170.00,6.00,,7.00,29.85,
ONL,2022-05-13 04:55,-98.6881,42.4697,58.50,40.00,160.00,6.00,,10.00,29.84,
DLH,2022-05-13 04:55,-92.1936,46.8421,53.00,51.00,110.00,13.00,,10.00,29.83,
D39,2022-05-13 04:55,-94.9334,45.7066,62.00,62.00,110.00,12.00,15.00,10.00,29.67,
HDE,2022-05-13 04:55,-99.3365,40.4521,56.00,51.00,0.00,0.00,,10.00,29.93,
FRM,2022-05-13 04:56,-94.4156,43.6439,67.00,61.00,150.00,7.00,,10.00,29.76,
GPZ,2022-05-13 04:56,-93.5097,47.2111,60.00,59.00,160.00,20.00,30.00,6.00,29.78,-RA BR
TVF,2022-05-13 04:56,-96.1850,48.0657,58.00,55.00,80.00,22.00,31.00,10.00,29.58,
OTG,2022-05-13 04:56,-95.5792,43.6551,66.00,61.00,240.00,17.00,25.00,10.00,29.77,
OLU,2022-05-13 04:56,-97.3426,41.4480,64.00,55.00,,3.00,,10.00,29.89,-RA
EAR,2022-05-13 04:56,-99.0068,40.7270,58.00,52.00,0.00,0.00,,10.00,29.94,
CWI,2022-05-13 04:56,-90.3328,41.8295,77.00,68.00,150.00,9.00,,10.00,29.91,
MML,2022-05-13 04:56,-95.8200,44.4500,66.00,61.00,260.00,12.00,,10.00,29.70,
OFF,2022-05-13 04:56,-95.9125,41.1183,67.30,55.00,270.00,9.00,19.00,10.00,29.97,-SHRA
RDR,2022-05-13 04:56,-97.4012,47.9611,58.50,55.80,100.00,16.00,22.00,10.00,29.52,
MIB,2022-05-13 04:56,-101.3580,48.4158,53.00,42.60,80.00,22.00,29.00,10.00,29.43,
2WX,2022-05-13 04:56,-103.5464,45.6044,47.00,45.00,280.00,27.00,34.00,,29.55,
RCA,2022-05-13 04:56,-103.1036,44.1451,47.70,38.30,300.00,10.00,,10.00,29.71,
D07,2022-05-13 04:56,-102.0200,45.0300,46.00,43.00,250.00,32.00,45.00,,29.60,
FSD,2022-05-13 04:56,-96.7536,43.5769,67.00,52.00,210.00,12.00,19.00,10.00,29.81,
FOD,2022-05-13 04:56,-94.2032,42.5497,72.00,53.00,240.00,3.00,,10.00,29.81,
RYM,2022-05-13 04:56,-94.3575,46.0895,63.70,62.00,100.00,16.00,,10.00,29.70,-RA
DVL,2022-05-13 04:56,-98.9083,48.1146,57.00,56.00,80.00,10.00,,10.00,29.52,
DIK,2022-05-13 04:56,-102.8019,46.7973,48.00,47.00,290.00,18.00,,3.00,29.37,-RA BR
8D3,2022-05-13 04:56,-96.9914,45.6689,66.00,58.00,190.00,12.00,,,29.60,
YKN,2022-05-13 04:56,-97.3859,42.9167,64.00,51.00,180.00,9.00,,10.00,29.84,
MKT,2022-05-13 04:56,-93.9200,44.2200,69.00,62.00,120.00,7.00,,10.00,29.75,
OFK,2022-05-13 04:56,-97.4351,41.9855,65.00,47.00,180.00,7.00,,10.00,29.89,
GNA,2022-05-13 04:56,-90.3457,47.7453,51.00,46.00,260.00,21.00,35.00,,30.00,
JMS,2022-05-13 04:56,-98.6800,46.9300,58.00,57.00,130.00,12.00,22.00,0.50,29.47,FG
1HW,2022-05-13 04:58,-102.8289,41.3251,50.40,24.40,300.00,11.00,,10.00,29.94,
1BW,2022-05-13 04:58,-103.9950,41.5117,47.00,20.10,270.00,21.00,,10.00,29.99,
1CW,2022-05-13 04:58,-103.6706,41.5900,47.00,33.40,300.00,16.00,,10.00,29.97,
PNM,2022-05-13 05:15,-93.6082,45.5599,64.40,62.60,70.00,6.00,,10.00,29.78,
FSE,2022-05-13 05:15,-95.7735,47.5928,53.60,53.60,70.00,7.00,,10.00,29.60,
SYN,2022-05-13 05:15,-93.0145,44.4736,73.80,61.70,180.00,5.00,,10.00,29.77,
ORB,2022-05-13 05:33,-92.8560,48.0159,55.40,55.40,160.00,10.00,17.00,10.00,29.80,-RA
EVM,2022-05-13 05:35,-92.4981,47.4251,55.40,53.60,180.00,5.00,,3.00,29.90,+RA
JYG,2022-05-13 05:36,-94.5579,43.9863,69.80,57.20,190.00,10.00,,10.00,29.76,
XWA,2022-05-13 05:51,-103.7505,48.2597,46.00,45.00,10.00,20.00,,4.00,29.49,-RA BR
IOW,2022-05-13 05:52,-91.5445,41.6394,75.00,61.00,120.00,6.00,,10.00,29.88,
OMA,2022-05-13 05:52,-95.8992,41.3103,66.00,57.00,350.00,7.00,,10.00,29.94,-RA
CID,2022-05-13 05:52,-91.7246,41.8829,76.00,64.00,170.00,9.00,,10.00,29.86,
SUX,2022-05-13 05:52,-96.3795,42.3917,68.00,48.00,240.00,18.00,29.00,10.00,29.84,-RA
DVN,2022-05-13 05:52,-90.5948,41.6133,79.00,68.00,160.00,12.00,,10.00,29.92,
BIS,2022-05-13 05:52,-100.7458,46.7727,56.00,52.00,170.00,16.00,29.00,10.00,29.37,
MBG,2022-05-13 05:52,-100.4078,45.5464,53.00,46.00,220.00,18.00,28.00,10.00,29.53,
IEN,2022-05-13 05:52,-102.5110,43.0225,47.00,39.00,300.00,23.00,30.00,10.00,29.86,
RAP,2022-05-13 05:52,-103.0574,44.0453,49.00,37.00,250.00,7.00,,10.00,29.76,
N60,2022-05-13 05:52,-101.4394,47.6458,55.00,53.00,70.00,18.00,30.00,,29.33,
VTN,2022-05-13 05:52,-100.5489,42.8567,55.00,40.00,270.00,20.00,32.00,10.00,29.82,
EST,2022-05-13 05:52,-94.7476,43.4008,69.00,58.00,250.00,20.00,32.00,10.00,29.82,
DBQ,2022-05-13 05:53,-90.7091,42.3984,74.00,66.00,170.00,12.00,,8.00,29.90,
IML,2022-05-13 05:53,-101.6201,40.5103,56.00,28.90,310.00,8.00,17.00,10.00,29.95,
MCW,2022-05-13 05:53,-93.3261,43.1544,71.00,55.00,200.00,5.00,,10.00,29.83,
SNY,2022-05-13 05:53,-102.9847,41.1014,50.00,23.00,320.00,15.00,27.00,10.00,29.96,
CDR,2022-05-13 05:53,-103.0954,42.8376,46.00,39.00,290.00,12.00,,10.00,29.90,
MCK,2022-05-13 05:53,-100.5921,40.2063,53.00,32.00,40.00,3.00,,10.00,29.98,
HEI,2022-05-13 05:53,-102.6560,46.0149,48.00,46.00,270.00,27.00,39.00,7.00,29.46,
AXN,2022-05-13 05:53,-95.3947,45.8663,63.00,61.00,150.00,19.00,27.00,10.00,,
BRD,2022-05-13 05:53,-94.1308,46.4047,63.00,59.00,110.00,5.00,,10.00,,
MSP,2022-05-13 05:53,-93.2313,44.8854,67.00,63.00,80.00,7.00,,10.00,29.75,
FNB,2022-05-13 05:53,-95.5920,40.0788,63.00,61.00,10.00,10.00,,5.00,29.94,TSRA BR
ODX,2022-05-13 05:53,-98.9517,41.6236,55.00,45.00,250.00,8.00,,10.00,29.92,
MIC,2022-05-13 05:53,-93.3511,45.0622,65.00,63.00,80.00,6.00,,10.00,29.73,
FCM,2022-05-13 05:53,-93.4607,44.8261,67.00,63.00,70.00,5.00,,10.00,29.74,
OWA,2022-05-13 05:53,-93.2606,44.1233,69.80,59.00,150.00,8.00,,10.00,29.78,
PKD,2022-05-13 05:53,-95.0700,46.9000,64.00,57.00,150.00,10.00,,10.00,29.56,-RA
STP,2022-05-13 05:53,-93.0600,44.9345,65.00,63.00,0.00,0.00,,10.00,29.76,
BFF,2022-05-13 05:53,-103.5956,41.8740,46.00,36.00,270.00,12.00,,10.00,29.93,
AQP,2022-05-13 05:53,-96.0043,45.2275,66.20,59.00,220.00,10.00,,10.00,29.68,
FOZ,2022-05-13 05:53,-93.6502,47.7828,64.40,60.80,160.00,14.00,25.00,10.00,29.79,
XVG,2022-05-13 05:53,-94.2039,46.9900,62.60,60.80,140.00,6.00,,10.00,29.66,
FAR,2022-05-13 05:53,-96.8111,46.9253,64.00,57.00,170.00,17.00,24.00,10.00,29.53,
AMW,2022-05-13 05:53,-93.6185,41.9904,77.00,61.00,260.00,32.00,41.00,2.50,29.89,HZ
OTM,2022-05-13 05:53,-92.4446,41.1008,76.00,64.00,170.00,10.00,,10.00,29.85,
MHE,2022-05-13 05:53,-98.0386,43.7748,61.00,50.00,190.00,8.00,,10.00,29.73,
AIA,2022-05-13 05:53,-102.8000,42.0572,45.00,36.00,270.00,12.00,,10.00,29.92,
GRI,2022-05-13 05:53,-98.3096,40.9675,62.00,48.00,60.00,3.00,,10.00,29.90,
ORB,2022-05-13 05:53,-92.8560,48.0159,55.40,55.40,140.00,10.00,24.00,10.00,29.82,DZ
GFK,2022-05-13 05:53,-97.1761,47.9492,59.00,55.00,110.00,21.00,33.00,10.00,29.52,
PIR,2022-05-13 05:53,-100.2860,44.3827,54.00,45.00,260.00,18.00,26.00,10.00,29.69,
ATY,2022-05-13 05:53,-97.1547,44.9140,59.00,55.00,200.00,14.00,,10.00,29.70,
ICR,2022-05-13 05:53,-99.8422,43.3903,57.00,41.00,250.00,19.00,26.00,10.00,29.76,
LBF,2022-05-13 05:53,-100.6690,41.1219,48.00,37.00,100.00,3.00,,10.00,29.94,
CUT,2022-05-13 05:53,-103.6114,43.7331,39.00,35.00,270.00,23.00,38.00,10.00,29.79,
STC,2022-05-13 05:53,-94.0513,45.5433,63.00,62.00,70.00,4.00,,10.00,29.74,
HIB,2022-05-13 05:53,-92.8390,47.3866,57.00,56.00,140.00,8.00,,4.00,29.85,RA BR
HSI,2022-05-13 05:53,-98.4279,40.6052,59.00,51.00,0.00,0.00,,10.00,29.91,
LWD,2022-05-13 05:53,-93.9005,40.6306,75.00,62.00,260.00,10.00,,10.00,29.92,
BDE,2022-05-13 05:53,-94.6122,48.7284,56.00,53.00,100.00,17.00,25.00,10.00,29.69,
RWF,2022-05-13 05:53,-95.0820,44.5469,65.00,60.00,140.00,7.00,,10.00,29.74,
SPW,2022-05-13 05:53,-95.2101,43.1682,67.00,60.00,200.00,8.00,20.00,9.00,29.87,-RA
BRL,2022-05-13 05:53,-91.1255,40.7729,78.00,69.00,160.00,10.00,,9.00,29.90,
DVP,2022-05-13 05:53,-95.7826,43.9868,62.00,54.00,230.00,15.00,,10.00,29.75,
BBW,2022-05-13 05:53,-99.6385,41.4365,60.00,35.00,,,,10.00,29.94,
ABR,2022-05-13 05:53,-98.4200,45.4500,58.00,53.00,190.00,14.00,22.00,10.00,29.62,
MIW,2022-05-13 05:53,-92.9163,42.1106,74.00,63.00,130.00,9.00,,10.00,29.81,
LNK,2022-05-13 05:54,-96.7633,40.8312,63.00,59.00,110.00,6.00,,10.00,29.88,
DSM,2022-05-13 05:54,-93.6531,41.5339,75.00,57.00,280.00,24.00,46.00,10.00,29.90,
ALO,2022-05-13 05:54,-92.4013,42.5544,77.00,63.00,160.00,12.00,,10.00,29.82,
RST,2022-05-13 05:54,-92.4916,43.9041,75.00,61.00,210.00,8.00,,10.00,29.82,
TQE,2022-05-13 05:54,-96.1779,41.7635,62.00,57.00,80.00,7.00,,10.00,29.91,-RA
MOT,2022-05-13 05:54,-101.2803,48.2594,55.00,52.00,50.00,24.00,36.00,10.00,29.38,
INL,2022-05-13 05:54,-93.3956,48.5595,53.00,51.00,110.00,16.00,21.00,10.00,29.79,
S32,2022-05-13 05:55,-98.1059,47.4228,57.20,57.20,120.00,16.00,,4.00,29.50,BR
VTI,2022-05-13 05:55,-92.0248,42.2176,77.50,64.20,160.00,8.00,,10.00,29.85,
CCY,2022-05-13 05:55,-92.6132,43.0730,73.40,64.40,220.00,6.00,,10.00,29.83,
CNC,2022-05-13 05:55,-93.3608,41.0184,73.40,66.20,170.00,9.00,,10.00,29.84,
CSQ,2022-05-13 05:55,-94.3608,41.0188,66.20,60.80,300.00,28.00,33.00,10.00,29.96,
FSW,2022-05-13 05:55,-91.3267,40.6615,77.00,69.80,150.00,7.00,,10.00,29.89,
AWG,2022-05-13 05:55,-91.6748,41.2751,73.40,66.20,160.00,9.00,,10.00,29.86,
ACQ,2022-05-13 05:55,-93.5529,44.0735,68.00,59.00,150.00,7.00,,,29.80,
EOK,2022-05-13 05:55,-91.4274,40.4615,77.00,71.60,150.00,8.00,,10.00,29.89,
MPZ,2022-05-13 05:55,-91.5122,40.9453,77.00,68.00,160.00,11.00,,10.00,29.88,
SGS,2022-05-13 05:55,-93.0329,44.8571,67.30,64.00,0.00,0.00,,10.00,29.76,
AEL,2022-05-13 05:55,-93.3672,43.6815,71.60,57.20,180.00,5.00,,10.00,29.81,
PNM,2022-05-13 05:55,-93.6082,45.5599,62.60,60.80,30.00,3.00,,10.00,29.75,
SAZ,2022-05-13 05:55,-94.8066,46.3809,64.40,60.80,130.00,11.00,20.00,10.00,29.66,
CFE,2022-05-13 05:55,-93.8433,45.1590,62.60,62.60,40.00,5.00,,10.00,29.74,
LYV,2022-05-13 05:55,-96.2158,43.6212,60.80,51.80,250.00,11.00,,10.00,29.80,
21D,2022-05-13 05:55,-92.8557,44.9975,64.40,60.80,0.00,0.00,,10.00,29.78,
HZE,2022-05-13 05:55,-101.5810,47.2899,55.40,55.40,70.00,13.00,22.00,3.00,29.31,-TSRA
D55,2022-05-13 05:55,-98.3937,48.7531,55.40,55.40,80.00,18.00,25.00,10.00,29.53,
06D,2022-05-13 05:55,-99.6208,48.8844,51.80,51.80,70.00,18.00,24.00,4.00,29.52,BR
D60,2022-05-13 05:55,-102.8974,48.3803,48.20,50.00,60.00,24.00,30.00,2.00,29.44,BR
GHW,2022-05-13 05:55,-95.3204,45.6439,62.60,60.80,130.00,13.00,,10.00,29.69,
AIT,2022-05-13 05:55,-93.6768,46.5484,57.20,57.20,130.00,6.00,,10.00,29.74,
AUM,2022-05-13 05:55,-92.9333,43.6647,75.20,57.20,150.00,3.00,,10.00,29.81,
HCO,2022-05-13 05:55,-96.9430,48.7527,57.20,55.40,90.00,24.00,33.00,10.00,29.51,
MJQ,2022-05-13 05:55,-94.9865,43.6500,66.20,57.20,230.00,14.00,17.00,10.00,29.83,
JMR,2022-05-13 05:55,-93.2718,45.8861,57.20,57.20,0.00,0.00,,10.00,29.78,
ULM,2022-05-13 05:55,-94.5000,44.3200,69.80,57.20,230.00,14.00,24.00,10.00,29.77,
ONA,2022-05-13 05:55,-91.7083,44.0772,82.40,64.40,190.00,6.00,,10.00,29.79,
BJI,2022-05-13 05:55,-94.9337,47.5094,64.40,57.70,150.00,15.00,21.00,10.00,29.55,
COQ,2022-05-13 05:55,-92.5036,46.7011,51.80,50.00,90.00,9.00,,5.00,29.87,RA
DTL,2022-05-13 05:55,-95.8856,46.8252,64.40,57.20,190.00,8.00,,10.00,29.58,
ELO,2022-05-13 05:55,-91.8371,47.8287,53.60,53.60,100.00,5.00,,10.00,29.83,
FSE,2022-05-13 05:55,-95.7735,47.5928,53.60,53.60,70.00,4.00,,10.00,29.58,
HCD,2022-05-13 05:55,-94.3825,44.8599,63.50,63.30,120.00,4.00,,10.00,29.77,
MZH,2022-05-13 05:55,-92.8048,46.4186,60.80,57.20,70.00,6.00,,7.00,29.80,VCTSRA
PQN,2022-05-13 05:55,-96.3004,43.9821,62.60,53.60,260.00,12.00,,10.00,29.77,
RGK,2022-05-13 05:55,-92.4868,44.5915,75.20,60.80,0.00,0.00,,10.00,29.76,
ROX,2022-05-13 05:55,-95.6971,48.8560,51.80,51.80,80.00,17.00,24.00,10.00,29.62,
TKC,2022-05-13 05:55,-95.6072,44.2491,65.50,55.60,230.00,17.00,24.00,10.00,29.75,
BDH,2022-05-13 05:55,-95.1304,45.1177,62.60,60.80,130.00,11.00,,10.00,29.74,
FET,2022-05-13 05:55,-96.5200,41.4500,62.60,58.30,140.00,4.00,,10.00,29.88,-DZ
LCG,2022-05-13 05:55,-96.9814,42.2419,62.60,51.60,240.00,11.00,15.00,10.00,29.87,
BBB,2022-05-13 05:55,-95.6506,45.3319,64.40,60.80,170.00,8.00,,10.00,29.68,
CQM,2022-05-13 05:55,-92.6894,47.8219,55.40,53.60,120.00,4.00,,10.00,29.85,RA
DYT,2022-05-13 05:55,-92.0434,46.7219,46.40,46.40,70.00,10.00,16.00,10.00,29.92,VCTS
FGN,2022-05-13 05:55,-94.9028,49.3183,51.80,48.20,100.00,5.00,14.00,10.00,29.71,
GYL,2022-05-13 05:55,-94.0812,44.7560,63.30,61.50,320.00,5.00,,10.00,29.76,
GDB,2022-05-13 05:55,-95.5560,44.7533,67.60,61.00,220.00,9.00,,10.00,29.74,
HZX,2022-05-13 05:55,-93.3098,46.6188,59.00,57.20,110.00,9.00,,10.00,29.75,
ANE,2022-05-13 05:55,-93.2102,45.1449,64.40,64.40,60.00,4.00,,10.00,29.76,
LVN,2022-05-13 05:55,-93.2273,44.6252,64.40,60.80,130.00,5.00,,10.00,29.76,
VVV,2022-05-13 05:55,-96.4244,45.3057,62.60,59.00,220.00,8.00,,10.00,29.68,
PWC,2022-05-13 05:55,-94.3817,46.7248,62.60,60.80,140.00,11.00,,10.00,29.73,
ROS,2022-05-13 05:55,-92.9530,45.6980,61.70,59.40,60.00,3.00,,10.00,29.78,
RRT,2022-05-13 05:55,-95.3483,48.9414,44.60,41.00,60.00,13.00,19.00,1.00,29.67,-RA
MWM,2022-05-13 05:55,-95.1094,43.9134,66.20,57.20,230.00,16.00,22.00,10.00,29.78,
Y63,2022-05-13 05:55,-95.9920,45.9861,62.00,60.60,170.00,17.00,22.00,10.00,29.64,
14Y,2022-05-13 05:55,-94.8739,45.8983,60.80,59.00,150.00,15.00,,10.00,29.73,
OVL,2022-05-13 05:55,-95.0328,44.7786,66.20,59.00,150.00,11.00,,10.00,29.73,
PEX,2022-05-13 05:55,-94.7466,45.3723,62.60,60.80,130.00,11.00,,10.00,29.73,-RA
FKA,2022-05-13 05:55,-92.1797,43.6767,74.80,61.70,190.00,13.00,16.00,10.00,29.84,
RUG,2022-05-13 05:55,-100.0243,48.3904,53.60,53.60,70.00,26.00,34.00,2.50,29.43,BR
08D,2022-05-13 05:55,-102.4064,48.3008,50.00,50.00,60.00,19.00,28.00,7.00,29.41,
BAC,2022-05-13 05:55,-98.0180,46.9412,60.80,60.80,190.00,20.00,31.00,10.00,29.50,
S25,2022-05-13 05:55,-103.2552,47.7966,48.20,48.20,340.00,11.00,,2.00,29.43,RA
IKV,2022-05-13 05:55,-93.5695,41.6878,77.00,59.00,280.00,30.00,44.00,7.00,29.91,
AIO,2022-05-13 05:55,-95.0465,41.4059,64.40,64.40,290.00,9.00,,7.00,29.96,-RA
ICL,2022-05-13 05:55,-95.0223,40.7242,66.20,60.80,300.00,8.00,,10.00,30.01,
CBF,2022-05-13 05:55,-95.7604,41.2611,62.60,59.00,340.00,7.00,,10.00,29.94,-DZ
DEH,2022-05-13 05:55,-91.7433,43.2755,77.00,64.40,170.00,11.00,,10.00,29.83,
OLZ,2022-05-13 05:55,-91.9760,42.6831,77.00,64.40,170.00,13.00,,10.00,29.86,
RDK,2022-05-13 05:55,-95.2624,41.0106,66.20,60.80,0.00,0.00,,9.00,29.99,-RA
SHL,2022-05-13 05:55,-95.8353,43.2082,64.40,51.80,200.00,8.00,,10.00,29.78,
SDA,2022-05-13 05:55,-95.4112,40.7533,64.40,60.80,30.00,7.00,15.00,6.00,29.97,-RA
SLB,2022-05-13 05:55,-95.2399,42.5972,64.40,57.20,230.00,9.00,18.00,7.00,29.92,-RA
AXA,2022-05-13 05:55,-94.2724,43.0796,71.60,59.00,230.00,13.00,21.00,9.00,29.83,
ADU,2022-05-13 05:55,-94.9204,41.6994,64.40,59.00,0.00,0.00,,10.00,29.97,RA
CIN,2022-05-13 05:55,-94.7889,42.0444,64.40,59.00,280.00,16.00,32.00,4.00,29.93,-RA
FXY,2022-05-13 05:55,-93.6237,43.2323,68.00,55.40,250.00,3.00,,10.00,29.84,
HNR,2022-05-13 05:55,-95.3355,41.5834,64.40,60.80,240.00,3.00,,10.00,29.97,
LRJ,2022-05-13 05:55,-96.1923,42.7754,64.40,50.00,230.00,11.00,17.00,10.00,29.83,
MUT,2022-05-13 05:55,-91.1406,41.3670,78.80,69.80,150.00,7.00,,10.00,29.89,
I75,2022-05-13 05:55,-93.6876,41.0472,75.20,62.80,230.00,8.00,,7.00,29.90,
OOA,2022-05-13 05:55,-92.4919,41.2273,73.00,63.50,160.00,7.00,,10.00,29.85,
PRO,2022-05-13 05:55,-94.1637,41.8278,70.70,56.30,280.00,31.00,39.00,10.00,29.94,
GGI,2022-05-13 05:55,-92.7332,41.7097,73.80,63.30,160.00,8.00,,10.00,29.87,
MXO,2022-05-13 05:55,-91.1605,42.2204,77.00,68.00,150.00,10.00,,10.00,29.87,
PEA,2022-05-13 05:55,-92.9431,41.3989,74.50,62.40,170.00,5.00,,10.00,29.86,
EBS,2022-05-13 05:55,-93.8691,42.4392,73.40,59.00,260.00,26.00,32.00,10.00,29.88,
BNW,2022-05-13 05:55,-93.8486,42.0486,73.40,57.20,270.00,23.00,32.00,10.00,29.93,
CAV,2022-05-13 05:55,-93.7593,42.7430,71.60,55.40,250.00,17.00,23.00,10.00,29.86,
DNS,2022-05-13 05:55,-95.3800,41.9842,64.40,64.40,290.00,7.00,,9.00,29.97,-RA
FFL,2022-05-13 05:55,-91.9834,41.0521,77.00,64.40,160.00,11.00,16.00,10.00,29.87,
TNU,2022-05-13 05:55,-93.0190,41.6701,73.40,64.40,160.00,9.00,,10.00,29.83,
96D,2022-05-13 05:55,-97.9028,48.9406,57.20,57.20,100.00,14.00,20.00,10.00,29.55,
EVM,2022-05-13 05:55,-92.4981,47.4251,55.40,55.40,150.00,5.00,,7.00,29.89,RA
ANW,2022-05-13 05:55,-99.9930,42.5792,56.00,39.00,270.00,13.00,19.00,10.00,29.87,
AHQ,2022-05-13 05:55,-96.5946,41.2406,64.80,55.60,220.00,6.00,,10.00,29.90,
CKN,2022-05-13 05:55,-96.6214,47.8417,57.20,,120.00,14.00,,10.00,29.53,
FBL,2022-05-13 05:55,-93.3108,44.3247,71.60,60.80,170.00,3.00,,10.00,29.77,
FFM,2022-05-13 05:55,-96.1567,46.2844,62.60,60.80,180.00,13.00,,10.00,29.57,
04W,2022-05-13 05:55,-92.8952,46.0229,60.80,60.80,70.00,5.00,,10.00,29.76,
LXL,2022-05-13 05:55,-94.3469,45.9492,62.60,60.80,130.00,10.00,,10.00,29.74,
JKJ,2022-05-13 05:55,-96.6640,46.8393,62.60,57.20,160.00,14.00,18.00,10.00,29.55,
VWU,2022-05-13 05:55,-94.5167,48.1539,60.80,57.20,80.00,9.00,,10.00,29.65,
Y49,2022-05-13 05:55,-94.6453,47.1595,62.20,59.00,160.00,11.00,16.00,10.00,29.61,-RA
GRN,2022-05-13 05:55,-102.1753,42.8060,46.80,37.80,280.00,16.00,20.00,10.00,29.87,
HPT,2022-05-13 05:55,-93.2244,42.7175,73.40,60.80,210.00,7.00,,10.00,29.83,
SXK,2022-05-13 05:55,-96.1614,42.9858,62.60,55.40,230.00,16.00,,10.00,29.82,
BTN,2022-05-13 05:55,-97.7428,45.8150,59.00,55.40,200.00,15.00,21.00,10.00,29.60,
IBM,2022-05-13 05:55,-103.6774,41.1881,46.60,23.00,280.00,14.00,,10.00,30.01,
HJH,2022-05-13 05:55,-97.5870,40.1523,72.00,47.80,30.00,8.00,18.00,10.00,29.80,
HDE,2022-05-13 05:55,-99.3365,40.4521,56.00,49.80,0.00,0.00,,10.00,29.93,
MLE,2022-05-13 05:55,-96.1120,41.1960,62.80,59.40,0.00,0.00,,10.00,29.92,
AFK,2022-05-13 05:55,-95.8657,40.6069,61.70,59.00,70.00,10.00,,7.00,29.95,-VCTSRA
ONL,2022-05-13 05:55,-98.6881,42.4697,58.00,39.70,200.00,9.00,,10.00,29.85,
TIF,2022-05-13 05:55,-100.5690,41.9622,55.40,37.80,290.00,18.00,25.00,10.00,29.91,
JYR,2022-05-13 05:55,-97.6228,40.8967,62.60,51.80,300.00,8.00,14.00,10.00,29.91,
TVK,2022-05-13 05:55,-92.8983,40.6832,73.40,60.80,160.00,3.00,,10.00,29.88,
20U,2022-05-13 05:55,-103.9821,46.9252,44.60,44.60,300.00,26.00,31.00,1.75,29.53,-RA
BWW,2022-05-13 05:55,-103.3007,46.1655,46.40,46.40,290.00,34.00,42.00,4.00,29.49,VCTS RA
9D7,2022-05-13 05:55,-99.2364,48.4800,53.60,53.60,60.00,14.00,,2.00,29.51,BR
46D,2022-05-13 05:55,-99.1513,47.4511,57.20,57.20,120.00,17.00,23.00,1.00,29.45,BR
2C8,2022-05-13 05:55,-97.6320,48.7837,57.20,57.20,120.00,11.00,17.00,10.00,29.53,
D50,2022-05-13 05:55,-103.2973,48.9285,46.40,46.40,20.00,20.00,26.00,2.50,29.52,+UP
D57,2022-05-13 05:55,-101.8602,46.8128,53.60,53.60,160.00,8.00,16.00,5.00,29.27,VCTS BR
GAF,2022-05-13 05:55,-97.3709,48.4047,59.00,59.00,100.00,23.00,31.00,10.00,29.51,
GWR,2022-05-13 05:55,-97.6435,46.2187,59.00,59.00,210.00,16.00,23.00,10.00,29.57,
5H4,2022-05-13 05:55,-99.9317,47.7912,55.40,55.40,80.00,18.00,25.00,10.00,29.42,
7L2,2022-05-13 05:55,-100.2456,46.2206,51.80,51.80,,,,10.00,29.46,
Y19,2022-05-13 05:55,-100.8944,46.7680,51.80,51.80,180.00,19.00,31.00,10.00,29.36,
2D5,2022-05-13 05:55,-98.0799,46.1731,57.20,57.20,190.00,18.00,24.00,10.00,29.56,
BWP,2022-05-13 05:55,-96.6074,46.2441,62.60,59.00,190.00,16.00,,10.00,29.58,
9V9,2022-05-13 05:55,-99.3183,43.7667,58.30,41.00,240.00,20.00,24.00,10.00,29.73,
HON,2022-05-13 05:55,-98.2286,44.3852,60.00,46.00,210.00,10.00,,10.00,,
PHP,2022-05-13 05:55,-101.6000,44.0500,48.00,45.00,250.00,8.00,,10.00,29.74,
SPF,2022-05-13 05:55,-103.7830,44.4803,46.40,39.20,260.00,25.00,37.00,10.00,29.74,
BVN,2022-05-13 05:55,-98.0558,41.7286,60.00,50.20,0.00,0.00,,10.00,29.90,
BIE,2022-05-13 05:55,-96.7541,40.3013,63.70,58.30,350.00,4.00,,10.00,29.88,
TOB,2022-05-13 05:55,-92.8315,44.0180,68.00,53.60,150.00,6.00,,10.00,29.80,
OXV,2022-05-13 05:55,-93.1114,41.2984,75.20,62.60,190.00,6.00,,10.00,29.84,
9MN,2022-05-13 05:55,-92.4831,44.0198,78.40,60.00,190.00,5.00,,10.00,29.82,
D39,2022-05-13 05:55,-94.9334,45.7066,62.20,62.00,120.00,10.00,19.00,10.00,29.69,
SYN,2022-05-13 05:55,-93.0145,44.4736,72.00,60.00,0.00,0.00,,10.00,29.76,
CKP,2022-05-13 05:55,-95.5538,42.7304,64.80,58.00,230.00,8.00,,10.00,29.88,-DZ
IFA,2022-05-13 05:55,-93.2651,42.4691,74.50,65.00,200.00,6.00,,10.00,29.85,
AUH,2022-05-13 05:55,-97.9946,40.8941,62.20,51.00,10.00,5.00,,10.00,29.90,
PMV,2022-05-13 05:55,-95.9179,40.9502,63.00,58.00,50.00,4.00,,10.00,29.96,VCTS
3N8,2022-05-13 05:55,-95.9281,47.2605,62.60,58.00,190.00,11.00,,10.00,29.56,
LXN,2022-05-13 05:55,-99.7759,40.7904,55.40,42.00,0.00,0.00,,10.00,29.96,
OGA,2022-05-13 05:55,-101.7697,41.1195,54.50,35.00,320.00,9.00,17.00,10.00,29.94,
DLH,2022-05-13 05:55,-92.1936,46.8421,53.00,51.00,160.00,5.00,,3.00,29.90,TSRA
BTA,2022-05-13 05:55,-96.1090,41.4148,62.00,56.80,60.00,5.00,,10.00,29.93,-RA
2WX,2022-05-13 05:56,-103.5464,45.6044,46.00,43.00,280.00,35.00,44.00,,29.54,
OFF,2022-05-13 05:56,-95.9125,41.1183,64.80,56.70,50.00,3.00,,10.00,29.95,
OTG,2022-05-13 05:56,-95.5792,43.6551,65.00,55.00,230.00,11.00,,10.00,29.78,
FRM,2022-05-13 05:56,-94.4156,43.6439,69.00,59.00,220.00,12.00,,10.00,29.82,
TVF,2022-05-13 05:56,-96.1850,48.0657,57.00,55.00,80.00,20.00,29.00,10.00,29.56,
OLU,2022-05-13 05:56,-97.3426,41.4480,66.00,48.00,300.00,11.00,17.00,10.00,29.83,
MKT,2022-05-13 05:56,-93.9200,44.2200,69.00,61.00,160.00,9.00,,10.00,29.78,
EAR,2022-05-13 05:56,-99.0068,40.7270,58.00,52.00,0.00,0.00,,10.00,29.94,
OFK,2022-05-13 05:56,-97.4351,41.9855,63.00,48.00,150.00,5.00,,10.00,29.84,
CKC,2022-05-13 05:56,-90.3829,47.8383,51.80,51.80,60.00,6.00,,10.00,29.92,-VCTSRA
JMS,2022-05-13 05:56,-98.6800,46.9300,60.00,54.00,210.00,16.00,29.00,10.00,29.47,
MML,2022-05-13 05:56,-95.8200,44.4500,65.00,57.00,250.00,17.00,24.00,10.00,29.71,
RYM,2022-05-13 05:56,-94.3575,46.0895,63.00,60.30,140.00,12.00,,10.00,29.71,
DVL,2022-05-13 05:56,-98.9083,48.1146,57.00,55.00,100.00,12.00,,10.00,29.49,
DIK,2022-05-13 05:56,-102.8019,46.7973,47.00,46.00,290.00,23.00,37.00,2.50,29.33,VCTS -RA BR
RDR,2022-05-13 05:56,-97.4012,47.9611,58.00,55.40,120.00,16.00,,10.00,29.52,
MIB,2022-05-13 05:56,-101.3580,48.4158,53.40,43.20,100.00,25.00,30.00,10.00,29.36,
RCA,2022-05-13 05:56,-103.1036,44.1451,48.40,37.60,280.00,11.00,,10.00,29.73,
8D3,2022-05-13 05:56,-96.9914,45.6689,63.00,54.00,220.00,19.00,30.00,,29.62,
D07,2022-05-13 05:56,-102.0200,45.0300,46.00,44.00,250.00,33.00,42.00,,29.59,
GPZ,2022-05-13 05:56,-93.5097,47.2111,62.00,60.00,80.00,9.00,,10.00,29.66,-RA
GNA,2022-05-13 05:56,-90.3457,47.7453,49.00,47.00,80.00,5.00,,,29.91,
FSD,2022-05-13 05:56,-96.7536,43.5769,65.00,51.00,210.00,8.00,,10.00,29.79,
YKN,2022-05-13 05:56,-97.3859,42.9167,62.00,51.00,190.00,7.00,,10.00,29.81,
CWI,2022-05-13 05:56,-90.3328,41.8295,76.00,68.00,150.00,10.00,,10.00,29.92,
FOD,2022-05-13 05:56,-94.2032,42.5497,71.00,59.00,250.00,13.00,21.00,10.00,29.90,-RA
1HW,2022-05-13 05:58,-102.8289,41.3251,44.60,32.40,320.00,9.00,,10.00,29.94,
1CW,2022-05-13 05:58,-103.6706,41.5900,44.60,32.40,260.00,13.00,,10.00,29.95,
1BW,2022-05-13 05:58,-103.9950,41.5117,46.00,19.80,280.00,17.00,,10.00,29.99,
PNM,2022-05-13 06:15,-93.6082,45.5599,62.60,60.80,90.00,3.00,,10.00,29.76,
FSE,2022-05-13 06:15,-95.7735,47.5928,53.60,53.60,80.00,4.00,,10.00,29.59,
SYN,2022-05-13 06:15,-93.0145,44.4736,69.60,60.00,0.00,0.00,,10.00,29.76,
ORB,2022-05-13 06:33,-92.8560,48.0159,55.40,55.40,130.00,8.00,,10.00,29.79,RA
EVM,2022-05-13 06:35,-92.4981,47.4251,55.40,55.40,110.00,7.00,,7.00,29.83,TSRA
JYG,2022-05-13 06:36,-94.5579,43.9863,68.00,57.20,230.00,11.00,,10.00,29.79,-RA
XWA,2022-05-13 06:51,-103.7505,48.2597,46.00,45.00,360.00,20.00,28.00,3.00,29.44,-RA BR
IOW,2022-05-13 06:52,-91.5445,41.6394,73.00,63.00,130.00,6.00,,10.00,29.88,
OMA,2022-05-13 06:52,-95.8992,41.3103,64.00,57.00,110.00,12.00,,10.00,29.88,
BIS,2022-05-13 06:52,-100.7458,46.7727,54.00,50.00,190.00,18.00,31.00,10.00,29.33,
IEN,2022-05-13 06:52,-102.5110,43.0225,46.00,39.00,280.00,10.00,18.00,10.00,29.88,
N60,2022-05-13 06:52,-101.4394,47.6458,55.00,53.00,70.00,16.00,31.00,,29.26,
VTN,2022-05-13 06:52,-100.5489,42.8567,54.00,38.00,280.00,21.00,33.00,10.00,29.83,
CID,2022-05-13 06:52,-91.7246,41.8829,75.00,65.00,170.00,10.00,19.00,10.00,29.86,
SUX,2022-05-13 06:52,-96.3795,42.3917,63.00,51.00,190.00,7.00,,10.00,29.80,
DVN,2022-05-13 06:52,-90.5948,41.6133,77.00,67.00,150.00,10.00,,10.00,29.92,
MBG,2022-05-13 06:52,-100.4078,45.5464,52.00,44.00,230.00,17.00,29.00,10.00,29.52,
RAP,2022-05-13 06:52,-103.0574,44.0453,50.00,38.00,260.00,11.00,,10.00,29.78,
EST,2022-05-13 06:52,-94.7476,43.4008,65.00,53.00,210.00,12.00,,10.00,29.86,-RA
STC,2022-05-13 06:53,-94.0513,45.5433,62.00,61.00,100.00,9.00,,10.00,29.73,
CDD,2022-05-13 06:53,-92.4830,48.2660,51.80,50.00,0.00,0.00,,1.75,29.85,RA
IML,2022-05-13 06:53,-101.6201,40.5103,47.00,28.90,30.00,5.00,,10.00,29.98,
SNY,2022-05-13 06:53,-102.9847,41.1014,52.00,21.90,300.00,16.00,28.00,10.00,29.95,
MCW,2022-05-13 06:53,-93.3261,43.1544,73.00,52.00,260.00,12.00,33.00,10.00,29.89,
CDR,2022-05-13 06:53,-103.0954,42.8376,43.00,37.00,290.00,3.00,,10.00,29.90,
MCK,2022-05-13 06:53,-100.5921,40.2063,52.00,30.90,300.00,4.00,,10.00,29.97,
HIB,2022-05-13 06:53,-92.8390,47.3866,57.00,55.00,110.00,11.00,20.00,10.00,29.73,-RA
MSP,2022-05-13 06:53,-93.2313,44.8854,66.00,63.00,0.00,0.00,,10.00,29.77,
FNB,2022-05-13 06:53,-95.5920,40.0788,63.00,61.00,40.00,11.00,18.00,9.00,29.93,-TSRA
OWA,2022-05-13 06:53,-93.2606,44.1233,71.60,57.20,200.00,8.00,,10.00,29.81,
PKD,2022-05-13 06:53,-95.0700,46.9000,63.00,57.00,170.00,18.00,29.00,10.00,29.64,
STP,2022-05-13 06:53,-93.0600,44.9345,66.00,63.00,30.00,3.00,,10.00,29.77,
BFF,2022-05-13 06:53,-103.5956,41.8740,46.00,36.00,250.00,11.00,,10.00,29.95,
AQP,2022-05-13 06:53,-96.0043,45.2275,64.40,57.20,220.00,10.00,15.00,10.00,29.68,
FOZ,2022-05-13 06:53,-93.6502,47.7828,62.60,60.80,130.00,9.00,,10.00,29.71,
XVG,2022-05-13 06:53,-94.2039,46.9900,60.80,59.00,120.00,7.00,15.00,10.00,29.66,
FAR,2022-05-13 06:53,-96.8111,46.9253,62.00,57.00,190.00,16.00,26.00,10.00,29.54,
MIW,2022-05-13 06:53,-92.9163,42.1106,75.00,55.00,280.00,19.00,46.00,10.00,29.89,
OTM,2022-05-13 06:53,-92.4446,41.1008,74.00,64.00,190.00,8.00,,10.00,29.88,
LBF,2022-05-13 06:53,-100.6690,41.1219,50.00,36.00,140.00,4.00,,10.00,29.96,
ORB,2022-05-13 06:53,-92.8560,48.0159,57.20,55.40,110.00,8.00,16.00,10.00,29.71,-RA
AIA,2022-05-13 06:53,-102.8000,42.0572,41.00,34.00,250.00,7.00,,10.00,29.93,
DVP,2022-05-13 06:53,-95.7826,43.9868,61.50,52.00,220.00,14.00,,10.00,29.78,
GFK,2022-05-13 06:53,-97.1761,47.9492,59.00,55.00,110.00,11.00,,10.00,29.48,
ABR,2022-05-13 06:53,-98.4200,45.4500,57.00,50.00,220.00,16.00,,10.00,29.62,
MHE,2022-05-13 06:53,-98.0386,43.7748,59.00,48.00,210.00,10.00,,10.00,29.75,
PIR,2022-05-13 06:53,-100.2860,44.3827,52.00,41.00,250.00,16.00,30.00,10.00,29.71,
ICR,2022-05-13 06:53,-99.8422,43.3903,54.00,43.00,250.00,16.00,26.00,10.00,29.79,
BBW,2022-05-13 06:53,-99.6385,41.4365,56.00,36.00,250.00,7.00,,10.00,29.94,
SPW,2022-05-13 06:53,-95.2101,43.1682,66.00,59.00,180.00,11.00,,10.00,29.86,-RA
DBQ,2022-05-13 06:53,-90.7091,42.3984,73.00,67.00,160.00,10.00,,7.00,29.90,
HEI,2022-05-13 06:53,-102.6560,46.0149,46.00,44.00,270.00,35.00,46.00,10.00,29.49,
BRD,2022-05-13 06:53,-94.1308,46.4047,61.00,56.00,120.00,10.00,,10.00,,
HSI,2022-05-13 06:53,-98.4279,40.6052,59.00,49.00,270.00,3.00,,10.00,29.93,
ODX,2022-05-13 06:53,-98.9517,41.6236,54.00,42.00,220.00,7.00,,10.00,29.90,
RWF,2022-05-13 06:53,-95.0820,44.5469,66.00,60.00,210.00,8.00,,10.00,29.75,
AMW,2022-05-13 06:53,-93.6185,41.9904,70.00,56.00,290.00,24.00,35.00,10.00,29.92,
CUT,2022-05-13 06:53,-103.6114,43.7331,39.00,35.00,270.00,26.00,43.00,10.00,29.82,
AXN,2022-05-13 06:53,-95.3947,45.8663,62.00,60.00,140.00,15.00,22.00,10.00,,
ATY,2022-05-13 06:53,-97.1547,44.9140,58.00,53.00,200.00,11.00,,10.00,29.69,
BDE,2022-05-13 06:53,-94.6122,48.7284,56.00,52.00,90.00,19.00,31.00,10.00,29.62,
MIC,2022-05-13 06:53,-93.3511,45.0622,62.00,61.00,0.00,0.00,,10.00,29.77,
FCM,2022-05-13 06:53,-93.4607,44.8261,65.00,63.00,290.00,3.00,,10.00,29.77,
BRL,2022-05-13 06:53,-91.1255,40.7729,76.00,68.00,160.00,8.00,,9.00,29.89,
LWD,2022-05-13 06:53,-93.9005,40.6306,67.00,54.00,310.00,17.00,25.00,10.00,29.96,-RA
GRI,2022-05-13 06:53,-98.3096,40.9675,58.00,50.00,260.00,3.00,,10.00,29.92,
DSM,2022-05-13 06:54,-93.6531,41.5339,69.00,54.00,310.00,22.00,32.00,10.00,29.92,
ALO,2022-05-13 06:54,-92.4013,42.5544,76.00,64.00,190.00,11.00,,10.00,29.83,
INL,2022-05-13 06:54,-93.3956,48.5595,54.00,52.00,80.00,17.00,26.00,10.00,29.67,-RA
TQE,2022-05-13 06:54,-96.1779,41.7635,63.00,57.00,120.00,9.00,,10.00,29.80,
LNK,2022-05-13 06:54,-96.7633,40.8312,63.00,60.00,90.00,9.00,,10.00,29.85,
RST,2022-05-13 06:54,-92.4916,43.9041,72.00,62.00,180.00,8.00,,10.00,29.82,
MOT,2022-05-13 06:54,-101.2803,48.2594,55.00,53.00,70.00,26.00,37.00,8.00,29.31,-RA
S32,2022-05-13 06:55,-98.1059,47.4228,59.00,59.00,150.00,18.00,25.00,6.00,29.46,BR
CCY,2022-05-13 06:55,-92.6132,43.0730,71.60,64.40,200.00,4.00,,10.00,29.84,
VTI,2022-05-13 06:55,-92.0248,42.2176,76.00,63.50,150.00,9.00,,10.00,29.84,
CNC,2022-05-13 06:55,-93.3608,41.0184,69.80,57.20,300.00,20.00,29.00,10.00,29.95,
CSQ,2022-05-13 06:55,-94.3608,41.0188,64.40,60.80,310.00,9.00,15.00,10.00,29.97,
FSW,2022-05-13 06:55,-91.3267,40.6615,75.20,71.60,160.00,7.00,,10.00,29.89,
AWG,2022-05-13 06:55,-91.6748,41.2751,73.40,68.00,160.00,8.00,,9.00,29.86,
ACQ,2022-05-13 06:55,-93.5529,44.0735,69.80,57.20,200.00,16.00,20.00,,29.84,
EOK,2022-05-13 06:55,-91.4274,40.4615,75.20,71.60,140.00,8.00,,10.00,29.89,
MPZ,2022-05-13 06:55,-91.5122,40.9453,75.20,69.80,160.00,11.00,,10.00,29.88,
AEL,2022-05-13 06:55,-93.3672,43.6815,73.40,55.40,230.00,12.00,20.00,10.00,29.86,-RA
SGS,2022-05-13 06:55,-93.0329,44.8571,66.00,64.40,0.00,0.00,,10.00,29.77,
PNM,2022-05-13 06:55,-93.6082,45.5599,62.60,60.80,120.00,3.00,,7.00,29.77,
HZE,2022-05-13 06:55,-101.5810,47.2899,55.40,55.40,150.00,13.00,,10.00,29.25,VCTS
D55,2022-05-13 06:55,-98.3937,48.7531,55.40,55.40,100.00,16.00,,10.00,29.49,
7L2,2022-05-13 06:55,-100.2456,46.2206,51.80,50.00,210.00,22.00,32.00,10.00,29.45,
06D,2022-05-13 06:55,-99.6208,48.8844,51.80,51.80,80.00,15.00,20.00,0.25,29.48,FG
D60,2022-05-13 06:55,-102.8974,48.3803,50.00,50.00,60.00,25.00,32.00,5.00,29.36,BR
GHW,2022-05-13 06:55,-95.3204,45.6439,62.60,60.80,160.00,10.00,,10.00,29.70,
AIT,2022-05-13 06:55,-93.6768,46.5484,57.20,57.20,110.00,8.00,,10.00,29.71,
AUM,2022-05-13 06:55,-92.9333,43.6647,71.60,64.40,260.00,7.00,,10.00,29.85,
HCO,2022-05-13 06:55,-96.9430,48.7527,57.20,55.40,100.00,21.00,25.00,10.00,29.50,
MJQ,2022-05-13 06:55,-94.9865,43.6500,62.60,53.60,210.00,7.00,,10.00,29.83,
JMR,2022-05-13 06:55,-93.2718,45.8861,57.20,57.20,100.00,6.00,,10.00,29.78,
ULM,2022-05-13 06:55,-94.5000,44.3200,,,210.00,7.00,,10.00,29.76,
PQN,2022-05-13 06:55,-96.3004,43.9821,60.80,51.80,250.00,10.00,,10.00,29.77,
RGK,2022-05-13 06:55,-92.4868,44.5915,69.80,60.80,30.00,3.00,,10.00,29.76,
ROX,2022-05-13 06:55,-95.6971,48.8560,53.60,53.60,80.00,15.00,,10.00,29.59,
ONA,2022-05-13 06:55,-91.7083,44.0772,80.60,64.40,190.00,4.00,15.00,10.00,29.79,
BVN,2022-05-13 06:55,-98.0558,41.7286,58.00,49.80,290.00,3.00,,10.00,29.89,
BTA,2022-05-13 06:55,-96.1090,41.4148,61.20,55.60,110.00,8.00,,10.00,29.87,
FET,2022-05-13 06:55,-96.5200,41.4500,63.50,57.20,160.00,5.00,,10.00,29.86,
BJI,2022-05-13 06:55,-94.9337,47.5094,63.00,56.70,200.00,3.00,,10.00,29.61,
BBB,2022-05-13 06:55,-95.6506,45.3319,64.40,59.00,230.00,7.00,,10.00,29.70,
COQ,2022-05-13 06:55,-92.5036,46.7011,51.80,50.00,130.00,7.00,,10.00,29.78,
DTL,2022-05-13 06:55,-95.8856,46.8252,64.40,59.00,170.00,15.00,20.00,10.00,29.61,
ELO,2022-05-13 06:55,-91.8371,47.8287,55.40,55.40,140.00,7.00,,10.00,29.89,+RA
FGN,2022-05-13 06:55,-94.9028,49.3183,51.80,48.20,90.00,10.00,18.00,10.00,29.65,
FSE,2022-05-13 06:55,-95.7735,47.5928,53.60,53.60,90.00,3.00,,10.00,29.57,
HCD,2022-05-13 06:55,-94.3825,44.8599,63.00,63.00,130.00,5.00,,10.00,29.75,
ANE,2022-05-13 06:55,-93.2102,45.1449,64.40,64.40,0.00,0.00,,10.00,29.78,
MZH,2022-05-13 06:55,-92.8048,46.4186,55.40,53.60,110.00,3.00,,10.00,29.79,
BDH,2022-05-13 06:55,-95.1304,45.1177,64.40,60.80,200.00,5.00,,10.00,29.75,
21D,2022-05-13 06:55,-92.8557,44.9975,64.40,60.80,80.00,4.00,,10.00,29.79,
CFE,2022-05-13 06:55,-93.8433,45.1590,60.80,60.80,0.00,0.00,,10.00,29.77,
TOB,2022-05-13 06:55,-92.8315,44.0180,66.20,55.40,180.00,6.00,,10.00,29.82,
DYT,2022-05-13 06:55,-92.0434,46.7219,44.60,44.60,90.00,13.00,20.00,9.00,29.79,-RA
Y63,2022-05-13 06:55,-95.9920,45.9861,62.00,59.50,210.00,14.00,21.00,10.00,29.67,
GYL,2022-05-13 06:55,-94.0812,44.7560,63.50,61.30,140.00,4.00,,10.00,29.76,
GDB,2022-05-13 06:55,-95.5560,44.7533,65.00,59.20,190.00,4.00,,10.00,29.73,
14Y,2022-05-13 06:55,-94.8739,45.8983,60.80,59.00,130.00,12.00,18.00,10.00,29.68,
LYV,2022-05-13 06:55,-96.2158,43.6212,59.00,51.80,240.00,7.00,,10.00,29.80,
HZX,2022-05-13 06:55,-93.3098,46.6188,59.00,55.40,120.00,10.00,,10.00,29.74,
LVN,2022-05-13 06:55,-93.2273,44.6252,62.60,62.60,0.00,0.00,,10.00,29.78,
VVV,2022-05-13 06:55,-96.4244,45.3057,62.60,55.40,220.00,9.00,14.00,10.00,29.67,
PEX,2022-05-13 06:55,-94.7466,45.3723,62.60,59.00,140.00,8.00,,10.00,29.72,
PWC,2022-05-13 06:55,-94.3817,46.7248,60.80,59.00,150.00,9.00,,10.00,29.71,
ROS,2022-05-13 06:55,-92.9530,45.6980,60.40,59.00,0.00,0.00,,10.00,29.80,
D39,2022-05-13 06:55,-94.9334,45.7066,61.20,61.20,130.00,9.00,,10.00,29.69,
SYN,2022-05-13 06:55,-93.0145,44.4736,69.00,60.80,0.00,0.00,,10.00,29.78,
SAZ,2022-05-13 06:55,-94.8066,46.3809,64.40,60.80,150.00,8.00,,10.00,29.67,
TKC,2022-05-13 06:55,-95.6072,44.2491,64.40,50.40,220.00,14.00,19.00,10.00,29.75,
RRT,2022-05-13 06:55,-95.3483,48.9414,44.60,41.00,80.00,11.00,15.00,0.75,29.63,BR
MWM,2022-05-13 06:55,-95.1094,43.9134,64.40,55.40,210.00,15.00,,10.00,29.82,-RA
OVL,2022-05-13 06:55,-95.0328,44.7786,64.40,59.00,210.00,9.00,,10.00,29.75,
Y19,2022-05-13 06:55,-100.8944,46.7680,50.00,50.00,210.00,23.00,32.00,10.00,29.31,
2D5,2022-05-13 06:55,-98.0799,46.1731,55.40,57.20,200.00,21.00,26.00,10.00,29.56,
RUG,2022-05-13 06:55,-100.0243,48.3904,53.60,53.60,70.00,24.00,32.00,2.00,29.39,BR
08D,2022-05-13 06:55,-102.4064,48.3008,50.00,50.00,50.00,20.00,,2.00,29.34,BR
IKV,2022-05-13 06:55,-93.5695,41.6878,69.80,55.40,290.00,15.00,37.00,10.00,29.94,
AIO,2022-05-13 06:55,-95.0465,41.4059,64.40,64.40,0.00,0.00,,10.00,29.94,-RA
ICL,2022-05-13 06:55,-95.0223,40.7242,62.60,60.80,350.00,5.00,,10.00,30.00,
CBF,2022-05-13 06:55,-95.7604,41.2611,62.60,55.40,100.00,8.00,14.00,10.00,29.87,
OLZ,2022-05-13 06:55,-91.9760,42.6831,75.20,64.40,180.00,10.00,,10.00,29.86,
SDA,2022-05-13 06:55,-95.4112,40.7533,64.40,60.80,100.00,6.00,,4.00,29.96,RA
SLB,2022-05-13 06:55,-95.2399,42.5972,60.80,55.40,190.00,10.00,,10.00,29.89,
AXA,2022-05-13 06:55,-94.2724,43.0796,64.40,59.00,250.00,17.00,26.00,4.00,29.89,HZ
CKP,2022-05-13 06:55,-95.5538,42.7304,61.70,53.80,130.00,12.00,,10.00,29.83,-RA
DEH,2022-05-13 06:55,-91.7433,43.2755,77.00,66.20,180.00,10.00,15.00,10.00,29.82,
FXY,2022-05-13 06:55,-93.6237,43.2323,68.00,57.20,230.00,10.00,16.00,10.00,29.89,-DZ
LRJ,2022-05-13 06:55,-96.1923,42.7754,66.20,50.00,250.00,7.00,18.00,10.00,29.79,
I75,2022-05-13 06:55,-93.6876,41.0472,67.50,55.00,290.00,14.00,18.00,10.00,29.96,
PRO,2022-05-13 06:55,-94.1637,41.8278,66.00,54.70,300.00,12.00,,10.00,29.93,
SHL,2022-05-13 06:55,-95.8353,43.2082,62.60,55.40,120.00,8.00,,10.00,29.78,
ADU,2022-05-13 06:55,-94.9204,41.6994,62.60,57.20,0.00,0.00,,10.00,29.94,RA
CIN,2022-05-13 06:55,-94.7889,42.0444,64.40,55.40,250.00,8.00,,10.00,29.91,
GGI,2022-05-13 06:55,-92.7332,41.7097,77.40,63.00,250.00,18.00,27.00,10.00,29.93,
HNR,2022-05-13 06:55,-95.3355,41.5834,62.60,62.60,0.00,0.00,,7.00,29.92,
IFA,2022-05-13 06:55,-93.2651,42.4691,73.40,57.00,260.00,27.00,32.00,10.00,29.92,
MXO,2022-05-13 06:55,-91.1605,42.2204,75.20,69.80,140.00,9.00,,10.00,29.87,
MUT,2022-05-13 06:55,-91.1406,41.3670,77.00,69.80,150.00,7.00,,10.00,29.88,
PEA,2022-05-13 06:55,-92.9431,41.3989,75.60,60.60,300.00,16.00,22.00,10.00,29.93,
EBS,2022-05-13 06:55,-93.8691,42.4392,68.00,55.40,280.00,26.00,32.00,10.00,29.90,
BNW,2022-05-13 06:55,-93.8486,42.0486,68.00,53.60,290.00,22.00,33.00,10.00,29.94,
CAV,2022-05-13 06:55,-93.7593,42.7430,69.80,59.00,270.00,24.00,30.00,10.00,29.92,
DNS,2022-05-13 06:55,-95.3800,41.9842,62.60,62.60,120.00,7.00,,10.00,29.90,
FFL,2022-05-13 06:55,-91.9834,41.0521,77.00,66.20,170.00,10.00,,10.00,29.87,
TNU,2022-05-13 06:55,-93.0190,41.6701,73.40,55.40,290.00,22.00,28.00,10.00,29.92,
96D,2022-05-13 06:55,-97.9028,48.9406,57.20,57.20,110.00,14.00,,10.00,29.52,
EVM,2022-05-13 06:55,-92.4981,47.4251,55.40,55.40,90.00,11.00,17.00,10.00,29.75,RA
ANW,2022-05-13 06:55,-99.9930,42.5792,53.20,39.20,270.00,13.00,16.00,10.00,29.87,
PMV,2022-05-13 06:55,-95.9179,40.9502,63.00,57.70,110.00,7.00,,10.00,29.91,
AHQ,2022-05-13 06:55,-96.5946,41.2406,62.80,57.00,220.00,8.00,,10.00,29.90,
CKN,2022-05-13 06:55,-96.6214,47.8417,57.20,,120.00,13.00,,10.00,29.53,
FBL,2022-05-13 06:55,-93.3108,44.3247,69.80,60.80,150.00,6.00,,10.00,29.80,
FFM,2022-05-13 06:55,-96.1567,46.2844,62.60,60.80,200.00,17.00,,10.00,29.60,
LXL,2022-05-13 06:55,-94.3469,45.9492,60.80,60.80,130.00,9.00,16.00,10.00,29.73,
04W,2022-05-13 06:55,-92.8952,46.0229,60.80,60.80,110.00,3.00,,10.00,29.79,
JKJ,2022-05-13 06:55,-96.6640,46.8393,62.60,57.20,190.00,13.00,19.00,10.00,29.56,
VWU,2022-05-13 06:55,-94.5167,48.1539,60.80,57.20,80.00,7.00,,10.00,29.63,
3N8,2022-05-13 06:55,-95.9281,47.2605,62.00,57.70,170.00,10.00,15.00,10.00,29.55,
Y49,2022-05-13 06:55,-94.6453,47.1595,62.00,59.00,160.00,11.00,18.00,10.00,29.63,
HPT,2022-05-13 06:55,-93.2244,42.7175,73.40,53.60,270.00,24.00,30.00,10.00,29.88,
SXK,2022-05-13 06:55,-96.1614,42.9858,60.80,53.60,270.00,16.00,22.00,10.00,29.80,
IBM,2022-05-13 06:55,-103.6774,41.1881,46.00,21.70,300.00,15.00,,10.00,30.00,
LXN,2022-05-13 06:55,-99.7759,40.7904,50.00,41.70,330.00,7.00,,10.00,29.97,
OGA,2022-05-13 06:55,-101.7697,41.1195,50.50,35.40,300.00,4.00,,10.00,29.96,
HJH,2022-05-13 06:55,-97.5870,40.1523,68.40,44.60,10.00,10.00,14.00,10.00,29.86,
HDE,2022-05-13 06:55,-99.3365,40.4521,53.60,48.40,0.00,0.00,,10.00,29.95,
MLE,2022-05-13 06:55,-96.1120,41.1960,63.70,56.80,120.00,6.00,,10.00,29.89,
ONL,2022-05-13 06:55,-98.6881,42.4697,57.70,39.40,250.00,9.00,,10.00,29.88,
TIF,2022-05-13 06:55,-100.5690,41.9622,52.00,38.50,300.00,12.00,17.00,10.00,29.91,
JYR,2022-05-13 06:55,-97.6228,40.8967,62.60,50.00,340.00,5.00,,10.00,29.89,
TVK,2022-05-13 06:55,-92.8983,40.6832,71.60,62.60,0.00,0.00,,10.00,29.92,
RDK,2022-05-13 06:55,-95.2624,41.0106,64.40,59.00,,,,9.00,29.97,
20U,2022-05-13 06:55,-103.9821,46.9252,44.60,44.60,300.00,28.00,34.00,3.00,29.51,RA
BWW,2022-05-13 06:55,-103.3007,46.1655,44.60,44.60,280.00,30.00,42.00,10.00,29.50,VCTS
46D,2022-05-13 06:55,-99.1513,47.4511,57.20,55.40,200.00,16.00,,10.00,29.43,
2C8,2022-05-13 06:55,-97.6320,48.7837,57.20,57.20,110.00,11.00,,10.00,29.51,
D50,2022-05-13 06:55,-103.2973,48.9285,46.40,46.40,10.00,15.00,,1.50,29.48,+RA
D57,2022-05-13 06:55,-101.8602,46.8128,51.80,51.80,240.00,17.00,,10.00,29.21,
GAF,2022-05-13 06:55,-97.3709,48.4047,59.00,59.00,120.00,13.00,20.00,10.00,29.50,
GWR,2022-05-13 06:55,-97.6435,46.2187,57.20,57.20,210.00,20.00,26.00,10.00,29.56,
5H4,2022-05-13 06:55,-99.9317,47.7912,55.40,55.40,130.00,16.00,23.00,1.75,29.39,BR
BAC,2022-05-13 06:55,-98.0180,46.9412,57.20,57.20,190.00,13.00,19.00,10.00,29.50,
BWP,2022-05-13 06:55,-96.6074,46.2441,60.80,55.40,210.00,11.00,17.00,10.00,29.60,
S25,2022-05-13 06:55,-103.2552,47.7966,48.20,48.20,320.00,16.00,,2.50,29.37,VCTS RA
BTN,2022-05-13 06:55,-97.7428,45.8150,59.00,55.40,190.00,19.00,27.00,10.00,29.58,
9V9,2022-05-13 06:55,-99.3183,43.7667,55.40,42.40,250.00,16.00,22.00,10.00,29.75,
HON,2022-05-13 06:55,-98.2286,44.3852,57.00,48.00,200.00,8.00,,10.00,,
PHP,2022-05-13 06:55,-101.6000,44.0500,48.00,43.00,230.00,11.00,,10.00,29.74,
SPF,2022-05-13 06:55,-103.7830,44.4803,46.40,39.20,270.00,35.00,42.00,10.00,29.72,
BIE,2022-05-13 06:55,-96.7541,40.3013,65.70,56.80,80.00,12.00,18.00,10.00,29.84,
CQM,2022-05-13 06:55,-92.6894,47.8219,57.20,55.40,90.00,6.00,16.00,10.00,29.74,RA
OXV,2022-05-13 06:55,-93.1114,41.2984,73.40,55.40,300.00,15.00,27.00,10.00,29.93,
DLH,2022-05-13 06:55,-92.1936,46.8421,54.00,53.00,90.00,13.00,23.00,10.00,29.77,
LCG,2022-05-13 06:55,-96.9814,42.2419,60.40,53.00,210.00,7.00,,10.00,29.84,
FKA,2022-05-13 06:55,-92.1797,43.6767,73.60,62.00,200.00,12.00,,7.00,29.85,
9MN,2022-05-13 06:55,-92.4831,44.0198,75.60,60.00,140.00,6.00,,10.00,29.82,
AUH,2022-05-13 06:55,-97.9946,40.8941,60.40,51.00,330.00,3.00,,10.00,29.90,
GRN,2022-05-13 06:55,-102.1753,42.8060,46.40,38.00,270.00,16.00,21.00,10.00,29.87,
AFK,2022-05-13 06:55,-95.8657,40.6069,62.60,58.00,90.00,8.00,,10.00,29.95,
OOA,2022-05-13 06:55,-92.4919,41.2273,74.00,64.00,200.00,7.00,,10.00,29.88,
2WX,2022-05-13 06:56,-103.5464,45.6044,46.00,41.00,280.00,41.00,52.00,,29.53,
OFF,2022-05-13 06:56,-95.9125,41.1183,64.00,56.70,110.00,5.00,,10.00,29.92,
OTG,2022-05-13 06:56,-95.5792,43.6551,64.00,55.00,180.00,13.00,,10.00,29.84,
FRM,2022-05-13 06:56,-94.4156,43.6439,68.00,55.00,240.00,16.00,,10.00,29.83,-RA
GPZ,2022-05-13 06:56,-93.5097,47.2111,60.00,59.00,140.00,7.00,,10.00,29.73,
OLU,2022-05-13 06:56,-97.3426,41.4480,61.00,55.00,250.00,3.00,,10.00,29.89,
MKT,2022-05-13 06:56,-93.9200,44.2200,71.00,59.00,210.00,12.00,,10.00,29.81,-RA
CKC,2022-05-13 06:56,-90.3829,47.8383,53.60,53.60,60.00,5.00,,10.00,29.90,
CWI,2022-05-13 06:56,-90.3328,41.8295,75.00,68.00,150.00,10.00,,10.00,29.91,
FOD,2022-05-13 06:56,-94.2032,42.5497,63.00,55.00,270.00,11.00,27.00,10.00,29.92,VCTS -RA
MML,2022-05-13 06:56,-95.8200,44.4500,63.00,54.00,240.00,12.00,,10.00,29.72,
RYM,2022-05-13 06:56,-94.3575,46.0895,61.70,59.70,170.00,11.00,,10.00,29.72,
DVL,2022-05-13 06:56,-98.9083,48.1146,56.00,55.00,100.00,16.00,24.00,10.00,29.42,
DIK,2022-05-13 06:56,-102.8019,46.7973,47.00,45.00,280.00,29.00,39.00,4.00,29.33,-RA BR
MIB,2022-05-13 06:56,-101.3580,48.4158,53.40,44.60,110.00,20.00,25.00,10.00,29.30,
RCA,2022-05-13 06:56,-103.1036,44.1451,49.80,37.80,270.00,14.00,22.00,10.00,29.74,
FSD,2022-05-13 06:56,-96.7536,43.5769,65.00,48.00,220.00,8.00,14.00,10.00,29.76,
8D3,2022-05-13 06:56,-96.9914,45.6689,63.00,54.00,200.00,16.00,,,29.61,
YKN,2022-05-13 06:56,-97.3859,42.9167,64.00,46.00,190.00,8.00,,10.00,29.79,
EAR,2022-05-13 06:56,-99.0068,40.7270,56.00,50.00,260.00,3.00,,10.00,29.95,
GNA,2022-05-13 06:56,-90.3457,47.7453,50.00,47.00,70.00,12.00,,,29.89,
OFK,2022-05-13 06:56,-97.4351,41.9855,62.00,47.00,210.00,8.00,,10.00,29.86,
RDR,2022-05-13 06:56,-97.4012,47.9611,58.00,56.00,120.00,10.00,,10.00,29.47,
JMS,2022-05-13 06:56,-98.6800,46.9300,56.00,51.00,190.00,15.00,,10.00,29.46,
D07,2022-05-13 06:56,-102.0200,45.0300,47.00,44.00,260.00,29.00,42.00,,29.59,
TVF,2022-05-13 06:56,-96.1850,48.0657,56.00,55.00,100.00,12.00,,10.00,29.56,
1HW,2022-05-13 06:58,-102.8289,41.3251,41.40,33.40,290.00,9.00,,10.00,29.95,
1CW,2022-05-13 06:58,-103.6706,41.5900,44.60,23.50,270.00,16.00,,10.00,29.96,
1BW,2022-05-13 06:58,-103.9950,41.5117,46.00,19.90,280.00,18.00,,10.00,30.00,
PNM,2022-05-13 07:15,-93.6082,45.5599,62.60,60.80,0.00,0.00,,10.00,29.77,
FSE,2022-05-13 07:15,-95.7735,47.5928,53.60,53.60,100.00,5.00,,10.00,29.57,
SYN,2022-05-13 07:15,-93.0145,44.4736,69.30,59.50,0.00,0.00,,10.00,29.78,
ORB,2022-05-13 07:33,-92.8560,48.0159,55.40,55.40,130.00,10.00,18.00,10.00,29.68,
EVM,2022-05-13 07:35,-92.4981,47.4251,55.40,55.40,120.00,3.00,,10.00,29.76,
JYG,2022-05-13 07:36,-94.5579,43.9863,,,180.00,9.00,,10.00,29.82,-RA
XWA,2022-05-13 07:51,-103.7505,48.2597,46.00,45.00,340.00,21.00,29.00,3.00,29.40,-RA BR
IOW,2022-05-13 07:52,-91.5445,41.6394,77.00,66.00,180.00,7.00,,10.00,29.89,
CID,2022-05-13 07:52,-91.7246,41.8829,74.00,66.00,180.00,11.00,,9.00,29.87,
EST,2022-05-13 07:52,-94.7476,43.4008,65.00,55.00,190.00,6.00,,10.00,29.85,
IEN,2022-05-13 07:52,-102.5110,43.0225,44.00,39.00,240.00,10.00,,10.00,29.88,
RAP,2022-05-13 07:52,-103.0574,44.0453,50.00,37.00,270.00,16.00,25.00,10.00,29.77,
OMA,2022-05-13 07:52,-95.8992,41.3103,64.00,56.00,150.00,12.00,,10.00,29.90,
N60,2022-05-13 07:52,-101.4394,47.6458,53.00,51.00,120.00,14.00,22.00,,29.21,
VTN,2022-05-13 07:52,-100.5489,42.8567,53.00,38.00,260.00,14.00,25.00,10.00,29.84,
SUX,2022-05-13 07:52,-96.3795,42.3917,62.00,51.00,180.00,8.00,,10.00,29.83,
DVN,2022-05-13 07:52,-90.5948,41.6133,76.00,65.00,160.00,12.00,,10.00,29.91,
BIS,2022-05-13 07:52,-100.7458,46.7727,53.00,49.00,200.00,15.00,25.00,10.00,29.31,
MBG,2022-05-13 07:52,-100.4078,45.5464,53.00,44.00,240.00,15.00,30.00,10.00,29.52,
STC,2022-05-13 07:53,-94.0513,45.5433,63.00,61.00,130.00,9.00,,10.00,29.72,
IML,2022-05-13 07:53,-101.6201,40.5103,46.00,34.00,110.00,5.00,,10.00,30.00,
SNY,2022-05-13 07:53,-102.9847,41.1014,48.00,23.00,280.00,13.00,,10.00,29.97,
MCW,2022-05-13 07:53,-93.3261,43.1544,68.00,52.00,270.00,14.00,25.00,10.00,29.89,
CDR,2022-05-13 07:53,-103.0954,42.8376,44.00,37.00,230.00,8.00,,10.00,29.90,
BDE,2022-05-13 07:53,-94.6122,48.7284,56.00,52.00,110.00,15.00,,10.00,29.62,
BRD,2022-05-13 07:53,-94.1308,46.4047,62.00,57.00,120.00,9.00,15.00,10.00,,
FNB,2022-05-13 07:53,-95.5920,40.0788,63.00,59.00,50.00,7.00,,10.00,29.92,-RA
HIB,2022-05-13 07:53,-92.8390,47.3866,56.00,54.00,140.00,7.00,,10.00,29.73,
MSP,2022-05-13 07:53,-93.2313,44.8854,67.00,63.00,150.00,3.00,,10.00,29.79,
ODX,2022-05-13 07:53,-98.9517,41.6236,58.00,39.00,280.00,16.00,23.00,10.00,29.91,
OWA,2022-05-13 07:53,-93.2606,44.1233,69.80,59.00,210.00,13.00,17.00,10.00,29.85,-DZ
STP,2022-05-13 07:53,-93.0600,44.9345,66.00,63.00,0.00,0.00,,10.00,29.80,
BFF,2022-05-13 07:53,-103.5956,41.8740,50.00,27.00,270.00,13.00,,10.00,29.93,
AQP,2022-05-13 07:53,-96.0043,45.2275,62.60,53.60,210.00,9.00,,10.00,29.69,
FOZ,2022-05-13 07:53,-93.6502,47.7828,62.60,59.00,130.00,8.00,,10.00,29.72,
XVG,2022-05-13 07:53,-94.2039,46.9900,59.00,57.20,130.00,9.00,14.00,10.00,29.69,
LWD,2022-05-13 07:53,-93.9005,40.6306,66.00,52.00,320.00,11.00,20.00,10.00,29.98,-RA
AMW,2022-05-13 07:53,-93.6185,41.9904,67.00,52.00,300.00,11.00,,10.00,29.92,
OTM,2022-05-13 07:53,-92.4446,41.1008,73.00,61.00,290.00,12.00,,10.00,29.93,
SPW,2022-05-13 07:53,-95.2101,43.1682,65.00,54.00,160.00,7.00,16.00,10.00,29.76,
GRI,2022-05-13 07:53,-98.3096,40.9675,58.00,48.00,290.00,8.00,,10.00,29.93,
ORB,2022-05-13 07:53,-92.8560,48.0159,55.40,55.40,140.00,8.00,,10.00,29.69,
DVP,2022-05-13 07:53,-95.7826,43.9868,58.80,52.70,170.00,7.00,,10.00,29.80,
ABR,2022-05-13 07:53,-98.4200,45.4500,54.00,48.00,210.00,15.00,,10.00,29.62,
PIR,2022-05-13 07:53,-100.2860,44.3827,52.00,41.00,250.00,17.00,25.00,10.00,29.69,
BBW,2022-05-13 07:53,-99.6385,41.4365,52.00,37.00,270.00,5.00,,10.00,29.94,
LBF,2022-05-13 07:53,-100.6690,41.1219,51.00,36.00,0.00,0.00,,10.00,29.96,
DBQ,2022-05-13 07:53,-90.7091,42.3984,73.00,67.00,160.00,12.00,,7.00,29.88,
MCK,2022-05-13 07:53,-100.5921,40.2063,48.00,33.00,0.00,0.00,,10.00,29.99,
RWF,2022-05-13 07:53,-95.0820,44.5469,64.00,56.00,190.00,11.00,,10.00,29.76,
BRL,2022-05-13 07:53,-91.1255,40.7729,75.00,67.00,160.00,8.00,,9.00,29.90,
FAR,2022-05-13 07:53,-96.8111,46.9253,59.00,53.00,190.00,18.00,25.00,10.00,29.54,
MHE,2022-05-13 07:53,-98.0386,43.7748,59.00,44.00,240.00,14.00,23.00,10.00,29.77,
ATY,2022-05-13 07:53,-97.1547,44.9140,57.00,49.00,210.00,15.00,,10.00,29.69,
ICR,2022-05-13 07:53,-99.8422,43.3903,52.00,42.00,250.00,12.00,,10.00,29.80,
HEI,2022-05-13 07:53,-102.6560,46.0149,44.00,42.00,270.00,30.00,47.00,10.00,29.46,-RA
AXN,2022-05-13 07:53,-95.3947,45.8663,62.00,60.00,160.00,9.00,,10.00,,
HSI,2022-05-13 07:53,-98.4279,40.6052,56.00,49.00,280.00,4.00,,10.00,29.94,
MIC,2022-05-13 07:53,-93.3511,45.0622,65.00,62.00,140.00,6.00,,10.00,29.77,
FCM,2022-05-13 07:53,-93.4607,44.8261,67.00,62.00,180.00,4.00,,10.00,29.79,
PKD,2022-05-13 07:53,-95.0700,46.9000,62.00,58.00,170.00,14.00,23.00,10.00,29.64,
MIW,2022-05-13 07:53,-92.9163,42.1106,69.00,53.00,290.00,19.00,26.00,10.00,29.91,
AIA,2022-05-13 07:53,-102.8000,42.0572,38.00,33.00,290.00,5.00,,10.00,29.92,
GFK,2022-05-13 07:53,-97.1761,47.9492,60.00,56.00,150.00,16.00,,10.00,29.46,
CUT,2022-05-13 07:53,-103.6114,43.7331,40.00,33.00,260.00,22.00,45.00,10.00,29.82,
LNK,2022-05-13 07:54,-96.7633,40.8312,64.00,59.00,140.00,6.00,,10.00,29.97,
DSM,2022-05-13 07:54,-93.6531,41.5339,67.00,52.00,290.00,9.00,,10.00,29.95,
TQE,2022-05-13 07:54,-96.1779,41.7635,62.00,57.00,220.00,9.00,,10.00,29.89,
ALO,2022-05-13 07:54,-92.4013,42.5544,75.00,56.00,280.00,14.00,23.00,10.00,29.88,
INL,2022-05-13 07:54,-93.3956,48.5595,55.00,53.00,140.00,12.00,22.00,10.00,29.68,-RA
RST,2022-05-13 07:54,-92.4916,43.9041,72.00,58.00,240.00,14.00,,10.00,29.86,
MOT,2022-05-13 07:54,-101.2803,48.2594,55.00,53.00,60.00,24.00,32.00,5.00,29.25,BR
CCY,2022-05-13 07:55,-92.6132,43.0730,73.40,55.40,270.00,22.00,27.00,10.00,29.88,
IFA,2022-05-13 07:55,-93.2651,42.4691,68.20,53.80,280.00,18.00,27.00,10.00,29.92,
CNC,2022-05-13 07:55,-93.3608,41.0184,68.00,55.40,310.00,9.00,,10.00,29.97,
CSQ,2022-05-13 07:55,-94.3608,41.0188,64.40,62.60,300.00,4.00,,10.00,29.98,
AWG,2022-05-13 07:55,-91.6748,41.2751,73.40,68.00,190.00,7.00,,8.00,29.87,
FSW,2022-05-13 07:55,-91.3267,40.6615,75.20,69.80,150.00,8.00,,10.00,29.89,
EOK,2022-05-13 07:55,-91.4274,40.4615,73.40,71.60,140.00,7.00,,10.00,29.89,
MPZ,2022-05-13 07:55,-91.5122,40.9453,73.40,69.80,170.00,9.00,,7.00,29.89,
SGS,2022-05-13 07:55,-93.0329,44.8571,66.00,64.60,180.00,4.00,,10.00,29.80,
ACQ,2022-05-13 07:55,-93.5529,44.0735,66.20,59.00,220.00,12.00,,,29.87,
AEL,2022-05-13 07:55,-93.3672,43.6815,69.80,57.20,240.00,9.00,16.00,10.00,29.87,
PNM,2022-05-13 07:55,-93.6082,45.5599,62.60,60.80,110.00,8.00,,10.00,29.75,
HZE,2022-05-13 07:55,-101.5810,47.2899,51.80,51.80,130.00,8.00,15.00,10.00,29.20,
7L2,2022-05-13 07:55,-100.2456,46.2206,50.00,50.00,220.00,28.00,34.00,10.00,29.45,
D55,2022-05-13 07:55,-98.3937,48.7531,57.20,57.20,100.00,17.00,23.00,3.00,29.43,BR
06D,2022-05-13 07:55,-99.6208,48.8844,51.80,51.80,80.00,15.00,22.00,0.25,29.39,FG
D60,2022-05-13 07:55,-102.8974,48.3803,50.00,50.00,50.00,20.00,26.00,6.00,29.30,VCTS DZ
AIT,2022-05-13 07:55,-93.6768,46.5484,57.20,57.20,130.00,10.00,,10.00,29.73,
AUM,2022-05-13 07:55,-92.9333,43.6647,71.60,57.20,240.00,12.00,17.00,10.00,29.88,
GHW,2022-05-13 07:55,-95.3204,45.6439,62.60,59.00,180.00,11.00,,10.00,29.73,
HCO,2022-05-13 07:55,-96.9430,48.7527,57.20,55.40,90.00,17.00,,10.00,29.48,
MJQ,2022-05-13 07:55,-94.9865,43.6500,64.40,51.80,150.00,8.00,,10.00,29.82,-RA
JMR,2022-05-13 07:55,-93.2718,45.8861,59.00,59.00,110.00,7.00,,10.00,29.76,
ULM,2022-05-13 07:55,-94.5000,44.3200,64.40,55.40,190.00,8.00,,10.00,29.83,-RA
BJI,2022-05-13 07:55,-94.9337,47.5094,61.70,57.70,140.00,12.00,,10.00,29.62,
COQ,2022-05-13 07:55,-92.5036,46.7011,48.20,48.20,100.00,13.00,19.00,0.75,29.76,BR
DTL,2022-05-13 07:55,-95.8856,46.8252,62.60,57.20,190.00,15.00,,10.00,29.62,
ELO,2022-05-13 07:55,-91.8371,47.8287,55.40,55.40,80.00,8.00,25.00,10.00,29.74,-RA
FSE,2022-05-13 07:55,-95.7735,47.5928,60.80,55.40,190.00,13.00,,10.00,29.58,
HCD,2022-05-13 07:55,-94.3825,44.8599,66.20,61.70,180.00,6.00,,10.00,29.78,
MZH,2022-05-13 07:55,-92.8048,46.4186,53.60,51.80,100.00,3.00,,10.00,29.77,
PQN,2022-05-13 07:55,-96.3004,43.9821,57.20,53.60,200.00,7.00,,10.00,29.78,
RGK,2022-05-13 07:55,-92.4868,44.5915,71.60,59.00,250.00,3.00,,10.00,29.79,
ROX,2022-05-13 07:55,-95.6971,48.8560,55.40,55.40,90.00,11.00,18.00,10.00,29.56,
BDH,2022-05-13 07:55,-95.1304,45.1177,64.40,60.80,190.00,3.00,,10.00,29.77,
ONA,2022-05-13 07:55,-91.7083,44.0772,78.80,64.40,210.00,4.00,,10.00,29.80,
BBB,2022-05-13 07:55,-95.6506,45.3319,62.60,57.20,210.00,9.00,,10.00,29.73,
CFE,2022-05-13 07:55,-93.8433,45.1590,62.60,62.60,140.00,9.00,,10.00,29.76,
DYT,2022-05-13 07:55,-92.0434,46.7219,42.80,41.00,20.00,10.00,,10.00,29.82,
FGN,2022-05-13 07:55,-94.9028,49.3183,51.80,48.20,100.00,11.00,19.00,10.00,29.61,
GDB,2022-05-13 07:55,-95.5560,44.7533,63.00,56.80,170.00,11.00,14.00,10.00,29.77,
14Y,2022-05-13 07:55,-94.8739,45.8983,60.80,59.00,160.00,13.00,,10.00,29.70,
LYV,2022-05-13 07:55,-96.2158,43.6212,57.20,51.80,200.00,7.00,,10.00,29.80,
DXX,2022-05-13 07:55,-96.1779,44.9864,64.40,53.60,210.00,11.00,15.00,10.00,29.72,
HZX,2022-05-13 07:55,-93.3098,46.6188,57.20,55.40,140.00,8.00,,10.00,29.75,
ANE,2022-05-13 07:55,-93.2102,45.1449,64.40,64.40,130.00,8.00,,10.00,29.78,
LVN,2022-05-13 07:55,-93.2273,44.6252,69.80,57.20,0.00,0.00,,10.00,29.81,
VVV,2022-05-13 07:55,-96.4244,45.3057,60.80,55.40,200.00,8.00,,10.00,29.67,
PEX,2022-05-13 07:55,-94.7466,45.3723,62.60,59.00,160.00,8.00,,10.00,29.74,
PWC,2022-05-13 07:55,-94.3817,46.7248,60.80,57.20,130.00,12.00,,10.00,29.70,
9MN,2022-05-13 07:55,-92.4831,44.0198,74.70,59.20,230.00,7.00,15.00,10.00,29.85,
ROS,2022-05-13 07:55,-92.9530,45.6980,60.00,58.50,100.00,5.00,,10.00,29.78,
D39,2022-05-13 07:55,-94.9334,45.7066,61.50,61.00,160.00,10.00,,10.00,29.71,
SAZ,2022-05-13 07:55,-94.8066,46.3809,64.40,60.80,150.00,9.00,15.00,10.00,29.67,
21D,2022-05-13 07:55,-92.8557,44.9975,64.40,60.80,0.00,0.00,,10.00,29.82,
TKC,2022-05-13 07:55,-95.6072,44.2491,63.00,50.50,220.00,12.00,,10.00,29.78,
RRT,2022-05-13 07:55,-95.3483,48.9414,44.60,41.00,80.00,12.00,,1.00,29.60,BR
MWM,2022-05-13 07:55,-95.1094,43.9134,64.40,51.80,150.00,7.00,,10.00,29.78,-RA
OVL,2022-05-13 07:55,-95.0328,44.7786,62.60,59.00,210.00,8.00,,10.00,29.76,
RUG,2022-05-13 07:55,-100.0243,48.3904,55.40,55.40,90.00,20.00,27.00,2.00,29.32,BR
08D,2022-05-13 07:55,-102.4064,48.3008,50.00,50.00,50.00,17.00,26.00,1.50,29.27,-TSRA
BAC,2022-05-13 07:55,-98.0180,46.9412,55.40,55.40,200.00,21.00,30.00,10.00,29.49,
IKV,2022-05-13 07:55,-93.5695,41.6878,68.00,53.60,300.00,8.00,16.00,10.00,29.96,
AIO,2022-05-13 07:55,-95.0465,41.4059,62.60,62.60,0.00,0.00,,8.00,29.91,-RA
CKP,2022-05-13 07:55,-95.5538,42.7304,60.30,54.50,210.00,7.00,,10.00,29.85,
ICL,2022-05-13 07:55,-95.0223,40.7242,62.60,60.80,,4.00,11.00,10.00,29.95,-DZ
CBF,2022-05-13 07:55,-95.7604,41.2611,62.60,57.20,140.00,12.00,,10.00,29.89,
DEH,2022-05-13 07:55,-91.7433,43.2755,75.20,66.20,190.00,9.00,15.00,10.00,29.85,
OLZ,2022-05-13 07:55,-91.9760,42.6831,75.20,62.60,230.00,16.00,25.00,10.00,29.89,
OOA,2022-05-13 07:55,-92.4919,41.2273,74.30,55.80,310.00,21.00,25.00,10.00,29.95,
RDK,2022-05-13 07:55,-95.2624,41.0106,62.60,59.00,0.00,0.00,,10.00,29.92,
SHL,2022-05-13 07:55,-95.8353,43.2082,60.80,53.60,190.00,8.00,,10.00,29.81,
SDA,2022-05-13 07:55,-95.4112,40.7533,62.60,59.00,50.00,4.00,,10.00,29.90,
SLB,2022-05-13 07:55,-95.2399,42.5972,60.80,53.60,180.00,14.00,,10.00,29.83,
AXA,2022-05-13 07:55,-94.2724,43.0796,62.60,60.80,190.00,6.00,,10.00,29.84,
ADU,2022-05-13 07:55,-94.9204,41.6994,62.60,57.20,110.00,8.00,,10.00,29.89,-RA
CIN,2022-05-13 07:55,-94.7889,42.0444,62.60,60.80,160.00,10.00,,8.00,29.88,
FXY,2022-05-13 07:55,-93.6237,43.2323,66.20,51.80,250.00,9.00,16.00,10.00,29.89,
HNR,2022-05-13 07:55,-95.3355,41.5834,62.60,60.80,160.00,8.00,14.00,10.00,29.91,
LRJ,2022-05-13 07:55,-96.1923,42.7754,60.80,51.80,180.00,8.00,,10.00,29.83,
MUT,2022-05-13 07:55,-91.1406,41.3670,75.20,69.80,150.00,7.00,,10.00,29.88,
I75,2022-05-13 07:55,-93.6876,41.0472,67.60,54.50,290.00,6.00,,10.00,29.98,
PRO,2022-05-13 07:55,-94.1637,41.8278,62.40,55.60,210.00,6.00,,10.00,29.94,
GGI,2022-05-13 07:55,-92.7332,41.7097,72.30,56.50,290.00,16.00,22.00,10.00,29.95,
MXO,2022-05-13 07:55,-91.1605,42.2204,75.20,69.80,160.00,7.00,,10.00,29.87,
EBS,2022-05-13 07:55,-93.8691,42.4392,62.60,55.40,260.00,7.00,,10.00,29.88,
BNW,2022-05-13 07:55,-93.8486,42.0486,66.20,53.60,280.00,12.00,20.00,10.00,29.93,
CAV,2022-05-13 07:55,-93.7593,42.7430,64.40,55.40,290.00,10.00,,10.00,29.89,
DNS,2022-05-13 07:55,-95.3800,41.9842,62.60,62.60,0.00,0.00,,10.00,29.88,
FFL,2022-05-13 07:55,-91.9834,41.0521,75.20,68.00,180.00,8.00,,10.00,29.88,
TNU,2022-05-13 07:55,-93.0190,41.6701,69.80,55.40,290.00,14.00,21.00,10.00,29.93,
96D,2022-05-13 07:55,-97.9028,48.9406,57.20,57.20,100.00,11.00,19.00,10.00,29.46,
EVM,2022-05-13 07:55,-92.4981,47.4251,55.40,55.40,120.00,4.00,,10.00,29.76,
ANW,2022-05-13 07:55,-99.9930,42.5792,51.60,38.30,280.00,15.00,22.00,10.00,29.85,
PMV,2022-05-13 07:55,-95.9179,40.9502,62.60,57.40,70.00,8.00,,10.00,29.90,
AHQ,2022-05-13 07:55,-96.5946,41.2406,62.00,58.30,210.00,7.00,,10.00,29.95,
CKN,2022-05-13 07:55,-96.6214,47.8417,57.20,,150.00,15.00,,10.00,29.51,
FBL,2022-05-13 07:55,-93.3108,44.3247,71.60,57.20,210.00,9.00,14.00,10.00,29.82,
FFM,2022-05-13 07:55,-96.1567,46.2844,59.00,55.40,180.00,8.00,,10.00,29.60,
AUH,2022-05-13 07:55,-97.9946,40.8941,60.60,47.50,290.00,4.00,,10.00,29.92,
04W,2022-05-13 07:55,-92.8952,46.0229,60.80,60.80,120.00,4.00,,10.00,29.78,
LXL,2022-05-13 07:55,-94.3469,45.9492,60.80,59.00,140.00,7.00,,10.00,29.72,
JKJ,2022-05-13 07:55,-96.6640,46.8393,60.80,53.60,180.00,12.00,,10.00,29.57,
VWU,2022-05-13 07:55,-94.5167,48.1539,59.00,57.20,90.00,5.00,,10.00,29.64,
3N8,2022-05-13 07:55,-95.9281,47.2605,63.00,59.50,190.00,19.00,28.00,10.00,29.58,
Y49,2022-05-13 07:55,-94.6453,47.1595,60.30,59.20,140.00,9.00,14.00,10.00,29.64,
HPT,2022-05-13 07:55,-93.2244,42.7175,68.00,50.00,280.00,16.00,23.00,10.00,29.89,
GRN,2022-05-13 07:55,-102.1753,42.8060,44.80,37.80,260.00,10.00,,10.00,29.88,
SXK,2022-05-13 07:55,-96.1614,42.9858,60.80,50.00,170.00,9.00,,10.00,29.82,
HJH,2022-05-13 07:55,-97.5870,40.1523,68.00,39.20,10.00,7.00,,10.00,29.92,
IBM,2022-05-13 07:55,-103.6774,41.1881,48.20,19.90,290.00,18.00,24.00,10.00,29.99,
LXN,2022-05-13 07:55,-99.7759,40.7904,51.30,38.70,0.00,0.00,,10.00,29.98,
MLE,2022-05-13 07:55,-96.1120,41.1960,63.70,57.20,100.00,6.00,,10.00,29.86,
ONL,2022-05-13 07:55,-98.6881,42.4697,55.80,40.60,250.00,10.00,,10.00,29.87,
TIF,2022-05-13 07:55,-100.5690,41.9622,49.50,38.30,290.00,9.00,15.00,10.00,29.90,
JYR,2022-05-13 07:55,-97.6228,40.8967,62.60,48.20,0.00,0.00,,10.00,29.92,
20U,2022-05-13 07:55,-103.9821,46.9252,44.60,44.60,290.00,26.00,38.00,3.00,29.50,VCTS UP
BWW,2022-05-13 07:55,-103.3007,46.1655,42.80,42.80,280.00,30.00,44.00,10.00,29.49,
46D,2022-05-13 07:55,-99.1513,47.4511,55.40,51.80,170.00,21.00,28.00,10.00,29.41,
2C8,2022-05-13 07:55,-97.6320,48.7837,57.20,57.20,110.00,12.00,,10.00,29.45,
D50,2022-05-13 07:55,-103.2973,48.9285,46.40,46.40,10.00,14.00,,1.25,29.42,-RA
D57,2022-05-13 07:55,-101.8602,46.8128,48.20,46.40,250.00,37.00,48.00,4.00,29.21,BR
GAF,2022-05-13 07:55,-97.3709,48.4047,59.00,59.00,110.00,15.00,,10.00,29.46,
GWR,2022-05-13 07:55,-97.6435,46.2187,57.20,57.20,210.00,22.00,27.00,10.00,29.55,
5H4,2022-05-13 07:55,-99.9317,47.7912,53.60,53.60,170.00,15.00,24.00,10.00,29.35,
Y19,2022-05-13 07:55,-100.8944,46.7680,50.00,50.00,210.00,21.00,31.00,10.00,29.30,
2D5,2022-05-13 07:55,-98.0799,46.1731,53.60,53.60,210.00,23.00,31.00,10.00,29.55,
S32,2022-05-13 07:55,-98.1059,47.4228,57.20,57.20,200.00,20.00,26.00,10.00,29.47,
BWP,2022-05-13 07:55,-96.6074,46.2441,59.00,53.60,170.00,12.00,,10.00,29.59,
S25,2022-05-13 07:55,-103.2552,47.7966,46.40,46.40,320.00,12.00,23.00,3.00,29.35,VCTS RA
BTN,2022-05-13 07:55,-97.7428,45.8150,57.20,50.00,210.00,24.00,32.00,10.00,29.59,
9V9,2022-05-13 07:55,-99.3183,43.7667,53.00,43.70,260.00,11.00,15.00,10.00,29.78,
HON,2022-05-13 07:55,-98.2286,44.3852,56.00,45.00,230.00,11.00,,10.00,,
SPF,2022-05-13 07:55,-103.7830,44.4803,46.40,37.40,270.00,33.00,41.00,10.00,29.74,
BIE,2022-05-13 07:55,-96.7541,40.3013,63.00,58.30,90.00,6.00,,10.00,29.88,
CQM,2022-05-13 07:55,-92.6894,47.8219,57.20,55.40,120.00,5.00,,10.00,29.71,
TOB,2022-05-13 07:55,-92.8315,44.0180,69.80,53.60,230.00,17.00,,10.00,29.86,
TVK,2022-05-13 07:55,-92.8983,40.6832,68.00,55.40,290.00,15.00,20.00,10.00,29.98,
OXV,2022-05-13 07:55,-93.1114,41.2984,68.00,53.60,300.00,11.00,16.00,10.00,29.95,
BVN,2022-05-13 07:55,-98.0558,41.7286,57.70,47.00,280.00,4.00,,10.00,29.89,
GYL,2022-05-13 07:55,-94.0812,44.7560,66.20,60.00,170.00,9.00,15.00,10.00,29.78,-RA
SYN,2022-05-13 07:55,-93.0145,44.4736,71.60,58.00,0.00,0.00,,10.00,29.80,
PEA,2022-05-13 07:55,-92.9431,41.3989,69.40,55.00,300.00,9.00,,10.00,29.95,
PHP,2022-05-13 07:55,-101.6000,44.0500,48.00,40.00,240.00,14.00,,10.00,29.73,
BTA,2022-05-13 07:55,-96.1090,41.4148,61.20,56.00,230.00,5.00,,10.00,29.91,
VTI,2022-05-13 07:55,-92.0248,42.2176,76.00,63.00,220.00,10.00,14.00,10.00,29.90,
LCG,2022-05-13 07:55,-96.9814,42.2419,60.00,51.00,230.00,9.00,,10.00,29.86,
DLH,2022-05-13 07:55,-92.1936,46.8421,49.00,49.00,110.00,11.00,,0.25,29.80,FG
FET,2022-05-13 07:55,-96.5200,41.4500,62.00,58.00,120.00,8.00,,10.00,29.88,
Y63,2022-05-13 07:55,-95.9920,45.9861,60.00,58.00,190.00,9.00,,10.00,29.65,
FKA,2022-05-13 07:55,-92.1797,43.6767,73.00,62.00,210.00,12.00,,10.00,29.85,
HDE,2022-05-13 07:55,-99.3365,40.4521,51.00,46.20,300.00,4.00,,10.00,29.97,
AFK,2022-05-13 07:55,-95.8657,40.6069,62.00,57.60,70.00,9.00,,10.00,29.90,-RA
OGA,2022-05-13 07:55,-101.7697,41.1195,46.00,35.20,210.00,6.00,,10.00,29.96,
OFF,2022-05-13 07:56,-95.9125,41.1183,64.00,57.60,120.00,8.00,,10.00,29.91,
FRM,2022-05-13 07:56,-94.4156,43.6439,62.00,54.00,190.00,14.00,,10.00,29.87,-RA
TVF,2022-05-13 07:56,-96.1850,48.0657,56.00,55.00,120.00,12.00,,10.00,29.54,
OTG,2022-05-13 07:56,-95.5792,43.6551,63.00,54.00,250.00,13.00,22.00,10.00,29.83,
OLU,2022-05-13 07:56,-97.3426,41.4480,62.00,52.00,0.00,0.00,,10.00,29.91,
MKT,2022-05-13 07:56,-93.9200,44.2200,69.00,57.00,220.00,17.00,23.00,10.00,29.84,-RA
EAR,2022-05-13 07:56,-99.0068,40.7270,53.00,48.00,290.00,7.00,,10.00,29.97,
GNA,2022-05-13 07:56,-90.3457,47.7453,48.00,46.00,0.00,0.00,,,29.93,
CKC,2022-05-13 07:56,-90.3829,47.8383,53.60,51.80,350.00,3.00,,7.00,29.92,VCTSRA
DVL,2022-05-13 07:56,-98.9083,48.1146,56.00,55.00,130.00,16.00,21.00,6.00,29.38,-RA BR
RDR,2022-05-13 07:56,-97.4012,47.9611,58.50,56.50,140.00,11.00,,10.00,29.45,
D07,2022-05-13 07:56,-102.0200,45.0300,48.00,43.00,260.00,28.00,44.00,,29.62,
FSD,2022-05-13 07:56,-96.7536,43.5769,63.00,46.00,210.00,7.00,,10.00,29.78,
8D3,2022-05-13 07:56,-96.9914,45.6689,61.00,48.00,220.00,17.00,26.00,,29.61,
YKN,2022-05-13 07:56,-97.3859,42.9167,63.00,45.00,220.00,7.00,,10.00,29.81,
GPZ,2022-05-13 07:56,-93.5097,47.2111,59.00,58.00,140.00,12.00,17.00,10.00,29.72,
OFK,2022-05-13 07:56,-97.4351,41.9855,64.00,42.00,230.00,9.00,,10.00,29.85,
DIK,2022-05-13 07:56,-102.8019,46.7973,46.00,44.00,280.00,29.00,39.00,10.00,29.31,
JMS,2022-05-13 07:56,-98.6800,46.9300,54.00,49.00,190.00,19.00,30.00,10.00,29.45,
RCA,2022-05-13 07:56,-103.1036,44.1451,49.80,37.00,290.00,15.00,23.00,10.00,29.74,
FOD,2022-05-13 07:56,-94.2032,42.5497,62.00,56.00,150.00,3.00,,10.00,29.89,
MML,2022-05-13 07:56,-95.8200,44.4500,62.00,53.00,210.00,9.00,,10.00,29.76,
RYM,2022-05-13 07:56,-94.3575,46.0895,62.00,60.00,160.00,8.00,,10.00,29.69,
2WX,2022-05-13 07:56,-103.5464,45.6044,47.00,42.00,280.00,40.00,53.00,,29.53,
CWI,2022-05-13 07:56,-90.3328,41.8295,74.00,66.00,160.00,10.00,,10.00,29.91,
1HW,2022-05-13 07:58,-102.8289,41.3251,41.20,31.50,250.00,9.00,,10.00,29.94,
1CW,2022-05-13 07:58,-103.6706,41.5900,48.40,19.00,260.00,18.00,,10.00,29.95,
1BW,2022-05-13 07:58,-103.9950,41.5117,44.80,18.10,280.00,20.00,,10.00,29.98,
PNM,2022-05-13 08:15,-93.6082,45.5599,62.60,60.80,120.00,8.00,,10.00,29.76,
FSE,2022-05-13 08:15,-95.7735,47.5928,62.60,57.20,190.00,21.00,26.00,10.00,29.58,
SYN,2022-05-13 08:15,-93.0145,44.4736,70.00,58.50,0.00,0.00,,10.00,29.81,
ORB,2022-05-13 08:33,-92.8560,48.0159,55.40,55.40,140.00,7.00,,10.00,29.67,
EVM,2022-05-13 08:35,-92.4981,47.4251,55.40,55.40,140.00,4.00,,10.00,29.75,
JYG,2022-05-13 08:36,-94.5579,43.9863,62.60,53.60,120.00,8.00,,10.00,29.78,-RA
XWA,2022-05-13 08:51,-103.7505,48.2597,46.00,45.00,330.00,22.00,31.00,2.50,29.40,VCTS RA BR
IOW,2022-05-13 08:52,-91.5445,41.6394,73.00,64.00,260.00,9.00,,10.00,29.94,
MBG,2022-05-13 08:52,-100.4078,45.5464,53.00,43.00,240.00,20.00,33.00,10.00,29.54,
RAP,2022-05-13 08:52,-103.0574,44.0453,50.00,36.00,280.00,21.00,33.00,10.00,29.75,
N60,2022-05-13 08:52,-101.4394,47.6458,52.00,49.00,120.00,13.00,,,29.16,
DVN,2022-05-13 08:52,-90.5948,41.6133,75.00,60.00,160.00,13.00,,10.00,29.91,
OMA,2022-05-13 08:52,-95.8992,41.3103,65.00,56.00,90.00,11.00,,10.00,29.83,-RA
VTN,2022-05-13 08:52,-100.5489,42.8567,51.00,38.00,250.00,13.00,,10.00,29.84,
EST,2022-05-13 08:52,-94.7476,43.4008,65.00,53.00,230.00,8.00,,10.00,29.80,
BIS,2022-05-13 08:52,-100.7458,46.7727,53.00,47.00,220.00,19.00,31.00,10.00,29.30,
CID,2022-05-13 08:52,-91.7246,41.8829,71.00,57.00,290.00,15.00,25.00,10.00,29.93,
SUX,2022-05-13 08:52,-96.3795,42.3917,58.00,52.00,170.00,5.00,,10.00,29.85,
IEN,2022-05-13 08:52,-102.5110,43.0225,40.00,37.00,210.00,5.00,,10.00,29.88,
DBQ,2022-05-13 08:53,-90.7091,42.3984,71.00,66.00,190.00,9.00,,7.00,29.90,
IML,2022-05-13 08:53,-101.6201,40.5103,46.00,36.00,220.00,4.00,,10.00,30.02,
SNY,2022-05-13 08:53,-102.9847,41.1014,47.00,21.90,270.00,9.00,,10.00,29.99,
CDR,2022-05-13 08:53,-103.0954,42.8376,46.00,37.00,250.00,8.00,,10.00,29.89,
MCK,2022-05-13 08:53,-100.5921,40.2063,50.00,34.00,350.00,6.00,,10.00,29.99,
BDE,2022-05-13 08:53,-94.6122,48.7284,57.00,54.00,130.00,12.00,,10.00,29.62,
HIB,2022-05-13 08:53,-92.8390,47.3866,55.00,54.00,150.00,8.00,,10.00,29.74,
MSP,2022-05-13 08:53,-93.2313,44.8854,69.00,59.00,220.00,9.00,,10.00,29.83,
FCM,2022-05-13 08:53,-93.4607,44.8261,68.00,59.00,220.00,9.00,19.00,10.00,29.80,
RWF,2022-05-13 08:53,-95.0820,44.5469,63.00,55.00,200.00,10.00,,10.00,29.78,
STC,2022-05-13 08:53,-94.0513,45.5433,64.00,61.00,170.00,11.00,,10.00,29.77,
FNB,2022-05-13 08:53,-95.5920,40.0788,62.00,59.00,120.00,12.00,,10.00,29.88,-RA
MIC,2022-05-13 08:53,-93.3511,45.0622,67.00,63.00,200.00,10.00,,10.00,29.79,
OWA,2022-05-13 08:53,-93.2606,44.1233,66.20,57.20,230.00,8.00,,10.00,29.86,
BFF,2022-05-13 08:53,-103.5956,41.8740,49.00,25.00,290.00,10.00,,10.00,29.95,
AQP,2022-05-13 08:53,-96.0043,45.2275,62.60,51.80,190.00,10.00,,10.00,29.73,
FOZ,2022-05-13 08:53,-93.6502,47.7828,60.80,57.20,150.00,11.00,16.00,10.00,29.76,
XVG,2022-05-13 08:53,-94.2039,46.9900,59.00,57.20,140.00,8.00,,10.00,29.69,
AMW,2022-05-13 08:53,-93.6185,41.9904,61.00,54.00,210.00,5.00,,10.00,29.93,
LWD,2022-05-13 08:53,-93.9005,40.6306,64.00,52.00,40.00,5.00,,10.00,29.96,
OTM,2022-05-13 08:53,-92.4446,41.1008,70.00,55.00,310.00,14.00,24.00,10.00,29.96,
LBF,2022-05-13 08:53,-100.6690,41.1219,45.00,37.00,0.00,0.00,,10.00,29.97,
AIA,2022-05-13 08:53,-102.8000,42.0572,34.00,30.00,210.00,6.00,,10.00,29.93,
GRI,2022-05-13 08:53,-98.3096,40.9675,55.00,48.00,270.00,5.00,,10.00,29.94,
ORB,2022-05-13 08:53,-92.8560,48.0159,55.40,55.40,140.00,6.00,,10.00,29.68,
DVP,2022-05-13 08:53,-95.7826,43.9868,56.80,52.00,200.00,10.00,,10.00,29.83,
FAR,2022-05-13 08:53,-96.8111,46.9253,57.00,52.00,180.00,16.00,24.00,10.00,29.56,
GFK,2022-05-13 08:53,-97.1761,47.9492,60.00,54.00,190.00,17.00,,10.00,29.46,
ABR,2022-05-13 08:53,-98.4200,45.4500,52.00,45.00,210.00,19.00,26.00,10.00,29.65,
BBW,2022-05-13 08:53,-99.6385,41.4365,51.00,37.00,250.00,6.00,,10.00,29.95,
MCW,2022-05-13 08:53,-93.3261,43.1544,63.00,49.00,270.00,6.00,,10.00,29.89,
HEI,2022-05-13 08:53,-102.6560,46.0149,45.00,40.00,270.00,36.00,49.00,10.00,29.49,
AXN,2022-05-13 08:53,-95.3947,45.8663,61.00,58.00,190.00,9.00,,10.00,,
BRD,2022-05-13 08:53,-94.1308,46.4047,63.00,58.00,160.00,7.00,,10.00,,
PKD,2022-05-13 08:53,-95.0700,46.9000,63.00,58.00,170.00,15.00,,10.00,29.66,
HSI,2022-05-13 08:53,-98.4279,40.6052,54.00,49.00,0.00,0.00,,10.00,29.95,
MIW,2022-05-13 08:53,-92.9163,42.1106,63.00,53.00,290.00,6.00,,10.00,29.93,
CUT,2022-05-13 08:53,-103.6114,43.7331,39.00,33.00,280.00,21.00,39.00,10.00,29.79,
MHE,2022-05-13 08:53,-98.0386,43.7748,57.00,44.00,250.00,12.00,22.00,10.00,29.81,
PIR,2022-05-13 08:53,-100.2860,44.3827,52.00,40.00,250.00,16.00,24.00,10.00,29.70,
ATY,2022-05-13 08:53,-97.1547,44.9140,55.00,47.00,230.00,15.00,,10.00,29.73,
ICR,2022-05-13 08:53,-99.8422,43.3903,50.00,40.00,240.00,7.00,,10.00,29.77,
ODX,2022-05-13 08:53,-98.9517,41.6236,49.00,40.00,250.00,4.00,,10.00,29.92,
STP,2022-05-13 08:53,-93.0600,44.9345,69.00,60.00,210.00,7.00,,10.00,29.82,
BRL,2022-05-13 08:53,-91.1255,40.7729,74.00,66.00,170.00,7.00,,10.00,29.90,
SPW,2022-05-13 08:53,-95.2101,43.1682,62.00,54.00,230.00,9.00,,10.00,29.85,
LNK,2022-05-13 08:54,-96.7633,40.8312,62.00,57.00,0.00,0.00,,10.00,29.91,
TQE,2022-05-13 08:54,-96.1779,41.7635,62.00,57.00,180.00,5.00,,10.00,29.86,
MOT,2022-05-13 08:54,-101.2803,48.2594,54.00,52.00,110.00,16.00,29.00,10.00,29.19,
RST,2022-05-13 08:54,-92.4916,43.9041,69.00,55.00,260.00,12.00,,10.00,29.87,
INL,2022-05-13 08:54,-93.3956,48.5595,55.00,53.00,90.00,5.00,,10.00,29.66,
DSM,2022-05-13 08:54,-93.6531,41.5339,65.00,53.00,210.00,3.00,,10.00,29.94,
ALO,2022-05-13 08:54,-92.4013,42.5544,71.00,51.00,290.00,10.00,,10.00,29.91,
S32,2022-05-13 08:55,-98.1059,47.4228,55.40,55.40,190.00,22.00,28.00,10.00,29.45,
OXV,2022-05-13 08:55,-93.1114,41.2984,64.40,51.80,270.00,6.00,,10.00,29.97,
VTI,2022-05-13 08:55,-92.0248,42.2176,72.50,55.60,280.00,9.00,,10.00,29.94,
CCY,2022-05-13 08:55,-92.6132,43.0730,68.00,55.40,270.00,10.00,17.00,10.00,29.91,
CNC,2022-05-13 08:55,-93.3608,41.0184,64.40,55.40,330.00,3.00,,10.00,29.96,
CSQ,2022-05-13 08:55,-94.3608,41.0188,62.60,62.60,0.00,0.00,,10.00,29.95,
FSW,2022-05-13 08:55,-91.3267,40.6615,73.40,69.80,170.00,7.00,,10.00,29.90,
AWG,2022-05-13 08:55,-91.6748,41.2751,73.40,66.20,290.00,15.00,21.00,10.00,29.93,
ACQ,2022-05-13 08:55,-93.5529,44.0735,64.40,55.40,220.00,9.00,,,29.86,
EOK,2022-05-13 08:55,-91.4274,40.4615,73.40,71.60,170.00,5.00,,9.00,29.91,
MPZ,2022-05-13 08:55,-91.5122,40.9453,73.40,69.80,260.00,12.00,15.00,7.00,29.93,
AEL,2022-05-13 08:55,-93.3672,43.6815,66.20,51.80,240.00,5.00,,10.00,29.88,
PNM,2022-05-13 08:55,-93.6082,45.5599,64.40,62.60,140.00,8.00,,10.00,29.78,-RA
HZE,2022-05-13 08:55,-101.5810,47.2899,51.80,51.80,0.00,0.00,,3.00,29.17,-DZ
D55,2022-05-13 08:55,-98.3937,48.7531,57.20,57.20,120.00,18.00,28.00,2.00,29.40,BR
7L2,2022-05-13 08:55,-100.2456,46.2206,50.00,46.40,230.00,28.00,37.00,10.00,29.46,
06D,2022-05-13 08:55,-99.6208,48.8844,53.60,53.60,100.00,16.00,23.00,1.50,29.34,BR
D60,2022-05-13 08:55,-102.8974,48.3803,50.00,50.00,40.00,11.00,19.00,5.00,29.29,VCTS RA
IBM,2022-05-13 08:55,-103.6774,41.1881,43.30,20.70,280.00,14.00,,10.00,29.98,
AIT,2022-05-13 08:55,-93.6768,46.5484,57.20,57.20,130.00,8.00,,10.00,29.72,
GHW,2022-05-13 08:55,-95.3204,45.6439,60.80,57.20,180.00,11.00,,10.00,29.73,
ULM,2022-05-13 08:55,-94.5000,44.3200,62.60,53.60,110.00,14.00,18.00,10.00,29.71,+RA
OGA,2022-05-13 08:55,-101.7697,41.1195,45.00,36.50,330.00,15.00,,10.00,29.94,
AUM,2022-05-13 08:55,-92.9333,43.6647,69.80,55.40,240.00,9.00,15.00,10.00,29.89,
HCO,2022-05-13 08:55,-96.9430,48.7527,60.80,57.20,110.00,15.00,21.00,10.00,29.46,
MJQ,2022-05-13 08:55,-94.9865,43.6500,62.60,53.60,250.00,11.00,18.00,10.00,29.84,
LVN,2022-05-13 08:55,-93.2273,44.6252,68.00,55.40,240.00,5.00,,10.00,29.82,
JMR,2022-05-13 08:55,-93.2718,45.8861,59.00,59.00,130.00,7.00,,10.00,29.79,
PQN,2022-05-13 08:55,-96.3004,43.9821,57.20,51.80,200.00,9.00,,10.00,29.82,
RGK,2022-05-13 08:55,-92.4868,44.5915,73.40,55.40,250.00,6.00,,10.00,29.82,
ROX,2022-05-13 08:55,-95.6971,48.8560,57.20,55.40,110.00,10.00,,10.00,29.55,
ONA,2022-05-13 08:55,-91.7083,44.0772,78.80,64.40,240.00,7.00,14.00,10.00,29.85,
FET,2022-05-13 08:55,-96.5200,41.4500,63.00,57.40,180.00,3.00,,10.00,29.89,
HJH,2022-05-13 08:55,-97.5870,40.1523,63.30,43.20,350.00,3.00,,10.00,29.92,
HDE,2022-05-13 08:55,-99.3365,40.4521,53.80,40.60,330.00,8.00,,10.00,29.96,
JYR,2022-05-13 08:55,-97.6228,40.8967,59.00,50.00,250.00,3.00,,10.00,29.92,
BJI,2022-05-13 08:55,-94.9337,47.5094,61.20,59.20,160.00,14.00,17.00,10.00,29.63,
BBB,2022-05-13 08:55,-95.6506,45.3319,60.80,55.40,220.00,11.00,,10.00,29.74,
COQ,2022-05-13 08:55,-92.5036,46.7011,48.20,48.20,90.00,12.00,21.00,10.00,29.78,
DYT,2022-05-13 08:55,-92.0434,46.7219,41.00,39.20,20.00,13.00,,10.00,29.83,
ELO,2022-05-13 08:55,-91.8371,47.8287,55.40,55.40,130.00,6.00,,10.00,29.75,
FGN,2022-05-13 08:55,-94.9028,49.3183,51.80,48.20,100.00,12.00,22.00,10.00,29.59,
FSE,2022-05-13 08:55,-95.7735,47.5928,60.80,55.40,180.00,21.00,25.00,10.00,29.59,
HCD,2022-05-13 08:55,-94.3825,44.8599,64.80,61.00,160.00,9.00,,10.00,29.83,
DXX,2022-05-13 08:55,-96.1779,44.9864,60.80,53.60,190.00,11.00,,10.00,29.75,
ANE,2022-05-13 08:55,-93.2102,45.1449,68.00,64.40,170.00,8.00,,10.00,29.78,-DZ
MZH,2022-05-13 08:55,-92.8048,46.4186,53.60,51.80,80.00,4.00,,10.00,29.77,
BDH,2022-05-13 08:55,-95.1304,45.1177,64.40,57.20,180.00,3.00,,10.00,29.80,
MLE,2022-05-13 08:55,-96.1120,41.1960,64.00,56.70,250.00,3.00,,10.00,29.91,
CFE,2022-05-13 08:55,-93.8433,45.1590,66.20,60.80,210.00,12.00,,10.00,29.78,
TOB,2022-05-13 08:55,-92.8315,44.0180,66.20,55.40,230.00,10.00,,10.00,29.87,
Y63,2022-05-13 08:55,-95.9920,45.9861,58.00,53.60,190.00,13.00,,10.00,29.69,
GDB,2022-05-13 08:55,-95.5560,44.7533,61.00,55.40,190.00,10.00,,10.00,29.79,
14Y,2022-05-13 08:55,-94.8739,45.8983,60.80,59.00,160.00,10.00,,10.00,29.71,
LYV,2022-05-13 08:55,-96.2158,43.6212,55.40,50.00,180.00,7.00,,10.00,29.84,
HZX,2022-05-13 08:55,-93.3098,46.6188,53.60,53.60,110.00,8.00,,10.00,29.75,
OVL,2022-05-13 08:55,-95.0328,44.7786,60.80,55.40,210.00,11.00,,10.00,29.79,
VVV,2022-05-13 08:55,-96.4244,45.3057,59.00,51.80,200.00,6.00,,10.00,29.71,
PEX,2022-05-13 08:55,-94.7466,45.3723,62.60,59.00,120.00,9.00,,10.00,29.73,
PWC,2022-05-13 08:55,-94.3817,46.7248,60.80,57.20,150.00,7.00,,10.00,29.74,
FKA,2022-05-13 08:55,-92.1797,43.6767,69.80,54.70,270.00,10.00,,7.00,29.89,
9MN,2022-05-13 08:55,-92.4831,44.0198,71.60,53.60,250.00,11.00,19.00,10.00,29.87,
ROS,2022-05-13 08:55,-92.9530,45.6980,60.30,59.00,150.00,6.00,,10.00,29.79,
SYN,2022-05-13 08:55,-93.0145,44.4736,69.00,57.60,0.00,0.00,,10.00,29.82,
SAZ,2022-05-13 08:55,-94.8066,46.3809,64.40,60.80,160.00,11.00,19.00,10.00,29.68,
21D,2022-05-13 08:55,-92.8557,44.9975,68.00,59.00,210.00,9.00,,10.00,29.83,
TKC,2022-05-13 08:55,-95.6072,44.2491,61.70,50.20,190.00,8.00,,10.00,29.81,
RRT,2022-05-13 08:55,-95.3483,48.9414,51.80,46.40,110.00,14.00,,10.00,29.58,
MWM,2022-05-13 08:55,-95.1094,43.9134,62.60,50.00,200.00,9.00,,10.00,29.82,
Y19,2022-05-13 08:55,-100.8944,46.7680,50.00,50.00,220.00,22.00,31.00,10.00,29.28,
2D5,2022-05-13 08:55,-98.0799,46.1731,51.80,50.00,210.00,24.00,32.00,10.00,29.58,
RUG,2022-05-13 08:55,-100.0243,48.3904,55.40,55.40,150.00,15.00,21.00,10.00,29.29,
08D,2022-05-13 08:55,-102.4064,48.3008,50.00,50.00,50.00,17.00,24.00,5.00,29.22,-TSRA
S25,2022-05-13 08:55,-103.2552,47.7966,46.40,46.40,310.00,19.00,28.00,5.00,29.31,RA
ICL,2022-05-13 08:55,-95.0223,40.7242,62.60,59.00,,3.00,,10.00,29.94,
CBF,2022-05-13 08:55,-95.7604,41.2611,62.60,55.40,90.00,10.00,,10.00,29.85,
IKV,2022-05-13 08:55,-93.5695,41.6878,64.40,53.60,0.00,0.00,,10.00,29.95,
AIO,2022-05-13 08:55,-95.0465,41.4059,62.60,62.60,140.00,7.00,13.00,10.00,29.89,
CKP,2022-05-13 08:55,-95.5538,42.7304,58.60,54.70,200.00,5.00,,10.00,29.87,
DEH,2022-05-13 08:55,-91.7433,43.2755,75.20,62.60,250.00,9.00,18.00,10.00,29.88,
FXY,2022-05-13 08:55,-93.6237,43.2323,60.80,51.80,0.00,0.00,,10.00,29.87,
OLZ,2022-05-13 08:55,-91.9760,42.6831,71.60,55.40,280.00,14.00,20.00,10.00,29.93,
OOA,2022-05-13 08:55,-92.4919,41.2273,70.50,55.20,310.00,13.00,18.00,10.00,29.97,
RDK,2022-05-13 08:55,-95.2624,41.0106,62.60,59.00,170.00,6.00,,10.00,29.92,
SHL,2022-05-13 08:55,-95.8353,43.2082,60.80,51.80,200.00,10.00,,10.00,29.82,
SDA,2022-05-13 08:55,-95.4112,40.7533,62.60,59.00,130.00,11.00,,10.00,29.92,
SLB,2022-05-13 08:55,-95.2399,42.5972,60.80,55.40,210.00,7.00,,10.00,29.89,
AXA,2022-05-13 08:55,-94.2724,43.0796,62.60,60.80,130.00,8.00,,10.00,29.80,
ADU,2022-05-13 08:55,-94.9204,41.6994,62.60,57.20,140.00,11.00,17.00,10.00,29.86,-RA
CIN,2022-05-13 08:55,-94.7889,42.0444,64.40,57.20,200.00,13.00,,10.00,29.86,
HNR,2022-05-13 08:55,-95.3355,41.5834,62.60,59.00,0.00,0.00,,10.00,29.89,
LRJ,2022-05-13 08:55,-96.1923,42.7754,60.80,53.60,170.00,10.00,,10.00,29.84,
MUT,2022-05-13 08:55,-91.1406,41.3670,73.40,69.80,180.00,5.00,,9.00,29.90,
I75,2022-05-13 08:55,-93.6876,41.0472,64.00,54.70,0.00,0.00,,10.00,29.95,
IFA,2022-05-13 08:55,-93.2651,42.4691,64.20,53.60,270.00,7.00,,10.00,29.93,
MXO,2022-05-13 08:55,-91.1605,42.2204,73.40,71.60,230.00,9.00,,9.00,29.92,
EBS,2022-05-13 08:55,-93.8691,42.4392,60.80,55.40,180.00,8.00,,10.00,29.88,
BNW,2022-05-13 08:55,-93.8486,42.0486,62.60,57.20,140.00,6.00,,10.00,29.93,
CAV,2022-05-13 08:55,-93.7593,42.7430,60.80,59.00,160.00,7.00,,10.00,29.90,
DNS,2022-05-13 08:55,-95.3800,41.9842,62.60,60.80,0.00,0.00,,10.00,29.91,
FFL,2022-05-13 08:55,-91.9834,41.0521,71.60,55.40,310.00,16.00,24.00,10.00,29.96,
TNU,2022-05-13 08:55,-93.0190,41.6701,66.20,53.60,260.00,4.00,,10.00,29.95,
EVM,2022-05-13 08:55,-92.4981,47.4251,55.40,55.40,140.00,4.00,,10.00,29.76,
5H4,2022-05-13 08:55,-99.9317,47.7912,51.80,51.80,150.00,15.00,25.00,10.00,29.30,
96D,2022-05-13 08:55,-97.9028,48.9406,57.20,57.20,120.00,15.00,,5.00,29.41,BR
ANW,2022-05-13 08:55,-99.9930,42.5792,49.50,38.30,250.00,7.00,,10.00,29.88,
AHQ,2022-05-13 08:55,-96.5946,41.2406,60.30,60.30,180.00,5.00,,10.00,29.91,
AUH,2022-05-13 08:55,-97.9946,40.8941,56.80,46.00,300.00,7.00,,10.00,29.93,
PMV,2022-05-13 08:55,-95.9179,40.9502,62.40,56.30,160.00,4.00,,10.00,29.91,
CKN,2022-05-13 08:55,-96.6214,47.8417,59.00,,190.00,19.00,,10.00,29.53,
FBL,2022-05-13 08:55,-93.3108,44.3247,68.00,57.20,210.00,5.00,,10.00,29.84,
FFM,2022-05-13 08:55,-96.1567,46.2844,59.00,55.40,190.00,15.00,,10.00,29.63,
04W,2022-05-13 08:55,-92.8952,46.0229,60.80,60.80,110.00,11.00,,10.00,29.78,
LXL,2022-05-13 08:55,-94.3469,45.9492,62.60,60.80,160.00,11.00,,10.00,29.74,
JKJ,2022-05-13 08:55,-96.6640,46.8393,59.00,53.60,180.00,13.00,,10.00,29.59,
VWU,2022-05-13 08:55,-94.5167,48.1539,60.80,57.20,130.00,7.00,,10.00,29.64,
3N8,2022-05-13 08:55,-95.9281,47.2605,60.00,56.80,190.00,13.00,,10.00,29.60,
GRN,2022-05-13 08:55,-102.1753,42.8060,42.30,37.60,250.00,8.00,,10.00,29.88,
HPT,2022-05-13 08:55,-93.2244,42.7175,62.60,50.00,270.00,7.00,,10.00,29.90,
SXK,2022-05-13 08:55,-96.1614,42.9858,59.00,51.80,180.00,11.00,,10.00,29.83,
TVK,2022-05-13 08:55,-92.8983,40.6832,66.20,53.60,310.00,9.00,,10.00,30.00,
20U,2022-05-13 08:55,-103.9821,46.9252,44.60,44.60,290.00,33.00,40.00,5.00,29.49,-DZ
BWW,2022-05-13 08:55,-103.3007,46.1655,42.80,42.80,280.00,43.00,51.00,10.00,29.48,
9D7,2022-05-13 08:55,-99.2364,48.4800,55.40,,160.00,20.00,26.00,8.00,29.35,
46D,2022-05-13 08:55,-99.1513,47.4511,53.60,50.00,190.00,24.00,31.00,10.00,29.38,
2C8,2022-05-13 08:55,-97.6320,48.7837,57.20,57.20,120.00,11.00,17.00,10.00,29.43,
D50,2022-05-13 08:55,-103.2973,48.9285,46.40,46.40,360.00,17.00,23.00,1.00,29.36,VCTS BR
D57,2022-05-13 08:55,-101.8602,46.8128,48.20,46.40,270.00,30.00,40.00,4.00,29.24,-RA
GAF,2022-05-13 08:55,-97.3709,48.4047,59.00,59.00,140.00,14.00,,10.00,29.45,
GWR,2022-05-13 08:55,-97.6435,46.2187,55.40,55.40,210.00,25.00,34.00,10.00,29.59,
BAC,2022-05-13 08:55,-98.0180,46.9412,53.60,53.60,200.00,24.00,32.00,10.00,29.50,
BWP,2022-05-13 08:55,-96.6074,46.2441,59.00,51.80,210.00,16.00,21.00,10.00,29.62,
BTN,2022-05-13 08:55,-97.7428,45.8150,55.40,50.00,200.00,19.00,26.00,10.00,29.63,
HON,2022-05-13 08:55,-98.2286,44.3852,54.00,45.00,240.00,12.00,20.00,10.00,,
SPF,2022-05-13 08:55,-103.7830,44.4803,46.40,37.40,270.00,22.00,34.00,10.00,29.78,
BVN,2022-05-13 08:55,-98.0558,41.7286,56.80,43.20,300.00,11.00,,10.00,29.92,
BIE,2022-05-13 08:55,-96.7541,40.3013,62.00,58.30,140.00,3.00,,10.00,29.92,
BTA,2022-05-13 08:55,-96.1090,41.4148,61.20,55.60,0.00,0.00,,10.00,29.88,
CQM,2022-05-13 08:55,-92.6894,47.8219,57.20,55.40,140.00,6.00,,10.00,29.72,
DTL,2022-05-13 08:55,-95.8856,46.8252,60.80,55.40,170.00,12.00,19.00,10.00,29.63,
SGS,2022-05-13 08:55,-93.0329,44.8571,70.20,58.00,220.00,8.00,,10.00,29.82,
AFK,2022-05-13 08:55,-95.8657,40.6069,62.40,56.00,120.00,5.00,18.00,10.00,29.90,-DZ
ONL,2022-05-13 08:55,-98.6881,42.4697,55.00,40.00,250.00,13.00,18.00,10.00,29.89,
LCG,2022-05-13 08:55,-96.9814,42.2419,59.40,49.00,240.00,7.00,,10.00,29.86,
GYL,2022-05-13 08:55,-94.0812,44.7560,64.20,58.00,180.00,10.00,,10.00,29.82,
D39,2022-05-13 08:55,-94.9334,45.7066,61.70,60.00,140.00,9.00,15.00,10.00,29.70,
9V9,2022-05-13 08:55,-99.3183,43.7667,50.40,42.00,230.00,6.00,,10.00,29.79,
LXN,2022-05-13 08:55,-99.7759,40.7904,46.00,40.00,280.00,5.00,,10.00,29.99,
TIF,2022-05-13 08:55,-100.5690,41.9622,47.70,38.00,250.00,10.00,,10.00,29.93,
DLH,2022-05-13 08:55,-92.1936,46.8421,49.00,49.00,90.00,20.00,29.00,10.00,29.80,
Y49,2022-05-13 08:55,-94.6453,47.1595,60.00,58.00,140.00,9.00,15.00,10.00,29.66,
PHP,2022-05-13 08:55,-101.6000,44.0500,49.00,40.00,250.00,13.00,,10.00,29.73,
GGI,2022-05-13 08:55,-92.7332,41.7097,69.00,55.20,300.00,7.00,,10.00,29.97,
PEA,2022-05-13 08:55,-92.9431,41.3989,67.00,52.00,300.00,3.00,,10.00,29.97,
TVF,2022-05-13 08:56,-96.1850,48.0657,59.00,57.00,160.00,10.00,18.00,10.00,29.55,
OTG,2022-05-13 08:56,-95.5792,43.6551,62.00,52.00,210.00,11.00,,10.00,29.84,
GPZ,2022-05-13 08:56,-93.5097,47.2111,57.00,57.00,130.00,6.00,,10.00,29.72,
MKT,2022-05-13 08:56,-93.9200,44.2200,64.00,55.00,160.00,6.00,,10.00,29.84,
EAR,2022-05-13 08:56,-99.0068,40.7270,53.00,43.00,300.00,7.00,,10.00,29.97,
JMS,2022-05-13 08:56,-98.6800,46.9300,52.00,46.00,200.00,23.00,33.00,10.00,29.44,
CWI,2022-05-13 08:56,-90.3328,41.8295,72.00,61.00,160.00,10.00,,10.00,29.92,
FOD,2022-05-13 08:56,-94.2032,42.5497,62.00,55.00,130.00,6.00,,10.00,29.86,
DVL,2022-05-13 08:56,-98.9083,48.1146,54.00,50.00,170.00,14.00,,10.00,29.37,
DIK,2022-05-13 08:56,-102.8019,46.7973,45.00,43.00,280.00,32.00,49.00,10.00,29.32,-RA
RDR,2022-05-13 08:56,-97.4012,47.9611,58.50,54.30,180.00,16.00,,10.00,29.46,
OFK,2022-05-13 08:56,-97.4351,41.9855,63.00,41.00,270.00,12.00,,10.00,29.88,
MIB,2022-05-13 08:56,-101.3580,48.4158,54.30,46.00,130.00,22.00,29.00,4.00,29.19,-RA
FRM,2022-05-13 08:56,-94.4156,43.6439,63.00,56.00,170.00,10.00,,10.00,29.80,-RA
GNA,2022-05-13 08:56,-90.3457,47.7453,46.00,44.00,80.00,10.00,,,29.83,
MML,2022-05-13 08:56,-95.8200,44.4500,59.00,51.00,170.00,9.00,,10.00,29.79,
OFF,2022-05-13 08:56,-95.9125,41.1183,63.50,56.00,60.00,3.00,,10.00,29.90,-SHRA
2WX,2022-05-13 08:56,-103.5464,45.6044,46.00,40.00,280.00,39.00,47.00,,29.57,
RCA,2022-05-13 08:56,-103.1036,44.1451,49.60,35.00,310.00,21.00,28.00,10.00,29.72,
D07,2022-05-13 08:56,-102.0200,45.0300,48.00,42.00,260.00,27.00,44.00,,29.63,
FSD,2022-05-13 08:56,-96.7536,43.5769,61.00,47.00,200.00,9.00,,10.00,29.81,
8D3,2022-05-13 08:56,-96.9914,45.6689,59.00,47.00,220.00,21.00,32.00,,29.65,
OLU,2022-05-13 08:56,-97.3426,41.4480,65.00,40.00,280.00,13.00,,10.00,29.90,
RYM,2022-05-13 08:56,-94.3575,46.0895,63.00,60.00,160.00,12.00,,10.00,29.72,
YKN,2022-05-13 08:56,-97.3859,42.9167,62.00,44.00,240.00,12.00,,10.00,29.85,
1HW,2022-05-13 08:58,-102.8289,41.3251,39.60,27.10,240.00,10.00,,10.00,29.96,
1CW,2022-05-13 08:58,-103.6706,41.5900,46.40,19.60,270.00,12.00,,10.00,29.96,
1BW,2022-05-13 08:58,-103.9950,41.5117,44.00,18.10,290.00,19.00,,10.00,29.98,
PNM,2022-05-13 09:15,-93.6082,45.5599,64.40,62.60,160.00,9.00,,10.00,29.80,
FSE,2022-05-13 09:15,-95.7735,47.5928,60.80,53.60,180.00,17.00,,10.00,29.59,
SYN,2022-05-13 09:15,-93.0145,44.4736,67.50,57.60,0.00,0.00,,10.00,29.83,
ORB,2022-05-13 09:33,-92.8560,48.0159,57.20,55.40,150.00,8.00,,10.00,29.70,
EVM,2022-05-13 09:35,-92.4981,47.4251,55.40,55.40,130.00,10.00,15.00,10.00,29.77,
XWA,2022-05-13 09:51,-103.7505,48.2597,45.00,44.00,340.00,27.00,36.00,4.00,29.35,RA BR
N60,2022-05-13 09:52,-101.4394,47.6458,50.00,48.00,150.00,3.00,,,29.13,
VTN,2022-05-13 09:52,-100.5489,42.8567,50.00,39.00,240.00,12.00,23.00,10.00,29.87,
CID,2022-05-13 09:52,-91.7246,41.8829,67.00,54.00,310.00,12.00,,10.00,29.94,
BIS,2022-05-13 09:52,-100.7458,46.7727,52.00,46.00,220.00,21.00,35.00,10.00,29.32,
MBG,2022-05-13 09:52,-100.4078,45.5464,54.00,43.00,250.00,19.00,32.00,10.00,29.56,
IOW,2022-05-13 09:52,-91.5445,41.6394,73.00,51.00,310.00,12.00,19.00,10.00,29.95,
OMA,2022-05-13 09:52,-95.8992,41.3103,64.00,56.00,170.00,3.00,,10.00,29.90,
EST,2022-05-13 09:52,-94.7476,43.4008,64.00,51.00,230.00,13.00,,10.00,29.82,
SUX,2022-05-13 09:52,-96.3795,42.3917,59.00,53.00,150.00,9.00,,10.00,29.89,
DVN,2022-05-13 09:52,-90.5948,41.6133,75.00,56.00,200.00,12.00,,10.00,29.94,
RAP,2022-05-13 09:52,-103.0574,44.0453,50.00,35.00,260.00,17.00,25.00,10.00,29.78,
IEN,2022-05-13 09:52,-102.5110,43.0225,42.00,38.00,240.00,9.00,,10.00,29.89,
STC,2022-05-13 09:53,-94.0513,45.5433,64.00,60.00,150.00,9.00,,10.00,29.72,
CDD,2022-05-13 09:53,-92.4830,48.2660,51.80,51.80,0.00,0.00,,2.00,29.74,BR
IML,2022-05-13 09:53,-101.6201,40.5103,47.00,36.00,180.00,3.00,,10.00,30.03,
MCW,2022-05-13 09:53,-93.3261,43.1544,60.00,50.00,130.00,8.00,,10.00,29.86,
AXN,2022-05-13 09:53,-95.3947,45.8663,60.00,54.00,200.00,14.00,23.00,10.00,,
BRD,2022-05-13 09:53,-94.1308,46.4047,65.00,59.00,160.00,14.00,28.00,10.00,,
HSI,2022-05-13 09:53,-98.4279,40.6052,51.00,46.00,300.00,7.00,,10.00,29.96,
OWA,2022-05-13 09:53,-93.2606,44.1233,64.40,57.20,110.00,4.00,,10.00,29.82,
STP,2022-05-13 09:53,-93.0600,44.9345,69.00,57.00,200.00,8.00,,10.00,29.82,
AQP,2022-05-13 09:53,-96.0043,45.2275,60.80,51.80,200.00,10.00,14.00,10.00,29.75,
FOZ,2022-05-13 09:53,-93.6502,47.7828,60.80,57.20,150.00,8.00,14.00,10.00,29.75,
XVG,2022-05-13 09:53,-94.2039,46.9900,59.00,57.20,140.00,9.00,,10.00,29.68,
AMW,2022-05-13 09:53,-93.6185,41.9904,60.00,55.00,150.00,6.00,,10.00,29.91,
BRL,2022-05-13 09:53,-91.1255,40.7729,73.00,66.00,260.00,7.00,,9.00,29.95,
LWD,2022-05-13 09:53,-93.9005,40.6306,62.00,54.00,60.00,4.00,,10.00,29.95,
MIW,2022-05-13 09:53,-92.9163,42.1106,60.00,52.00,130.00,4.00,,10.00,29.92,
OTM,2022-05-13 09:53,-92.4446,41.1008,65.00,54.00,330.00,8.00,,10.00,29.95,
SPW,2022-05-13 09:53,-95.2101,43.1682,61.00,52.00,210.00,10.00,,10.00,29.84,
LBF,2022-05-13 09:53,-100.6690,41.1219,46.00,37.00,210.00,6.00,,10.00,29.99,
AIA,2022-05-13 09:53,-102.8000,42.0572,36.00,30.00,250.00,5.00,,10.00,29.95,
ORB,2022-05-13 09:53,-92.8560,48.0159,57.20,55.40,150.00,8.00,,10.00,29.69,
DVP,2022-05-13 09:53,-95.7826,43.9868,56.70,50.20,210.00,7.00,,10.00,29.82,
MSP,2022-05-13 09:53,-93.2313,44.8854,68.00,57.00,210.00,6.00,,10.00,29.82,
HEI,2022-05-13 09:53,-102.6560,46.0149,44.00,39.00,260.00,32.00,49.00,10.00,29.53,
ABR,2022-05-13 09:53,-98.4200,45.4500,51.00,45.00,210.00,20.00,36.00,10.00,29.67,
CUT,2022-05-13 09:53,-103.6114,43.7331,39.00,32.00,260.00,21.00,31.00,10.00,29.79,
MHE,2022-05-13 09:53,-98.0386,43.7748,55.00,45.00,240.00,7.00,,10.00,29.82,
ATY,2022-05-13 09:53,-97.1547,44.9140,53.00,45.00,240.00,20.00,30.00,10.00,29.77,
BBW,2022-05-13 09:53,-99.6385,41.4365,43.00,37.00,0.00,0.00,,10.00,29.96,
DBQ,2022-05-13 09:53,-90.7091,42.3984,72.00,67.00,210.00,8.00,,8.00,29.94,
MCK,2022-05-13 09:53,-100.5921,40.2063,45.00,35.00,290.00,7.00,,10.00,30.00,
BDE,2022-05-13 09:53,-94.6122,48.7284,59.00,56.00,130.00,13.00,22.00,10.00,29.62,
HIB,2022-05-13 09:53,-92.8390,47.3866,54.00,53.00,130.00,11.00,,10.00,29.76,
FCM,2022-05-13 09:53,-93.4607,44.8261,66.00,56.00,,3.00,,10.00,29.76,-RA
PKD,2022-05-13 09:53,-95.0700,46.9000,63.00,58.00,190.00,15.00,27.00,10.00,29.69,
ODX,2022-05-13 09:53,-98.9517,41.6236,50.00,40.00,250.00,7.00,,10.00,29.94,
GRI,2022-05-13 09:53,-98.3096,40.9675,54.00,44.00,270.00,6.00,,10.00,29.95,
FAR,2022-05-13 09:53,-96.8111,46.9253,57.00,49.00,190.00,26.00,32.00,10.00,29.59,
GFK,2022-05-13 09:53,-97.1761,47.9492,57.00,51.00,180.00,18.00,29.00,10.00,29.49,
PIR,2022-05-13 09:53,-100.2860,44.3827,52.00,40.00,260.00,19.00,26.00,10.00,29.70,
ICR,2022-05-13 09:53,-99.8422,43.3903,50.00,40.00,170.00,11.00,,10.00,29.83,
CDR,2022-05-13 09:53,-103.0954,42.8376,40.00,35.00,220.00,6.00,,10.00,29.90,
FNB,2022-05-13 09:53,-95.5920,40.0788,62.00,58.00,170.00,9.00,,10.00,29.89,
RWF,2022-05-13 09:53,-95.0820,44.5469,60.00,53.00,210.00,8.00,,10.00,29.79,
MIC,2022-05-13 09:53,-93.3511,45.0622,67.00,58.00,200.00,7.00,,10.00,29.80,
SNY,2022-05-13 09:53,-102.9847,41.1014,40.00,24.10,260.00,8.00,,10.00,30.01,
BFF,2022-05-13 09:53,-103.5956,41.8740,49.00,24.10,270.00,13.00,20.00,10.00,29.95,
LNK,2022-05-13 09:54,-96.7633,40.8312,60.00,57.00,0.00,0.00,,10.00,29.92,
RST,2022-05-13 09:54,-92.4916,43.9041,65.00,54.00,240.00,6.00,,10.00,29.89,
MOT,2022-05-13 09:54,-101.2803,48.2594,53.00,50.00,100.00,15.00,,10.00,29.15,
DSM,2022-05-13 09:54,-93.6531,41.5339,63.00,53.00,160.00,7.00,,10.00,29.93,
ALO,2022-05-13 09:54,-92.4013,42.5544,66.00,51.00,0.00,0.00,,10.00,29.92,
INL,2022-05-13 09:54,-93.3956,48.5595,52.00,51.00,110.00,6.00,,3.00,29.68,BR
TQE,2022-05-13 09:54,-96.1779,41.7635,60.00,56.00,200.00,5.00,,10.00,29.90,
SGS,2022-05-13 09:55,-93.0329,44.8571,69.00,56.30,210.00,6.00,,10.00,29.82,
ACQ,2022-05-13 09:55,-93.5529,44.0735,60.80,55.40,90.00,10.00,,,29.79,
AEL,2022-05-13 09:55,-93.3672,43.6815,62.60,51.80,150.00,6.00,,10.00,29.82,
PNM,2022-05-13 09:55,-93.6082,45.5599,64.40,60.80,140.00,7.00,14.00,10.00,29.73,-RA
IBM,2022-05-13 09:55,-103.6774,41.1881,40.30,20.80,220.00,10.00,,10.00,30.02,
AIT,2022-05-13 09:55,-93.6768,46.5484,59.00,57.20,140.00,8.00,,10.00,29.75,
AUM,2022-05-13 09:55,-92.9333,43.6647,64.40,51.80,0.00,0.00,,10.00,29.88,
GHW,2022-05-13 09:55,-95.3204,45.6439,57.20,53.60,190.00,12.00,,10.00,29.76,
HCO,2022-05-13 09:55,-96.9430,48.7527,60.80,57.20,150.00,19.00,,10.00,29.46,
ULM,2022-05-13 09:55,-94.5000,44.3200,60.80,51.80,270.00,6.00,,10.00,29.80,
HJH,2022-05-13 09:55,-97.5870,40.1523,57.70,46.60,0.00,0.00,,10.00,29.94,
ONL,2022-05-13 09:55,-98.6881,42.4697,50.40,40.30,250.00,9.00,,10.00,29.90,
JYR,2022-05-13 09:55,-97.6228,40.8967,57.20,46.40,310.00,4.00,,10.00,29.93,
BJI,2022-05-13 09:55,-94.9337,47.5094,61.20,58.60,150.00,11.00,,10.00,29.63,
COQ,2022-05-13 09:55,-92.5036,46.7011,48.20,48.20,120.00,7.00,,0.50,29.80,FG
DTL,2022-05-13 09:55,-95.8856,46.8252,59.00,51.80,190.00,18.00,24.00,10.00,29.67,
ELO,2022-05-13 09:55,-91.8371,47.8287,55.40,55.40,150.00,5.00,,10.00,29.79,
FSE,2022-05-13 09:55,-95.7735,47.5928,59.00,51.80,180.00,17.00,,10.00,29.61,
MJQ,2022-05-13 09:55,-94.9865,43.6500,60.80,51.80,230.00,7.00,,10.00,29.83,
MZH,2022-05-13 09:55,-92.8048,46.4186,53.60,51.80,0.00,0.00,,10.00,29.82,
JMR,2022-05-13 09:55,-93.2718,45.8861,59.00,59.00,180.00,6.00,,10.00,29.84,
PQN,2022-05-13 09:55,-96.3004,43.9821,55.40,48.20,240.00,7.00,,10.00,29.82,
RGK,2022-05-13 09:55,-92.4868,44.5915,71.60,53.60,250.00,5.00,,10.00,29.84,
ROX,2022-05-13 09:55,-95.6971,48.8560,59.00,57.20,120.00,11.00,,7.00,29.55,
BDH,2022-05-13 09:55,-95.1304,45.1177,62.60,55.40,190.00,4.00,,10.00,29.81,
ONA,2022-05-13 09:55,-91.7083,44.0772,73.40,59.00,280.00,6.00,,10.00,29.87,
HDE,2022-05-13 09:55,-99.3365,40.4521,51.40,39.40,340.00,5.00,,10.00,29.97,
MLE,2022-05-13 09:55,-96.1120,41.1960,62.40,57.20,0.00,0.00,,10.00,29.90,
AFK,2022-05-13 09:55,-95.8657,40.6069,61.30,57.00,240.00,8.00,,10.00,29.91,
LCG,2022-05-13 09:55,-96.9814,42.2419,58.60,43.70,250.00,8.00,,10.00,29.89,
BBB,2022-05-13 09:55,-95.6506,45.3319,59.00,51.80,230.00,11.00,,10.00,29.76,
CFE,2022-05-13 09:55,-93.8433,45.1590,64.40,59.00,0.00,0.00,,10.00,29.73,-RA
CQM,2022-05-13 09:55,-92.6894,47.8219,57.20,55.40,140.00,13.00,,10.00,29.73,
DYT,2022-05-13 09:55,-92.0434,46.7219,41.00,41.00,50.00,19.00,,10.00,29.82,
FGN,2022-05-13 09:55,-94.9028,49.3183,51.80,48.20,110.00,12.00,19.00,10.00,29.59,
GYL,2022-05-13 09:55,-94.0812,44.7560,63.50,55.60,240.00,4.00,,10.00,29.78,
GDB,2022-05-13 09:55,-95.5560,44.7533,59.50,53.60,180.00,13.00,,10.00,29.81,
LYV,2022-05-13 09:55,-96.2158,43.6212,51.80,48.20,210.00,6.00,,10.00,29.83,
DXX,2022-05-13 09:55,-96.1779,44.9864,60.80,48.20,230.00,15.00,22.00,10.00,29.79,
HZX,2022-05-13 09:55,-93.3098,46.6188,53.60,53.60,140.00,5.00,11.00,10.00,29.78,
ANE,2022-05-13 09:55,-93.2102,45.1449,69.80,60.80,200.00,7.00,,10.00,29.80,
LVN,2022-05-13 09:55,-93.2273,44.6252,66.20,53.60,180.00,3.00,,10.00,29.81,
VVV,2022-05-13 09:55,-96.4244,45.3057,57.20,50.00,210.00,6.00,,10.00,29.75,
PEX,2022-05-13 09:55,-94.7466,45.3723,60.80,57.20,200.00,7.00,,10.00,29.77,
PWC,2022-05-13 09:55,-94.3817,46.7248,60.80,57.20,190.00,8.00,,10.00,29.76,
ROS,2022-05-13 09:55,-92.9530,45.6980,60.30,59.00,190.00,3.00,,10.00,29.82,
SYN,2022-05-13 09:55,-93.0145,44.4736,66.20,57.00,0.00,0.00,,10.00,29.82,
SAZ,2022-05-13 09:55,-94.8066,46.3809,62.60,59.00,190.00,8.00,,10.00,29.73,
JYG,2022-05-13 09:55,-94.5579,43.9863,62.60,51.80,250.00,8.00,,10.00,29.79,
21D,2022-05-13 09:55,-92.8557,44.9975,68.00,55.40,210.00,7.00,,10.00,29.84,
TKC,2022-05-13 09:55,-95.6072,44.2491,62.00,47.70,210.00,13.00,16.00,10.00,29.80,
RRT,2022-05-13 09:55,-95.3483,48.9414,51.80,48.20,110.00,8.00,,10.00,29.58,
MWM,2022-05-13 09:55,-95.1094,43.9134,62.60,51.80,210.00,10.00,,10.00,29.82,
Y63,2022-05-13 09:55,-95.9920,45.9861,56.70,52.70,210.00,17.00,,10.00,29.73,
14Y,2022-05-13 09:55,-94.8739,45.8983,59.00,57.20,200.00,12.00,16.00,10.00,29.75,
OVL,2022-05-13 09:55,-95.0328,44.7786,59.00,53.60,210.00,6.00,,10.00,29.79,
9MN,2022-05-13 09:55,-92.4831,44.0198,69.00,52.00,240.00,7.00,,10.00,29.89,
D39,2022-05-13 09:55,-94.9334,45.7066,60.40,56.70,200.00,9.00,15.00,10.00,29.75,
CKN,2022-05-13 09:55,-96.6214,47.8417,57.20,,180.00,17.00,,10.00,29.54,
EVM,2022-05-13 09:55,-92.4981,47.4251,53.60,53.60,130.00,10.00,15.00,10.00,29.79,
ANW,2022-05-13 09:55,-99.9930,42.5792,48.20,38.80,210.00,9.00,,10.00,29.92,
PMV,2022-05-13 09:55,-95.9179,40.9502,61.20,56.70,270.00,4.00,,10.00,29.91,
FBL,2022-05-13 09:55,-93.3108,44.3247,66.20,55.40,130.00,6.00,,10.00,29.82,
FFM,2022-05-13 09:55,-96.1567,46.2844,55.40,51.80,190.00,11.00,,10.00,29.67,
04W,2022-05-13 09:55,-92.8952,46.0229,60.80,60.80,140.00,5.00,,10.00,29.81,
LXL,2022-05-13 09:55,-94.3469,45.9492,62.60,60.80,180.00,8.00,,10.00,29.74,-RA
JKJ,2022-05-13 09:55,-96.6640,46.8393,57.20,48.20,200.00,19.00,26.00,10.00,29.62,
VWU,2022-05-13 09:55,-94.5167,48.1539,62.60,59.00,140.00,10.00,14.00,10.00,29.62,
3N8,2022-05-13 09:55,-95.9281,47.2605,58.00,53.80,180.00,13.00,18.00,10.00,29.62,
LXN,2022-05-13 09:55,-99.7759,40.7904,44.20,39.00,190.00,5.00,,10.00,29.99,
BTN,2022-05-13 09:55,-97.7428,45.8150,51.80,46.40,200.00,23.00,,10.00,29.65,
9V9,2022-05-13 09:55,-99.3183,43.7667,45.50,42.30,190.00,9.00,,10.00,29.81,
BVN,2022-05-13 09:55,-98.0558,41.7286,53.60,43.00,300.00,7.00,,10.00,29.92,
BIE,2022-05-13 09:55,-96.7541,40.3013,58.50,56.30,0.00,0.00,,10.00,29.92,
BTA,2022-05-13 09:55,-96.1090,41.4148,60.80,55.40,190.00,3.00,,10.00,29.91,
TOB,2022-05-13 09:55,-92.8315,44.0180,62.60,53.60,220.00,5.00,,10.00,29.87,
OGA,2022-05-13 09:55,-101.7697,41.1195,45.70,35.00,0.00,0.00,,10.00,30.00,
HCD,2022-05-13 09:55,-94.3825,44.8599,62.60,58.00,230.00,5.00,,10.00,29.80,
AUH,2022-05-13 09:55,-97.9946,40.8941,54.50,46.00,260.00,7.00,,10.00,29.94,
GRN,2022-05-13 09:55,-102.1753,42.8060,44.20,37.00,260.00,14.00,,10.00,29.89,
HON,2022-05-13 09:55,-98.2286,44.3852,52.00,44.00,200.00,7.00,,10.00,,
PHP,2022-05-13 09:55,-101.6000,44.0500,48.00,40.00,270.00,10.00,,10.00,29.76,
DLH,2022-05-13 09:55,-92.1936,46.8421,49.00,49.00,120.00,12.00,,1.25,29.81,BR
FKA,2022-05-13 09:55,-92.1797,43.6767,67.00,53.00,260.00,9.00,,7.00,29.91,
AHQ,2022-05-13 09:55,-96.5946,41.2406,58.00,58.00,220.00,3.00,,10.00,29.92,
Y49,2022-05-13 09:55,-94.6453,47.1595,60.00,58.00,160.00,11.00,18.00,10.00,29.67,
FET,2022-05-13 09:55,-96.5200,41.4500,62.00,56.80,190.00,7.00,,10.00,29.92,
TIF,2022-05-13 09:55,-100.5690,41.9622,46.00,37.40,250.00,6.00,,10.00,29.95,
OFF,2022-05-13 09:56,-95.9125,41.1183,62.00,56.50,300.00,3.00,,10.00,29.92,
GPZ,2022-05-13 09:56,-93.5097,47.2111,56.00,55.00,140.00,8.00,18.00,10.00,29.76,
TVF,2022-05-13 09:56,-96.1850,48.0657,59.00,55.00,180.00,19.00,24.00,10.00,29.57,
OLU,2022-05-13 09:56,-97.3426,41.4480,60.00,43.00,280.00,8.00,,10.00,29.93,
MKT,2022-05-13 09:56,-93.9200,44.2200,64.00,54.00,150.00,5.00,,10.00,29.77,
GNA,2022-05-13 09:56,-90.3457,47.7453,45.00,43.00,80.00,12.00,,,29.85,
JMS,2022-05-13 09:56,-98.6800,46.9300,52.00,46.00,190.00,22.00,36.00,10.00,29.45,
MML,2022-05-13 09:56,-95.8200,44.4500,58.00,50.00,200.00,6.00,,10.00,29.79,
RYM,2022-05-13 09:56,-94.3575,46.0895,63.50,60.40,170.00,10.00,,10.00,29.70,-RA
DVL,2022-05-13 09:56,-98.9083,48.1146,52.00,48.00,170.00,21.00,27.00,10.00,29.36,
DIK,2022-05-13 09:56,-102.8019,46.7973,45.00,43.00,270.00,33.00,49.00,10.00,29.34,
RDR,2022-05-13 09:56,-97.4012,47.9611,56.50,51.40,180.00,18.00,24.00,10.00,29.48,
RCA,2022-05-13 09:56,-103.1036,44.1451,49.60,34.50,290.00,25.00,31.00,10.00,29.74,
D07,2022-05-13 09:56,-102.0200,45.0300,47.00,41.00,280.00,31.00,44.00,,29.63,
8D3,2022-05-13 09:56,-96.9914,45.6689,57.00,46.00,220.00,23.00,32.00,,29.68,
YKN,2022-05-13 09:56,-97.3859,42.9167,59.00,45.00,240.00,9.00,,10.00,29.85,
FOD,2022-05-13 09:56,-94.2032,42.5497,64.00,53.00,170.00,8.00,,10.00,29.86,-RA
2WX,2022-05-13 09:56,-103.5464,45.6044,45.00,40.00,270.00,35.00,47.00,,29.58,
FRM,2022-05-13 09:56,-94.4156,43.6439,65.00,53.00,230.00,10.00,,10.00,29.81,
OTG,2022-05-13 09:56,-95.5792,43.6551,60.00,51.00,210.00,12.00,,10.00,29.83,
OFK,2022-05-13 09:56,-97.4351,41.9855,58.00,42.00,260.00,9.00,,10.00,29.88,
CWI,2022-05-13 09:56,-90.3328,41.8295,69.00,58.00,140.00,8.00,,10.00,29.93,
FSD,2022-05-13 09:56,-96.7536,43.5769,60.00,47.00,250.00,6.00,,10.00,29.82,
EAR,2022-05-13 09:56,-99.0068,40.7270,49.00,41.00,290.00,10.00,,10.00,29.97,
1HW,2022-05-13 09:58,-102.8289,41.3251,38.80,26.60,250.00,9.00,,10.00,29.98,
1CW,2022-05-13 09:58,-103.6706,41.5900,45.50,19.40,260.00,13.00,,10.00,29.97,
1BW,2022-05-13 09:58,-103.9950,41.5117,43.00,18.50,290.00,15.00,,10.00,29.99,
PNM,2022-05-13 10:15,-93.6082,45.5599,64.40,60.80,130.00,5.00,,10.00,29.74,-RA
FSE,2022-05-13 10:15,-95.7735,47.5928,57.20,51.80,170.00,17.00,21.00,10.00,29.61,
SYN,2022-05-13 10:15,-93.0145,44.4736,66.60,55.80,0.00,0.00,,10.00,29.79,
MGG,2022-05-13 10:25,-93.9856,45.2360,62.60,55.40,200.00,3.00,,10.00,29.77,
ORB,2022-05-13 10:33,-92.8560,48.0159,57.20,57.20,150.00,13.00,20.00,10.00,29.72,
EVM,2022-05-13 10:35,-92.4981,47.4251,53.60,51.80,130.00,6.00,,10.00,29.80,
XWA,2022-05-13 10:51,-103.7505,48.2597,45.00,44.00,340.00,31.00,43.00,3.00,29.31,+RA BR
OMA,2022-05-13 10:52,-95.8992,41.3103,62.00,55.00,0.00,0.00,,10.00,29.87,
CID,2022-05-13 10:52,-91.7246,41.8829,64.00,54.00,360.00,7.00,,10.00,29.93,
EST,2022-05-13 10:52,-94.7476,43.4008,63.00,50.00,250.00,16.00,22.00,10.00,29.82,
SUX,2022-05-13 10:52,-96.3795,42.3917,56.00,50.00,190.00,5.00,,10.00,29.89,
BIS,2022-05-13 10:52,-100.7458,46.7727,52.00,45.00,240.00,23.00,39.00,10.00,29.36,
IEN,2022-05-13 10:52,-102.5110,43.0225,39.00,36.00,0.00,0.00,,10.00,29.90,
IOW,2022-05-13 10:52,-91.5445,41.6394,70.00,51.00,350.00,8.00,,10.00,29.95,
VTN,2022-05-13 10:52,-100.5489,42.8567,50.00,38.00,250.00,10.00,,10.00,29.90,
DVN,2022-05-13 10:52,-90.5948,41.6133,73.00,60.00,240.00,9.00,,10.00,29.96,
N60,2022-05-13 10:52,-101.4394,47.6458,50.00,49.00,230.00,10.00,,,29.12,
MBG,2022-05-13 10:52,-100.4078,45.5464,52.00,40.00,270.00,17.00,33.00,10.00,29.57,
RAP,2022-05-13 10:52,-103.0574,44.0453,47.00,35.00,240.00,13.00,,10.00,29.80,
MCW,2022-05-13 10:53,-93.3261,43.1544,57.00,50.00,160.00,7.00,,10.00,29.88,
SNY,2022-05-13 10:53,-102.9847,41.1014,32.00,21.00,260.00,9.00,,10.00,30.03,
MCK,2022-05-13 10:53,-100.5921,40.2063,41.00,34.00,200.00,5.00,,10.00,30.02,
CDR,2022-05-13 10:53,-103.0954,42.8376,42.00,36.00,200.00,13.00,,10.00,29.90,
BDE,2022-05-13 10:53,-94.6122,48.7284,60.00,57.00,130.00,11.00,,10.00,29.62,
BRD,2022-05-13 10:53,-94.1308,46.4047,64.00,59.00,200.00,10.00,,10.00,,
HIB,2022-05-13 10:53,-92.8390,47.3866,54.00,52.00,140.00,14.00,,10.00,29.77,
PKD,2022-05-13 10:53,-95.0700,46.9000,59.00,52.00,200.00,11.00,21.00,10.00,29.70,
HSI,2022-05-13 10:53,-98.4279,40.6052,54.00,43.00,270.00,4.00,,10.00,29.96,
OWA,2022-05-13 10:53,-93.2606,44.1233,64.40,55.40,150.00,9.00,,10.00,29.81,
STP,2022-05-13 10:53,-93.0600,44.9345,67.00,57.00,0.00,0.00,,10.00,29.75,
BFF,2022-05-13 10:53,-103.5956,41.8740,46.00,25.00,260.00,7.00,,10.00,29.99,
AQP,2022-05-13 10:53,-96.0043,45.2275,59.00,46.40,220.00,12.00,,10.00,29.76,
FOZ,2022-05-13 10:53,-93.6502,47.7828,59.00,55.40,150.00,8.00,17.00,10.00,29.75,
XVG,2022-05-13 10:53,-94.2039,46.9900,60.80,57.20,180.00,11.00,14.00,10.00,29.72,-DZ
AMW,2022-05-13 10:53,-93.6185,41.9904,63.00,54.00,140.00,13.00,,10.00,29.87,
BRL,2022-05-13 10:53,-91.1255,40.7729,72.00,59.00,340.00,10.00,,10.00,29.96,
OTM,2022-05-13 10:53,-92.4446,41.1008,61.00,54.00,320.00,8.00,,10.00,29.94,
SPW,2022-05-13 10:53,-95.2101,43.1682,61.00,52.00,220.00,11.00,,10.00,29.85,
LBF,2022-05-13 10:53,-100.6690,41.1219,41.00,34.00,230.00,3.00,,10.00,30.00,
AIA,2022-05-13 10:53,-102.8000,42.0572,34.00,28.00,200.00,5.00,,10.00,29.96,
ORB,2022-05-13 10:53,-92.8560,48.0159,57.20,55.40,150.00,12.00,19.00,10.00,29.72,
DVP,2022-05-13 10:53,-95.7826,43.9868,55.40,48.20,220.00,12.00,,10.00,29.83,
GFK,2022-05-13 10:53,-97.1761,47.9492,56.00,48.00,180.00,27.00,44.00,10.00,29.49,
HEI,2022-05-13 10:53,-102.6560,46.0149,44.00,39.00,270.00,31.00,45.00,10.00,29.54,
ABR,2022-05-13 10:53,-98.4200,45.4500,51.00,45.00,210.00,14.00,,10.00,29.65,
CUT,2022-05-13 10:53,-103.6114,43.7331,38.00,32.00,250.00,10.00,23.00,10.00,29.82,
MHE,2022-05-13 10:53,-98.0386,43.7748,52.00,45.00,210.00,8.00,,10.00,29.83,
BBW,2022-05-13 10:53,-99.6385,41.4365,43.00,37.00,0.00,0.00,,10.00,29.98,
IML,2022-05-13 10:53,-101.6201,40.5103,43.00,35.00,240.00,3.00,,10.00,30.03,
AXN,2022-05-13 10:53,-95.3947,45.8663,57.00,51.00,220.00,12.00,20.00,10.00,,
MSP,2022-05-13 10:53,-93.2313,44.8854,66.00,56.00,150.00,5.00,,10.00,29.75,
RWF,2022-05-13 10:53,-95.0820,44.5469,61.00,51.00,230.00,11.00,,10.00,29.78,
STC,2022-05-13 10:53,-94.0513,45.5433,63.00,58.00,220.00,8.00,,10.00,29.75,
FNB,2022-05-13 10:53,-95.5920,40.0788,61.00,58.00,230.00,6.00,,10.00,29.92,
ODX,2022-05-13 10:53,-98.9517,41.6236,48.00,40.00,190.00,6.00,,10.00,29.94,
LWD,2022-05-13 10:53,-93.9005,40.6306,63.00,53.00,100.00,7.00,,10.00,29.92,
FAR,2022-05-13 10:53,-96.8111,46.9253,54.00,47.00,190.00,22.00,33.00,10.00,29.60,
DBQ,2022-05-13 10:53,-90.7091,42.3984,69.00,62.00,270.00,6.00,,10.00,29.95,
FCM,2022-05-13 10:53,-93.4607,44.8261,65.00,56.00,250.00,5.00,15.00,10.00,29.76,
MIC,2022-05-13 10:53,-93.3511,45.0622,65.00,58.00,210.00,5.00,,10.00,29.74,
MIW,2022-05-13 10:53,-92.9163,42.1106,62.00,53.00,140.00,7.00,,10.00,29.91,
GRI,2022-05-13 10:53,-98.3096,40.9675,53.00,42.00,280.00,7.00,,10.00,29.94,
PIR,2022-05-13 10:53,-100.2860,44.3827,53.00,40.00,250.00,14.00,,10.00,29.73,
ATY,2022-05-13 10:53,-97.1547,44.9140,51.00,44.00,220.00,14.00,,10.00,29.76,
ICR,2022-05-13 10:53,-99.8422,43.3903,49.00,40.00,220.00,10.00,,10.00,29.84,
INL,2022-05-13 10:54,-93.3956,48.5595,56.00,54.00,130.00,10.00,,10.00,29.68,
TQE,2022-05-13 10:54,-96.1779,41.7635,58.00,55.00,230.00,6.00,,10.00,29.89,
ALO,2022-05-13 10:54,-92.4013,42.5544,63.00,53.00,150.00,5.00,,10.00,29.90,
RST,2022-05-13 10:54,-92.4916,43.9041,61.00,53.00,110.00,11.00,,10.00,29.84,
MOT,2022-05-13 10:54,-101.2803,48.2594,52.00,49.00,110.00,9.00,,10.00,29.12,
LNK,2022-05-13 10:54,-96.7633,40.8312,56.00,53.00,0.00,0.00,,10.00,29.92,
DSM,2022-05-13 10:54,-93.6531,41.5339,65.00,53.00,140.00,9.00,,10.00,29.89,
SGS,2022-05-13 10:55,-93.0329,44.8571,68.00,55.60,160.00,5.00,,10.00,29.75,
ACQ,2022-05-13 10:55,-93.5529,44.0735,62.60,53.60,190.00,6.00,,,29.84,
AEL,2022-05-13 10:55,-93.3672,43.6815,62.60,53.60,160.00,6.00,,10.00,29.83,
PNM,2022-05-13 10:55,-93.6082,45.5599,62.60,60.80,230.00,5.00,,10.00,29.76,
LVN,2022-05-13 10:55,-93.2273,44.6252,64.40,53.60,180.00,3.00,,10.00,29.78,
DLH,2022-05-13 10:55,-92.1936,46.8421,49.00,48.00,110.00,11.00,,0.12,29.82,FG
GHW,2022-05-13 10:55,-95.3204,45.6439,55.40,51.80,200.00,14.00,,10.00,29.75,
ULM,2022-05-13 10:55,-94.5000,44.3200,60.80,50.00,240.00,7.00,,10.00,29.79,
IBM,2022-05-13 10:55,-103.6774,41.1881,36.50,21.00,270.00,8.00,,10.00,30.05,
OGA,2022-05-13 10:55,-101.7697,41.1195,43.50,32.50,0.00,0.00,,10.00,30.01,
AIT,2022-05-13 10:55,-93.6768,46.5484,,,160.00,7.00,,10.00,29.70,
AUM,2022-05-13 10:55,-92.9333,43.6647,62.60,51.80,170.00,6.00,,10.00,29.85,
BJI,2022-05-13 10:55,-94.9337,47.5094,61.20,55.80,190.00,15.00,20.00,10.00,29.66,
COQ,2022-05-13 10:55,-92.5036,46.7011,46.40,46.40,110.00,5.00,,0.25,29.81,FG
DTL,2022-05-13 10:55,-95.8856,46.8252,57.20,48.20,190.00,12.00,19.00,10.00,29.67,
ELO,2022-05-13 10:55,-91.8371,47.8287,55.40,55.40,160.00,13.00,18.00,10.00,29.80,
HCO,2022-05-13 10:55,-96.9430,48.7527,57.20,55.40,160.00,24.00,30.00,10.00,29.47,
MJQ,2022-05-13 10:55,-94.9865,43.6500,60.80,50.00,230.00,12.00,,10.00,29.84,
JMR,2022-05-13 10:55,-93.2718,45.8861,59.00,59.00,120.00,3.00,,10.00,29.75,-RA
PQN,2022-05-13 10:55,-96.3004,43.9821,53.60,46.40,260.00,8.00,,10.00,29.84,
RGK,2022-05-13 10:55,-92.4868,44.5915,66.20,55.40,110.00,6.00,,10.00,29.78,
ROX,2022-05-13 10:55,-95.6971,48.8560,60.80,59.00,170.00,17.00,22.00,10.00,29.56,
ONA,2022-05-13 10:55,-91.7083,44.0772,71.60,55.40,0.00,0.00,,10.00,29.89,
FET,2022-05-13 10:55,-96.5200,41.4500,60.60,55.40,250.00,6.00,,10.00,29.91,
HJH,2022-05-13 10:55,-97.5870,40.1523,56.00,47.70,0.00,0.00,,10.00,29.95,
LXN,2022-05-13 10:55,-99.7759,40.7904,45.50,39.20,280.00,5.00,,10.00,30.00,
MLE,2022-05-13 10:55,-96.1120,41.1960,59.20,56.50,270.00,3.00,,10.00,29.89,
AFK,2022-05-13 10:55,-95.8657,40.6069,59.50,57.00,260.00,9.00,,10.00,29.92,
TIF,2022-05-13 10:55,-100.5690,41.9622,44.80,37.40,240.00,9.00,,10.00,29.97,
LCG,2022-05-13 10:55,-96.9814,42.2419,52.20,44.80,170.00,5.00,,10.00,29.92,
JYR,2022-05-13 10:55,-97.6228,40.8967,57.20,44.60,0.00,0.00,,10.00,29.95,
BBB,2022-05-13 10:55,-95.6506,45.3319,59.00,48.20,250.00,14.00,18.00,10.00,29.76,
CQM,2022-05-13 10:55,-92.6894,47.8219,57.20,53.60,150.00,10.00,20.00,10.00,29.75,
DYT,2022-05-13 10:55,-92.0434,46.7219,41.00,41.00,50.00,18.00,,9.00,29.83,
FGN,2022-05-13 10:55,-94.9028,49.3183,53.60,50.00,120.00,10.00,17.00,10.00,29.58,
FSE,2022-05-13 10:55,-95.7735,47.5928,57.20,50.00,180.00,23.00,31.00,10.00,29.62,
GYL,2022-05-13 10:55,-94.0812,44.7560,61.70,55.20,0.00,0.00,,10.00,29.77,
HCD,2022-05-13 10:55,-94.3825,44.8599,61.30,53.20,230.00,6.00,,10.00,29.78,
DXX,2022-05-13 10:55,-96.1779,44.9864,59.00,48.20,240.00,8.00,,10.00,29.79,
ANE,2022-05-13 10:55,-93.2102,45.1449,64.40,59.00,120.00,6.00,,10.00,29.73,
MZH,2022-05-13 10:55,-92.8048,46.4186,53.60,51.80,90.00,4.00,,5.00,29.78,-VCTSRA
PWC,2022-05-13 10:55,-94.3817,46.7248,62.60,57.20,200.00,7.00,,10.00,29.76,
ROS,2022-05-13 10:55,-92.9530,45.6980,61.00,59.20,130.00,5.00,,10.00,29.74,
JYG,2022-05-13 10:55,-94.5579,43.9863,62.60,53.60,230.00,9.00,,10.00,29.80,
BDH,2022-05-13 10:55,-95.1304,45.1177,60.80,51.80,220.00,11.00,,10.00,29.80,
MWM,2022-05-13 10:55,-95.1094,43.9134,60.80,51.80,200.00,9.00,,10.00,29.81,
CFE,2022-05-13 10:55,-93.8433,45.1590,62.60,57.20,220.00,8.00,,10.00,29.76,
TOB,2022-05-13 10:55,-92.8315,44.0180,60.80,51.80,150.00,6.00,,10.00,29.83,
Y63,2022-05-13 10:55,-95.9920,45.9861,54.30,48.40,220.00,15.00,18.00,10.00,29.73,
GDB,2022-05-13 10:55,-95.5560,44.7533,60.00,50.50,220.00,11.00,16.00,10.00,29.81,
14Y,2022-05-13 10:55,-94.8739,45.8983,57.20,51.80,210.00,8.00,16.00,10.00,29.76,
LYV,2022-05-13 10:55,-96.2158,43.6212,53.60,44.60,240.00,9.00,,10.00,29.86,
HZX,2022-05-13 10:55,-93.3098,46.6188,55.40,53.60,120.00,7.00,,10.00,29.72,
OVL,2022-05-13 10:55,-95.0328,44.7786,59.00,50.00,240.00,11.00,,10.00,29.78,
VVV,2022-05-13 10:55,-96.4244,45.3057,55.40,46.40,240.00,11.00,17.00,10.00,29.75,
PEX,2022-05-13 10:55,-94.7466,45.3723,59.00,53.60,230.00,9.00,,10.00,29.76,
9MN,2022-05-13 10:55,-92.4831,44.0198,66.70,51.80,100.00,9.00,,10.00,29.83,
D39,2022-05-13 10:55,-94.9334,45.7066,57.20,53.80,190.00,6.00,,10.00,29.75,
SYN,2022-05-13 10:55,-93.0145,44.4736,66.20,55.60,170.00,8.00,,10.00,29.77,
SAZ,2022-05-13 10:55,-94.8066,46.3809,62.60,55.40,210.00,13.00,17.00,10.00,29.74,
21D,2022-05-13 10:55,-92.8557,44.9975,66.20,55.40,130.00,7.00,,10.00,29.75,
TKC,2022-05-13 10:55,-95.6072,44.2491,59.20,47.50,220.00,12.00,,10.00,29.81,
RRT,2022-05-13 10:55,-95.3483,48.9414,57.20,53.60,210.00,8.00,,5.00,29.59,RA
EVM,2022-05-13 10:55,-92.4981,47.4251,51.80,51.80,140.00,7.00,,10.00,29.81,
ANW,2022-05-13 10:55,-99.9930,42.5792,46.00,38.50,240.00,9.00,,10.00,29.89,
AHQ,2022-05-13 10:55,-96.5946,41.2406,60.30,54.70,300.00,12.00,,10.00,29.91,
CKN,2022-05-13 10:55,-96.6214,47.8417,55.40,,190.00,21.00,25.00,10.00,29.55,
FBL,2022-05-13 10:55,-93.3108,44.3247,66.20,55.40,190.00,3.00,,10.00,29.81,
FFM,2022-05-13 10:55,-96.1567,46.2844,55.40,48.20,210.00,15.00,19.00,10.00,29.67,
LXL,2022-05-13 10:55,-94.3469,45.9492,62.60,57.20,220.00,10.00,15.00,10.00,29.75,
AUH,2022-05-13 10:55,-97.9946,40.8941,53.20,46.40,280.00,6.00,,10.00,29.95,
04W,2022-05-13 10:55,-92.8952,46.0229,60.80,60.80,90.00,10.00,15.00,10.00,29.72,-RA
JKJ,2022-05-13 10:55,-96.6640,46.8393,55.40,48.20,190.00,17.00,24.00,10.00,29.63,
VWU,2022-05-13 10:55,-94.5167,48.1539,64.40,59.00,160.00,6.00,14.00,10.00,29.64,
3N8,2022-05-13 10:55,-95.9281,47.2605,56.00,50.40,200.00,19.00,27.00,10.00,29.63,
BTN,2022-05-13 10:55,-97.7428,45.8150,51.80,46.40,200.00,17.00,24.00,10.00,29.63,
CNC,2022-05-13 10:55,-93.3608,41.0184,59.00,57.20,160.00,3.00,,10.00,29.93,
AWG,2022-05-13 10:55,-91.6748,41.2751,66.20,55.40,0.00,0.00,,10.00,29.94,
CSQ,2022-05-13 10:55,-94.3608,41.0188,62.60,62.60,120.00,13.00,,8.00,29.87,
OXV,2022-05-13 10:55,-93.1114,41.2984,62.60,51.80,130.00,3.00,,10.00,29.92,
EOK,2022-05-13 10:55,-91.4274,40.4615,69.80,60.80,10.00,6.00,,10.00,29.96,
MPZ,2022-05-13 10:55,-91.5122,40.9453,68.00,55.40,330.00,6.00,,10.00,29.96,
ICL,2022-05-13 10:55,-95.0223,40.7242,60.80,59.00,290.00,17.00,,10.00,29.92,
OLZ,2022-05-13 10:55,-91.9760,42.6831,64.40,51.80,150.00,4.00,,10.00,29.93,
SLB,2022-05-13 10:55,-95.2399,42.5972,59.00,53.60,240.00,7.00,,10.00,29.86,
SDA,2022-05-13 10:55,-95.4112,40.7533,60.80,59.00,190.00,3.00,,10.00,29.87,
RDK,2022-05-13 10:55,-95.2624,41.0106,62.60,57.20,280.00,7.00,,10.00,29.89,
VTI,2022-05-13 10:55,-92.0248,42.2176,65.80,52.50,0.00,0.00,,10.00,29.93,
SHL,2022-05-13 10:55,-95.8353,43.2082,59.00,51.80,200.00,10.00,15.00,10.00,29.85,
TVK,2022-05-13 10:55,-92.8983,40.6832,60.80,53.60,0.00,0.00,,10.00,29.97,
PRO,2022-05-13 10:55,-94.1637,41.8278,64.60,55.40,140.00,10.00,,10.00,29.84,-RA
LRJ,2022-05-13 10:55,-96.1923,42.7754,59.00,50.00,200.00,7.00,,10.00,29.87,
CCY,2022-05-13 10:55,-92.6132,43.0730,62.60,53.60,140.00,7.00,,10.00,29.88,
CIN,2022-05-13 10:55,-94.7889,42.0444,62.60,57.20,240.00,12.00,,10.00,29.85,
HNR,2022-05-13 10:55,-95.3355,41.5834,59.00,60.80,0.00,0.00,,10.00,29.88,
MUT,2022-05-13 10:55,-91.1406,41.3670,69.80,59.00,340.00,4.00,,10.00,29.96,
MXO,2022-05-13 10:55,-91.1605,42.2204,68.00,57.20,300.00,6.00,,10.00,29.95,
PEA,2022-05-13 10:55,-92.9431,41.3989,59.50,52.20,110.00,3.00,,10.00,29.92,
CAV,2022-05-13 10:55,-93.7593,42.7430,64.40,55.40,0.00,0.00,10.00,10.00,29.84,
DNS,2022-05-13 10:55,-95.3800,41.9842,59.00,59.00,,3.00,,9.00,29.89,
FFL,2022-05-13 10:55,-91.9834,41.0521,64.40,55.40,10.00,4.00,,,29.95,
TNU,2022-05-13 10:55,-93.0190,41.6701,60.80,55.40,140.00,4.00,,10.00,29.92,
9V9,2022-05-13 10:55,-99.3183,43.7667,47.50,42.80,220.00,10.00,,10.00,29.84,
HON,2022-05-13 10:55,-98.2286,44.3852,52.00,45.00,210.00,11.00,18.00,10.00,,
PHP,2022-05-13 10:55,-101.6000,44.0500,46.00,39.00,240.00,7.00,,10.00,29.78,
AXA,2022-05-13 10:55,-94.2724,43.0796,60.80,60.80,200.00,13.00,,10.00,29.84,
IKV,2022-05-13 10:55,-93.5695,41.6878,62.60,53.60,170.00,6.00,,10.00,29.90,
AIO,2022-05-13 10:55,-95.0465,41.4059,62.60,62.60,310.00,10.00,,10.00,29.85,
BNW,2022-05-13 10:55,-93.8486,42.0486,62.60,62.60,170.00,12.00,,10.00,29.89,
CKP,2022-05-13 10:55,-95.5538,42.7304,58.30,54.70,230.00,6.00,,10.00,29.87,
CBF,2022-05-13 10:55,-95.7604,41.2611,59.00,55.40,300.00,5.00,,10.00,29.87,
DEH,2022-05-13 10:55,-91.7433,43.2755,66.20,57.20,0.00,0.00,,10.00,29.91,
FXY,2022-05-13 10:55,-93.6237,43.2323,59.00,53.60,130.00,9.00,,10.00,29.84,
IFA,2022-05-13 10:55,-93.2651,42.4691,61.70,54.70,120.00,9.00,,10.00,29.89,
HDE,2022-05-13 10:55,-99.3365,40.4521,50.40,38.00,290.00,3.00,,10.00,29.98,
ONL,2022-05-13 10:55,-98.6881,42.4697,48.70,40.00,220.00,9.00,,10.00,29.90,
FKA,2022-05-13 10:55,-92.1797,43.6767,64.00,53.00,130.00,6.00,,10.00,29.90,
Y49,2022-05-13 10:55,-94.6453,47.1595,61.00,58.00,200.00,14.00,22.00,10.00,29.69,
GRN,2022-05-13 10:55,-102.1753,42.8060,43.30,36.00,260.00,6.00,,10.00,29.92,
BVN,2022-05-13 10:55,-98.0558,41.7286,53.80,42.00,310.00,8.00,,10.00,29.92,
BIE,2022-05-13 10:55,-96.7541,40.3013,57.60,56.00,0.00,0.00,,10.00,29.93,
GGI,2022-05-13 10:55,-92.7332,41.7097,63.00,54.00,0.00,0.00,,10.00,29.96,
BTA,2022-05-13 10:55,-96.1090,41.4148,60.00,55.40,260.00,4.00,,10.00,29.89,
OFF,2022-05-13 10:56,-95.9125,41.1183,60.00,56.50,280.00,5.00,,10.00,29.91,
MIB,2022-05-13 10:56,-101.3580,48.4158,51.30,40.30,150.00,12.00,,10.00,29.12,
FRM,2022-05-13 10:56,-94.4156,43.6439,63.00,52.00,250.00,13.00,,10.00,29.81,
GPZ,2022-05-13 10:56,-93.5097,47.2111,54.00,54.00,140.00,10.00,18.00,10.00,29.72,
MKT,2022-05-13 10:56,-93.9200,44.2200,63.00,54.00,230.00,5.00,,10.00,29.81,
GNA,2022-05-13 10:56,-90.3457,47.7453,42.00,39.00,70.00,15.00,22.00,,29.88,
JMS,2022-05-13 10:56,-98.6800,46.9300,53.00,45.00,190.00,20.00,36.00,10.00,29.45,
FOD,2022-05-13 10:56,-94.2032,42.5497,62.00,55.00,0.00,0.00,,10.00,29.85,
RYM,2022-05-13 10:56,-94.3575,46.0895,62.40,59.20,220.00,9.00,,10.00,29.73,
RDR,2022-05-13 10:56,-97.4012,47.9611,54.50,48.70,180.00,21.00,30.00,10.00,29.47,
2WX,2022-05-13 10:56,-103.5464,45.6044,47.00,41.00,270.00,34.00,46.00,,29.59,
RCA,2022-05-13 10:56,-103.1036,44.1451,50.00,34.50,250.00,13.00,,10.00,29.77,
D07,2022-05-13 10:56,-102.0200,45.0300,46.00,41.00,270.00,22.00,34.00,,29.64,
FSD,2022-05-13 10:56,-96.7536,43.5769,56.00,46.00,,4.00,,10.00,29.85,
8D3,2022-05-13 10:56,-96.9914,45.6689,55.00,45.00,220.00,16.00,27.00,,29.68,
YKN,2022-05-13 10:56,-97.3859,42.9167,55.00,45.00,250.00,6.00,,10.00,29.89,
TVF,2022-05-13 10:56,-96.1850,48.0657,59.00,53.00,180.00,21.00,28.00,10.00,29.58,
EAR,2022-05-13 10:56,-99.0068,40.7270,50.00,40.00,290.00,8.00,,10.00,29.97,
OFK,2022-05-13 10:56,-97.4351,41.9855,57.00,42.00,290.00,14.00,20.00,10.00,29.89,
DVL,2022-05-13 10:56,-98.9083,48.1146,52.00,47.00,160.00,21.00,29.00,10.00,29.33,
DIK,2022-05-13 10:56,-102.8019,46.7973,45.00,42.00,270.00,31.00,45.00,9.00,29.36,
OTG,2022-05-13 10:56,-95.5792,43.6551,60.00,49.00,220.00,16.00,,10.00,29.84,
OLU,2022-05-13 10:56,-97.3426,41.4480,53.00,47.00,0.00,0.00,,10.00,29.94,
CWI,2022-05-13 10:56,-90.3328,41.8295,69.00,60.00,200.00,4.00,,10.00,29.96,
MML,2022-05-13 10:56,-95.8200,44.4500,58.00,47.00,250.00,14.00,,10.00,29.81,
1HW,2022-05-13 10:58,-102.8289,41.3251,37.00,26.80,240.00,11.00,,10.00,30.00,
1BW,2022-05-13 10:58,-103.9950,41.5117,40.50,19.20,230.00,11.00,,10.00,30.02,
1CW,2022-05-13 10:58,-103.6706,41.5900,46.40,18.90,250.00,14.00,,10.00,30.01,
PNM,2022-05-13 11:15,-93.6082,45.5599,62.60,60.80,0.00,0.00,,10.00,29.76,
FSE,2022-05-13 11:15,-95.7735,47.5928,57.20,48.20,190.00,22.00,30.00,10.00,29.63,
SYN,2022-05-13 11:15,-93.0145,44.4736,64.60,56.50,220.00,8.00,,10.00,29.80,
MGG,2022-05-13 11:25,-93.9856,45.2360,60.80,53.60,210.00,3.00,,10.00,29.78,
ORB,2022-05-13 11:33,-92.8560,48.0159,57.20,55.40,150.00,11.00,16.00,10.00,29.70,
EVM,2022-05-13 11:35,-92.4981,47.4251,51.80,51.80,110.00,7.00,,10.00,29.77,
XWA,2022-05-13 11:51,-103.7505,48.2597,45.00,44.00,330.00,27.00,38.00,5.00,29.32,RA BR
IOW,2022-05-13 11:52,-91.5445,41.6394,69.00,54.00,0.00,0.00,,10.00,29.95,
SUX,2022-05-13 11:52,-96.3795,42.3917,55.00,45.00,270.00,8.00,,10.00,29.91,
DVN,2022-05-13 11:52,-90.5948,41.6133,73.00,59.00,310.00,7.00,,10.00,29.96,
MBG,2022-05-13 11:52,-100.4078,45.5464,53.00,41.00,240.00,15.00,27.00,10.00,29.63,
IEN,2022-05-13 11:52,-102.5110,43.0225,41.00,36.00,210.00,5.00,,10.00,29.93,
OMA,2022-05-13 11:52,-95.8992,41.3103,63.00,56.00,,4.00,,10.00,29.94,
CID,2022-05-13 11:52,-91.7246,41.8829,63.00,56.00,0.00,0.00,,10.00,29.94,
N60,2022-05-13 11:52,-101.4394,47.6458,52.00,49.00,260.00,18.00,31.00,,29.17,
RAP,2022-05-13 11:52,-103.0574,44.0453,48.00,35.00,240.00,12.00,,10.00,29.82,
VTN,2022-05-13 11:52,-100.5489,42.8567,51.00,38.00,260.00,13.00,18.00,10.00,29.91,
BIS,2022-05-13 11:52,-100.7458,46.7727,51.00,44.00,230.00,18.00,35.00,10.00,29.40,
EST,2022-05-13 11:52,-94.7476,43.4008,62.00,50.00,240.00,19.00,26.00,10.00,29.83,
IML,2022-05-13 11:53,-101.6201,40.5103,41.00,34.00,230.00,8.00,,10.00,30.05,
SNY,2022-05-13 11:53,-102.9847,41.1014,45.00,21.90,310.00,13.00,,10.00,30.03,
CDR,2022-05-13 11:53,-103.0954,42.8376,41.00,34.00,220.00,7.00,,10.00,29.92,
MCK,2022-05-13 11:53,-100.5921,40.2063,44.00,34.00,300.00,10.00,,10.00,30.03,
BRD,2022-05-13 11:53,-94.1308,46.4047,63.00,57.00,200.00,8.00,,10.00,,
FNB,2022-05-13 11:53,-95.5920,40.0788,61.00,59.00,130.00,5.00,,10.00,29.99,-RA
FCM,2022-05-13 11:53,-93.4607,44.8261,62.00,55.00,210.00,5.00,,10.00,29.80,
OWA,2022-05-13 11:53,-93.2606,44.1233,64.40,53.60,180.00,9.00,,10.00,29.85,
RWF,2022-05-13 11:53,-95.0820,44.5469,61.00,50.00,250.00,8.00,,10.00,29.80,
STC,2022-05-13 11:53,-94.0513,45.5433,62.00,55.00,220.00,6.00,,10.00,29.76,
STP,2022-05-13 11:53,-93.0600,44.9345,68.00,57.00,0.00,0.00,,10.00,29.81,
BFF,2022-05-13 11:53,-103.5956,41.8740,49.00,23.00,280.00,10.00,18.00,10.00,30.01,
AQP,2022-05-13 11:53,-96.0043,45.2275,57.20,46.40,230.00,12.00,,10.00,29.78,
FOZ,2022-05-13 11:53,-93.6502,47.7828,59.00,55.40,170.00,7.00,,10.00,29.75,
XVG,2022-05-13 11:53,-94.2039,46.9900,60.80,57.20,180.00,6.00,,10.00,29.71,
AMW,2022-05-13 11:53,-93.6185,41.9904,65.00,55.00,130.00,9.00,,10.00,29.84,
AIA,2022-05-13 11:53,-102.8000,42.0572,37.00,28.90,170.00,11.00,,10.00,29.99,
ORB,2022-05-13 11:53,-92.8560,48.0159,57.20,55.40,150.00,11.00,15.00,10.00,29.70,
FAR,2022-05-13 11:53,-96.8111,46.9253,53.00,45.00,190.00,20.00,29.00,10.00,29.60,
GFK,2022-05-13 11:53,-97.1761,47.9492,54.00,46.00,180.00,23.00,34.00,10.00,29.49,
ABR,2022-05-13 11:53,-98.4200,45.4500,53.00,45.00,200.00,20.00,29.00,10.00,29.69,
CUT,2022-05-13 11:53,-103.6114,43.7331,38.00,30.90,250.00,10.00,23.00,10.00,29.84,
PIR,2022-05-13 11:53,-100.2860,44.3827,53.00,39.00,240.00,17.00,25.00,10.00,29.78,
ATY,2022-05-13 11:53,-97.1547,44.9140,52.00,45.00,200.00,13.00,,10.00,29.78,
ICR,2022-05-13 11:53,-99.8422,43.3903,49.00,41.00,240.00,11.00,,10.00,29.86,
BBW,2022-05-13 11:53,-99.6385,41.4365,48.00,37.00,240.00,7.00,,10.00,29.99,
DBQ,2022-05-13 11:53,-90.7091,42.3984,70.00,60.00,290.00,5.00,,10.00,29.96,
AXN,2022-05-13 11:53,-95.3947,45.8663,57.00,51.00,210.00,11.00,,10.00,,
ODX,2022-05-13 11:53,-98.9517,41.6236,46.00,40.00,0.00,0.00,,10.00,29.96,
PKD,2022-05-13 11:53,-95.0700,46.9000,59.00,49.00,210.00,16.00,29.00,10.00,29.70,
MIW,2022-05-13 11:53,-92.9163,42.1106,63.00,53.00,150.00,10.00,,10.00,29.88,
SPW,2022-05-13 11:53,-95.2101,43.1682,61.00,51.00,240.00,14.00,,10.00,29.86,
LBF,2022-05-13 11:53,-100.6690,41.1219,41.00,35.00,100.00,3.00,,10.00,30.02,
DVP,2022-05-13 11:53,-95.7826,43.9868,54.70,47.00,250.00,14.00,19.00,10.00,29.85,
HEI,2022-05-13 11:53,-102.6560,46.0149,45.00,38.00,270.00,35.00,48.00,10.00,29.57,
MHE,2022-05-13 11:53,-98.0386,43.7748,52.00,44.00,220.00,6.00,,10.00,29.86,
MCW,2022-05-13 11:53,-93.3261,43.1544,62.00,51.00,180.00,9.00,,10.00,29.89,
HIB,2022-05-13 11:53,-92.8390,47.3866,53.00,51.00,140.00,15.00,22.00,10.00,29.73,
HSI,2022-05-13 11:53,-98.4279,40.6052,53.00,42.00,0.00,0.00,,10.00,29.99,
MIC,2022-05-13 11:53,-93.3511,45.0622,65.00,56.00,190.00,6.00,,10.00,29.80,
LWD,2022-05-13 11:53,-93.9005,40.6306,65.00,53.00,160.00,7.00,,10.00,29.91,
GRI,2022-05-13 11:53,-98.3096,40.9675,51.00,42.00,0.00,0.00,,10.00,29.98,
BDE,2022-05-13 11:53,-94.6122,48.7284,62.00,57.00,140.00,10.00,19.00,10.00,29.63,
MSP,2022-05-13 11:53,-93.2313,44.8854,67.00,55.00,240.00,6.00,,10.00,29.82,
BRL,2022-05-13 11:53,-91.1255,40.7729,71.00,57.00,350.00,7.00,,10.00,29.95,
OTM,2022-05-13 11:53,-92.4446,41.1008,62.00,55.00,100.00,4.00,,9.00,29.94,
DSM,2022-05-13 11:54,-93.6531,41.5339,66.00,52.00,140.00,16.00,,10.00,29.83,
ALO,2022-05-13 11:54,-92.4013,42.5544,65.00,54.00,140.00,6.00,,10.00,29.88,
INL,2022-05-13 11:54,-93.3956,48.5595,59.00,57.00,150.00,8.00,,10.00,29.68,
RST,2022-05-13 11:54,-92.4916,43.9041,64.00,54.00,160.00,8.00,,10.00,29.87,
TQE,2022-05-13 11:54,-96.1779,41.7635,60.00,52.00,270.00,9.00,,10.00,29.91,
LNK,2022-05-13 11:54,-96.7633,40.8312,60.00,56.00,0.00,0.00,,10.00,29.97,
MOT,2022-05-13 11:54,-101.2803,48.2594,51.00,49.00,290.00,3.00,,3.00,29.11,BR
SGS,2022-05-13 11:55,-93.0329,44.8571,67.60,56.30,190.00,8.00,,10.00,29.82,
ACQ,2022-05-13 11:55,-93.5529,44.0735,62.60,53.60,190.00,9.00,,,29.87,
AEL,2022-05-13 11:55,-93.3672,43.6815,64.40,51.80,150.00,4.00,,10.00,29.85,
PNM,2022-05-13 11:55,-93.6082,45.5599,62.60,59.00,160.00,4.00,,10.00,29.80,
GHW,2022-05-13 11:55,-95.3204,45.6439,57.20,50.00,220.00,14.00,,10.00,29.77,
AIT,2022-05-13 11:55,-93.6768,46.5484,60.80,57.20,170.00,5.00,,10.00,29.75,
AUM,2022-05-13 11:55,-92.9333,43.6647,64.40,53.60,190.00,4.00,,10.00,29.86,
HCO,2022-05-13 11:55,-96.9430,48.7527,57.20,53.60,160.00,23.00,30.00,10.00,29.47,
MJQ,2022-05-13 11:55,-94.9865,43.6500,59.00,50.00,240.00,14.00,19.00,10.00,29.84,
JMR,2022-05-13 11:55,-93.2718,45.8861,60.80,60.80,160.00,5.00,,10.00,29.81,
ULM,2022-05-13 11:55,-94.5000,44.3200,59.00,51.80,240.00,6.00,,10.00,29.81,
PQN,2022-05-13 11:55,-96.3004,43.9821,51.80,46.40,260.00,6.00,,10.00,29.85,
RGK,2022-05-13 11:55,-92.4868,44.5915,69.80,55.40,150.00,5.00,,10.00,29.82,
ROX,2022-05-13 11:55,-95.6971,48.8560,60.80,55.40,170.00,14.00,,10.00,29.56,
ONA,2022-05-13 11:55,-91.7083,44.0772,69.80,57.20,150.00,6.00,,10.00,29.86,
BVN,2022-05-13 11:55,-98.0558,41.7286,50.00,43.70,310.00,8.00,,10.00,29.96,
BIE,2022-05-13 11:55,-96.7541,40.3013,59.50,57.20,0.00,0.00,,10.00,29.98,
FET,2022-05-13 11:55,-96.5200,41.4500,59.20,48.20,270.00,5.00,,10.00,29.94,
BJI,2022-05-13 11:55,-94.9337,47.5094,60.00,48.40,200.00,12.00,20.00,10.00,29.67,
BBB,2022-05-13 11:55,-95.6506,45.3319,57.20,48.20,250.00,9.00,,10.00,29.79,
COQ,2022-05-13 11:55,-92.5036,46.7011,46.40,46.40,110.00,5.00,,0.25,29.75,-RA
DYT,2022-05-13 11:55,-92.0434,46.7219,41.00,41.00,50.00,21.00,,0.25,29.79,-RA FG
ELO,2022-05-13 11:55,-91.8371,47.8287,53.60,53.60,140.00,11.00,18.00,10.00,29.80,
FGN,2022-05-13 11:55,-94.9028,49.3183,53.60,51.80,140.00,9.00,16.00,7.00,29.59,
FSE,2022-05-13 11:55,-95.7735,47.5928,55.40,46.40,180.00,20.00,26.00,10.00,29.62,
HCD,2022-05-13 11:55,-94.3825,44.8599,61.00,52.20,230.00,6.00,,10.00,29.81,
DXX,2022-05-13 11:55,-96.1779,44.9864,57.20,46.40,240.00,10.00,15.00,10.00,29.82,
ANE,2022-05-13 11:55,-93.2102,45.1449,66.20,57.20,220.00,5.00,,10.00,29.81,
MZH,2022-05-13 11:55,-92.8048,46.4186,55.40,53.60,0.00,0.00,,7.00,29.76,
BDH,2022-05-13 11:55,-95.1304,45.1177,60.80,48.20,250.00,15.00,,10.00,29.82,
CFE,2022-05-13 11:55,-93.8433,45.1590,60.80,55.40,170.00,6.00,,10.00,29.79,
TOB,2022-05-13 11:55,-92.8315,44.0180,64.40,51.80,150.00,5.00,,10.00,29.85,
Y63,2022-05-13 11:55,-95.9920,45.9861,53.00,47.70,210.00,13.00,19.00,10.00,29.74,
GYL,2022-05-13 11:55,-94.0812,44.7560,60.80,54.30,220.00,3.00,,10.00,29.80,
GDB,2022-05-13 11:55,-95.5560,44.7533,58.30,49.30,230.00,12.00,,10.00,29.83,
14Y,2022-05-13 11:55,-94.8739,45.8983,57.20,51.80,220.00,11.00,,10.00,29.76,
LYV,2022-05-13 11:55,-96.2158,43.6212,51.80,44.60,240.00,4.00,,10.00,29.88,
HZX,2022-05-13 11:55,-93.3098,46.6188,59.00,55.40,210.00,3.00,,10.00,29.76,
LVN,2022-05-13 11:55,-93.2273,44.6252,68.00,51.80,0.00,0.00,,10.00,29.82,
VVV,2022-05-13 11:55,-96.4244,45.3057,55.40,46.40,220.00,7.00,14.00,10.00,29.77,
PEX,2022-05-13 11:55,-94.7466,45.3723,59.00,50.00,240.00,13.00,,10.00,29.78,
PWC,2022-05-13 11:55,-94.3817,46.7248,62.60,55.40,220.00,9.00,,10.00,29.77,
9MN,2022-05-13 11:55,-92.4831,44.0198,66.20,52.20,140.00,9.00,,10.00,29.87,
ROS,2022-05-13 11:55,-92.9530,45.6980,61.70,59.00,230.00,4.00,,10.00,29.80,
D39,2022-05-13 11:55,-94.9334,45.7066,58.30,50.50,220.00,13.00,16.00,10.00,29.76,
SYN,2022-05-13 11:55,-93.0145,44.4736,66.20,56.50,180.00,6.00,,10.00,29.81,
SAZ,2022-05-13 11:55,-94.8066,46.3809,60.80,51.80,210.00,7.00,,10.00,29.74,
JYG,2022-05-13 11:55,-94.5579,43.9863,60.80,51.80,240.00,10.00,,10.00,29.81,
21D,2022-05-13 11:55,-92.8557,44.9975,66.20,57.20,180.00,6.00,,10.00,29.83,
TKC,2022-05-13 11:55,-95.6072,44.2491,58.50,44.60,260.00,5.00,,10.00,29.84,
RRT,2022-05-13 11:55,-95.3483,48.9414,55.40,51.80,170.00,9.00,,10.00,29.59,
MWM,2022-05-13 11:55,-95.1094,43.9134,60.80,48.20,220.00,15.00,22.00,10.00,29.83,
OVL,2022-05-13 11:55,-95.0328,44.7786,59.00,46.40,260.00,16.00,23.00,10.00,29.79,
EVM,2022-05-13 11:55,-92.4981,47.4251,51.80,51.80,130.00,9.00,14.00,10.00,29.76,
ANW,2022-05-13 11:55,-99.9930,42.5792,45.00,38.50,230.00,9.00,,10.00,29.92,
AUH,2022-05-13 11:55,-97.9946,40.8941,51.00,45.00,260.00,3.00,,10.00,29.97,
PMV,2022-05-13 11:55,-95.9179,40.9502,60.30,56.70,190.00,8.00,,10.00,29.97,
AHQ,2022-05-13 11:55,-96.5946,41.2406,59.20,47.80,270.00,6.00,,10.00,29.96,
CKN,2022-05-13 11:55,-96.6214,47.8417,53.60,,190.00,22.00,29.00,10.00,29.56,
FBL,2022-05-13 11:55,-93.3108,44.3247,66.20,53.60,180.00,8.00,,10.00,29.85,
FFM,2022-05-13 11:55,-96.1567,46.2844,55.40,48.20,210.00,14.00,19.00,10.00,29.68,
04W,2022-05-13 11:55,-92.8952,46.0229,60.80,60.80,220.00,7.00,,10.00,29.80,
LXL,2022-05-13 11:55,-94.3469,45.9492,60.80,55.40,220.00,6.00,,10.00,29.76,
JKJ,2022-05-13 11:55,-96.6640,46.8393,53.60,46.40,190.00,17.00,23.00,10.00,29.63,
VWU,2022-05-13 11:55,-94.5167,48.1539,64.40,59.00,180.00,6.00,,10.00,29.65,
Y49,2022-05-13 11:55,-94.6453,47.1595,60.30,53.60,200.00,11.00,25.00,10.00,29.69,
GRN,2022-05-13 11:55,-102.1753,42.8060,42.30,36.00,250.00,13.00,16.00,10.00,29.94,
AWG,2022-05-13 11:55,-91.6748,41.2751,64.40,59.00,0.00,0.00,,8.00,29.94,
CSQ,2022-05-13 11:55,-94.3608,41.0188,62.60,62.60,240.00,13.00,,10.00,29.92,
FSW,2022-05-13 11:55,-91.3267,40.6615,69.80,59.00,10.00,4.00,,10.00,29.96,
EOK,2022-05-13 11:55,-91.4274,40.4615,69.80,62.60,350.00,3.00,,10.00,29.96,
MPZ,2022-05-13 11:55,-91.5122,40.9453,68.00,57.20,0.00,0.00,,10.00,29.97,
D60,2022-05-13 11:55,-102.8974,48.3803,46.40,46.40,320.00,27.00,32.00,3.00,29.24,RA
06D,2022-05-13 11:55,-99.6208,48.8844,50.00,50.00,140.00,26.00,36.00,10.00,29.25,
IBM,2022-05-13 11:55,-103.6774,41.1881,38.30,21.20,250.00,9.00,,10.00,30.05,
HJH,2022-05-13 11:55,-97.5870,40.1523,56.00,47.70,0.00,0.00,,10.00,29.99,
LXN,2022-05-13 11:55,-99.7759,40.7904,44.40,39.00,350.00,4.00,,10.00,30.01,
MLE,2022-05-13 11:55,-96.1120,41.1960,59.00,56.30,260.00,3.00,,10.00,29.96,
AFK,2022-05-13 11:55,-95.8657,40.6069,60.80,57.20,210.00,9.00,,10.00,29.98,
OGA,2022-05-13 11:55,-101.7697,41.1195,41.00,32.20,180.00,4.00,,10.00,30.02,
ONL,2022-05-13 11:55,-98.6881,42.4697,47.80,41.00,220.00,10.00,,10.00,29.93,
JYR,2022-05-13 11:55,-97.6228,40.8967,53.60,46.40,0.00,0.00,,10.00,29.98,
2D5,2022-05-13 11:55,-98.0799,46.1731,51.80,46.40,200.00,28.00,,10.00,29.60,
S25,2022-05-13 11:55,-103.2552,47.7966,46.40,46.40,280.00,17.00,23.00,3.00,29.34,RA
ICL,2022-05-13 11:55,-95.0223,40.7242,60.80,59.00,220.00,6.00,,10.00,29.98,
OLZ,2022-05-13 11:55,-91.9760,42.6831,62.60,55.40,140.00,6.00,,10.00,29.92,
SLB,2022-05-13 11:55,-95.2399,42.5972,59.00,53.60,240.00,12.00,,10.00,29.88,
RDK,2022-05-13 11:55,-95.2624,41.0106,60.80,57.20,240.00,7.00,,10.00,29.95,
SDA,2022-05-13 11:55,-95.4112,40.7533,60.80,59.00,180.00,6.00,,10.00,29.96,
DEH,2022-05-13 11:55,-91.7433,43.2755,66.20,57.20,150.00,5.00,,10.00,29.89,
VTI,2022-05-13 11:55,-92.0248,42.2176,65.00,55.40,0.00,0.00,,10.00,29.93,
CKP,2022-05-13 11:55,-95.5538,42.7304,57.00,54.30,230.00,4.00,,10.00,29.89,
OOA,2022-05-13 11:55,-92.4919,41.2273,65.50,55.20,100.00,4.00,,10.00,29.94,
SHL,2022-05-13 11:55,-95.8353,43.2082,55.40,50.00,240.00,8.00,,10.00,29.87,
TVK,2022-05-13 11:55,-92.8983,40.6832,62.60,55.40,70.00,7.00,,10.00,29.94,
I75,2022-05-13 11:55,-93.6876,41.0472,65.50,55.80,110.00,9.00,,10.00,29.87,
PRO,2022-05-13 11:55,-94.1637,41.8278,65.70,54.70,170.00,4.00,,10.00,29.88,
CCY,2022-05-13 11:55,-92.6132,43.0730,64.40,53.60,140.00,7.00,,10.00,29.88,
LRJ,2022-05-13 11:55,-96.1923,42.7754,57.20,46.40,220.00,8.00,,10.00,29.89,
AXA,2022-05-13 11:55,-94.2724,43.0796,60.80,60.80,200.00,8.00,,10.00,29.84,
CIN,2022-05-13 11:55,-94.7889,42.0444,62.60,57.20,290.00,9.00,,10.00,29.86,
HNR,2022-05-13 11:55,-95.3355,41.5834,59.00,59.00,230.00,7.00,,10.00,29.90,
MUT,2022-05-13 11:55,-91.1406,41.3670,69.80,60.80,330.00,3.00,,10.00,29.96,
MXO,2022-05-13 11:55,-91.1605,42.2204,69.80,59.00,0.00,0.00,,10.00,29.94,
GGI,2022-05-13 11:55,-92.7332,41.7097,64.20,54.70,130.00,8.00,,10.00,29.92,
PEA,2022-05-13 11:55,-92.9431,41.3989,62.00,53.20,120.00,7.00,,10.00,29.90,
EBS,2022-05-13 11:55,-93.8691,42.4392,62.60,57.20,200.00,6.00,11.00,10.00,29.87,
CAV,2022-05-13 11:55,-93.7593,42.7430,64.40,55.40,,5.00,,10.00,29.87,
DNS,2022-05-13 11:55,-95.3800,41.9842,59.00,57.20,240.00,4.00,,10.00,29.91,
FFL,2022-05-13 11:55,-91.9834,41.0521,64.40,57.20,0.00,0.00,,10.00,29.96,
TNU,2022-05-13 11:55,-93.0190,41.6701,60.80,57.20,140.00,7.00,,10.00,29.89,
9V9,2022-05-13 11:55,-99.3183,43.7667,49.50,42.60,240.00,8.00,,10.00,29.84,
96D,2022-05-13 11:55,-97.9028,48.9406,55.40,55.40,150.00,18.00,,10.00,29.39,
S32,2022-05-13 11:55,-98.1059,47.4228,51.80,51.80,190.00,26.00,36.00,10.00,29.45,
SPF,2022-05-13 11:55,-103.7830,44.4803,48.20,32.00,270.00,23.00,35.00,10.00,29.76,
HPT,2022-05-13 11:55,-93.2244,42.7175,62.60,53.60,210.00,4.00,,10.00,29.90,
SXK,2022-05-13 11:55,-96.1614,42.9858,55.40,48.20,250.00,6.00,,10.00,29.89,
20U,2022-05-13 11:55,-103.9821,46.9252,39.20,39.20,290.00,29.00,44.00,8.00,29.55,-DZ
BWW,2022-05-13 11:55,-103.3007,46.1655,41.00,41.00,290.00,31.00,44.00,10.00,29.58,
9D7,2022-05-13 11:55,-99.2364,48.4800,51.80,,160.00,24.00,37.00,6.00,29.28,HZ
46D,2022-05-13 11:55,-99.1513,47.4511,51.80,46.40,200.00,29.00,39.00,10.00,29.36,
2C8,2022-05-13 11:55,-97.6320,48.7837,55.40,51.80,170.00,22.00,35.00,10.00,29.40,
D50,2022-05-13 11:55,-103.2973,48.9285,44.60,44.60,330.00,21.00,28.00,3.00,29.29,+RA
D57,2022-05-13 11:55,-101.8602,46.8128,48.20,42.80,270.00,34.00,46.00,10.00,29.34,
GWR,2022-05-13 11:55,-97.6435,46.2187,51.80,51.80,210.00,25.00,31.00,10.00,29.61,
5H4,2022-05-13 11:55,-99.9317,47.7912,50.00,50.00,200.00,31.00,38.00,10.00,29.21,
BWP,2022-05-13 11:55,-96.6074,46.2441,53.60,46.40,210.00,17.00,23.00,10.00,29.66,
BTN,2022-05-13 11:55,-97.7428,45.8150,51.80,46.40,210.00,23.00,33.00,10.00,29.65,
HON,2022-05-13 11:55,-98.2286,44.3852,51.00,45.00,190.00,9.00,,10.00,29.82,
CQM,2022-05-13 11:55,-92.6894,47.8219,55.40,53.60,130.00,10.00,20.00,10.00,29.71,
DTL,2022-05-13 11:55,-95.8856,46.8252,55.40,44.60,200.00,18.00,25.00,10.00,29.67,
IKV,2022-05-13 11:55,-93.5695,41.6878,66.20,53.60,140.00,13.00,,9.00,29.84,
AIO,2022-05-13 11:55,-95.0465,41.4059,60.80,60.80,200.00,7.00,,10.00,29.91,
ADU,2022-05-13 11:55,-94.9204,41.6994,60.80,55.40,250.00,4.00,,10.00,29.90,
BNW,2022-05-13 11:55,-93.8486,42.0486,64.40,59.00,150.00,18.00,,10.00,29.86,
CNC,2022-05-13 11:55,-93.3608,41.0184,62.60,59.00,120.00,6.00,,10.00,29.89,
CBF,2022-05-13 11:55,-95.7604,41.2611,59.00,57.20,230.00,8.00,,10.00,29.93,
FXY,2022-05-13 11:55,-93.6237,43.2323,59.00,53.60,150.00,5.00,,10.00,29.89,
OXV,2022-05-13 11:55,-93.1114,41.2984,62.60,51.80,140.00,6.00,,10.00,29.90,
LCG,2022-05-13 11:55,-96.9814,42.2419,53.40,46.00,230.00,4.00,,10.00,29.92,
HDE,2022-05-13 11:55,-99.3365,40.4521,50.20,38.00,300.00,5.00,,10.00,29.99,
IFA,2022-05-13 11:55,-93.2651,42.4691,64.60,55.00,140.00,9.00,,10.00,29.89,
PHP,2022-05-13 11:55,-101.6000,44.0500,46.00,40.00,250.00,8.00,,10.00,29.80,
DLH,2022-05-13 11:55,-92.1936,46.8421,49.00,49.00,110.00,13.00,,0.12,29.77,FG
3N8,2022-05-13 11:55,-95.9281,47.2605,56.00,47.00,190.00,27.00,33.00,10.00,29.63,
TIF,2022-05-13 11:55,-100.5690,41.9622,44.00,37.00,250.00,3.00,,10.00,29.98,
FKA,2022-05-13 11:55,-92.1797,43.6767,64.00,53.80,160.00,7.00,,7.00,29.89,
BTA,2022-05-13 11:55,-96.1090,41.4148,58.00,55.20,240.00,5.00,,10.00,29.94,
FRM,2022-05-13 11:56,-94.4156,43.6439,60.00,54.00,190.00,8.00,,10.00,29.85,
GPZ,2022-05-13 11:56,-93.5097,47.2111,56.00,55.00,160.00,8.00,,10.00,29.75,
TVF,2022-05-13 11:56,-96.1850,48.0657,56.00,50.00,190.00,20.00,28.00,10.00,29.58,
EAR,2022-05-13 11:56,-99.0068,40.7270,52.00,41.00,290.00,7.00,,10.00,29.98,
MKT,2022-05-13 11:56,-93.9200,44.2200,63.00,55.00,200.00,6.00,,10.00,29.83,
JMS,2022-05-13 11:56,-98.6800,46.9300,52.00,43.00,210.00,19.00,33.00,10.00,29.44,
MML,2022-05-13 11:56,-95.8200,44.4500,56.00,48.00,250.00,10.00,,10.00,29.83,
OFF,2022-05-13 11:56,-95.9125,41.1183,61.20,56.30,230.00,3.00,,10.00,29.98,
RDR,2022-05-13 11:56,-97.4012,47.9611,53.20,47.30,180.00,20.00,29.00,10.00,29.47,
D07,2022-05-13 11:56,-102.0200,45.0300,49.00,41.00,260.00,26.00,36.00,,29.69,
FSD,2022-05-13 11:56,-96.7536,43.5769,55.00,45.00,240.00,4.00,,10.00,29.87,
8D3,2022-05-13 11:56,-96.9914,45.6689,56.00,45.00,200.00,15.00,21.00,,29.71,
YKN,2022-05-13 11:56,-97.3859,42.9167,55.00,45.00,230.00,6.00,,10.00,29.91,
OTG,2022-05-13 11:56,-95.5792,43.6551,57.00,47.00,240.00,13.00,21.00,10.00,29.86,
OFK,2022-05-13 11:56,-97.4351,41.9855,57.00,42.00,260.00,7.00,,10.00,29.93,
FOD,2022-05-13 11:56,-94.2032,42.5497,63.00,56.00,170.00,4.00,,10.00,29.88,
DIK,2022-05-13 11:56,-102.8019,46.7973,43.00,40.00,280.00,33.00,50.00,8.00,29.40,
2WX,2022-05-13 11:56,-103.5464,45.6044,46.00,40.00,280.00,38.00,47.00,,29.60,
OLU,2022-05-13 11:56,-97.3426,41.4480,58.00,44.00,210.00,3.00,,10.00,29.97,
GNA,2022-05-13 11:56,-90.3457,47.7453,44.00,42.00,80.00,12.00,,,29.88,
DVL,2022-05-13 11:56,-98.9083,48.1146,51.00,47.00,180.00,23.00,34.00,10.00,29.31,
CWI,2022-05-13 11:56,-90.3328,41.8295,71.00,61.00,180.00,5.00,,10.00,29.96,
1HW,2022-05-13 11:58,-102.8289,41.3251,39.70,25.70,270.00,12.00,,10.00,30.02,
1CW,2022-05-13 11:58,-103.6706,41.5900,45.30,18.50,240.00,11.00,,10.00,30.02,
1BW,2022-05-13 11:58,-103.9950,41.5117,42.40,18.00,270.00,15.00,,10.00,30.02,
PNM,2022-05-13 12:15,-93.6082,45.5599,64.40,59.00,150.00,5.00,,10.00,29.80,
FSE,2022-05-13 12:15,-95.7735,47.5928,55.40,44.60,190.00,27.00,35.00,10.00,29.62,
SYN,2022-05-13 12:15,-93.0145,44.4736,66.20,56.50,190.00,7.00,,10.00,29.83,
MGG,2022-05-13 12:25,-93.9856,45.2360,62.60,50.00,230.00,5.00,,10.00,29.80,
ORB,2022-05-13 12:33,-92.8560,48.0159,57.20,55.40,180.00,11.00,18.00,10.00,29.73,
EVM,2022-05-13 12:35,-92.4981,47.4251,53.60,53.60,150.00,4.00,,10.00,29.76,
XWA,2022-05-13 12:51,-103.7505,48.2597,44.00,43.00,310.00,22.00,33.00,2.50,29.35,RA BR
N60,2022-05-13 12:52,-101.4394,47.6458,49.00,46.00,240.00,22.00,34.00,,29.21,
IOW,2022-05-13 12:52,-91.5445,41.6394,72.00,55.00,130.00,5.00,,10.00,29.94,
EST,2022-05-13 12:52,-94.7476,43.4008,62.00,50.00,260.00,18.00,26.00,10.00,29.86,
SUX,2022-05-13 12:52,-96.3795,42.3917,58.00,48.00,270.00,4.00,,10.00,29.95,
RAP,2022-05-13 12:52,-103.0574,44.0453,49.00,37.00,220.00,8.00,,10.00,29.84,
OMA,2022-05-13 12:52,-95.8992,41.3103,64.00,53.00,260.00,6.00,,10.00,29.96,
VTN,2022-05-13 12:52,-100.5489,42.8567,55.00,38.00,250.00,17.00,23.00,10.00,29.92,
CID,2022-05-13 12:52,-91.7246,41.8829,70.00,56.00,110.00,7.00,,10.00,29.92,
DVN,2022-05-13 12:52,-90.5948,41.6133,75.00,58.00,310.00,11.00,,10.00,29.97,
BIS,2022-05-13 12:52,-100.7458,46.7727,52.00,44.00,240.00,21.00,36.00,10.00,29.43,
MBG,2022-05-13 12:52,-100.4078,45.5464,54.00,42.00,240.00,16.00,28.00,10.00,29.63,
IEN,2022-05-13 12:52,-102.5110,43.0225,48.00,38.00,200.00,11.00,,10.00,29.95,
IML,2022-05-13 12:53,-101.6201,40.5103,49.00,36.00,230.00,7.00,,10.00,30.07,
SNY,2022-05-13 12:53,-102.9847,41.1014,50.00,24.10,310.00,10.00,,10.00,30.04,
MCK,2022-05-13 12:53,-100.5921,40.2063,45.00,36.00,220.00,4.00,,10.00,30.04,
AXN,2022-05-13 12:53,-95.3947,45.8663,57.00,48.00,230.00,17.00,24.00,10.00,29.79,
BRD,2022-05-13 12:53,-94.1308,46.4047,64.00,52.00,220.00,9.00,,10.00,,
HIB,2022-05-13 12:53,-92.8390,47.3866,54.00,52.00,160.00,6.00,,10.00,29.76,
MSP,2022-05-13 12:53,-93.2313,44.8854,68.00,54.00,210.00,8.00,,10.00,29.84,
RWF,2022-05-13 12:53,-95.0820,44.5469,60.00,48.00,250.00,13.00,19.00,10.00,29.82,
FNB,2022-05-13 12:53,-95.5920,40.0788,62.00,59.00,260.00,4.00,,10.00,29.98,
HSI,2022-05-13 12:53,-98.4279,40.6052,54.00,45.00,0.00,0.00,,10.00,30.04,
OWA,2022-05-13 12:53,-93.2606,44.1233,66.20,53.60,200.00,8.00,,10.00,29.86,
BFF,2022-05-13 12:53,-103.5956,41.8740,50.00,27.00,200.00,6.00,,10.00,30.03,
AQP,2022-05-13 12:53,-96.0043,45.2275,59.00,46.40,230.00,17.00,21.00,10.00,29.79,
FOZ,2022-05-13 12:53,-93.6502,47.7828,60.80,57.20,160.00,8.00,16.00,10.00,29.76,
XVG,2022-05-13 12:53,-94.2039,46.9900,62.60,51.80,190.00,7.00,,10.00,29.71,
FAR,2022-05-13 12:53,-96.8111,46.9253,54.00,45.00,190.00,25.00,36.00,10.00,29.61,
MIW,2022-05-13 12:53,-92.9163,42.1106,69.00,54.00,110.00,12.00,,10.00,29.86,
LBF,2022-05-13 12:53,-100.6690,41.1219,50.00,41.00,0.00,0.00,,10.00,30.03,
MHE,2022-05-13 12:53,-98.0386,43.7748,56.00,45.00,220.00,11.00,17.00,10.00,29.88,
AIA,2022-05-13 12:53,-102.8000,42.0572,47.00,30.00,180.00,10.00,,10.00,30.01,
ORB,2022-05-13 12:53,-92.8560,48.0159,57.20,55.40,170.00,11.00,,10.00,29.73,
DVP,2022-05-13 12:53,-95.7826,43.9868,55.00,47.30,250.00,9.00,,10.00,29.88,
ABR,2022-05-13 12:53,-98.4200,45.4500,55.00,46.00,210.00,21.00,30.00,10.00,29.71,
CUT,2022-05-13 12:53,-103.6114,43.7331,39.00,32.00,250.00,11.00,24.00,10.00,29.88,
PIR,2022-05-13 12:53,-100.2860,44.3827,56.00,39.00,250.00,15.00,24.00,10.00,29.77,
ATY,2022-05-13 12:53,-97.1547,44.9140,55.00,45.00,220.00,19.00,28.00,10.00,29.79,
ICR,2022-05-13 12:53,-99.8422,43.3903,53.00,41.00,220.00,12.00,,10.00,29.87,
BBW,2022-05-13 12:53,-99.6385,41.4365,51.00,39.00,270.00,6.00,,10.00,30.00,
DBQ,2022-05-13 12:53,-90.7091,42.3984,73.00,58.00,0.00,0.00,,10.00,29.96,
MCW,2022-05-13 12:53,-93.3261,43.1544,63.00,51.00,190.00,4.00,,10.00,29.88,
CDR,2022-05-13 12:53,-103.0954,42.8376,48.00,35.00,240.00,9.00,,10.00,29.94,
HEI,2022-05-13 12:53,-102.6560,46.0149,45.00,38.00,270.00,27.00,43.00,10.00,29.61,
BDE,2022-05-13 12:53,-94.6122,48.7284,64.00,58.00,160.00,9.00,,10.00,29.62,
STC,2022-05-13 12:53,-94.0513,45.5433,63.00,51.00,230.00,8.00,,10.00,29.78,
ODX,2022-05-13 12:53,-98.9517,41.6236,52.00,42.00,280.00,8.00,,10.00,29.97,
LWD,2022-05-13 12:53,-93.9005,40.6306,68.00,53.00,270.00,13.00,29.00,10.00,29.93,-RA
GRI,2022-05-13 12:53,-98.3096,40.9675,55.00,42.00,120.00,5.00,,10.00,30.02,
GFK,2022-05-13 12:53,-97.1761,47.9492,55.00,47.00,180.00,26.00,35.00,10.00,29.49,
FCM,2022-05-13 12:53,-93.4607,44.8261,65.00,56.00,230.00,5.00,,10.00,29.83,
PKD,2022-05-13 12:53,-95.0700,46.9000,60.00,47.00,210.00,19.00,29.00,10.00,29.69,
MIC,2022-05-13 12:53,-93.3511,45.0622,67.00,56.00,190.00,8.00,,10.00,29.82,
STP,2022-05-13 12:53,-93.0600,44.9345,69.00,56.00,200.00,4.00,,10.00,29.83,
BRL,2022-05-13 12:53,-91.1255,40.7729,74.00,56.00,360.00,12.00,17.00,10.00,29.95,
OTM,2022-05-13 12:53,-92.4446,41.1008,69.00,56.00,110.00,9.00,,10.00,29.93,
SPW,2022-05-13 12:53,-95.2101,43.1682,60.00,47.00,270.00,13.00,,10.00,29.90,
AMW,2022-05-13 12:53,-93.6185,41.9904,67.00,55.00,250.00,9.00,,10.00,29.93,
LNK,2022-05-13 12:54,-96.7633,40.8312,61.00,54.00,230.00,3.00,,10.00,30.01,
ALO,2022-05-13 12:54,-92.4013,42.5544,70.00,55.00,150.00,7.00,,10.00,29.87,
INL,2022-05-13 12:54,-93.3956,48.5595,60.00,57.00,150.00,10.00,,10.00,29.69,
RST,2022-05-13 12:54,-92.4916,43.9041,67.00,54.00,170.00,8.00,,10.00,29.87,
TQE,2022-05-13 12:54,-96.1779,41.7635,59.00,50.00,260.00,8.00,,10.00,29.96,
MOT,2022-05-13 12:54,-101.2803,48.2594,52.00,49.00,220.00,5.00,,10.00,29.11,
DSM,2022-05-13 12:54,-93.6531,41.5339,67.00,53.00,260.00,10.00,,10.00,29.92,
S32,2022-05-13 12:55,-98.1059,47.4228,51.80,51.80,190.00,30.00,37.00,10.00,29.45,
OXV,2022-05-13 12:55,-93.1114,41.2984,68.00,51.80,130.00,14.00,,10.00,29.89,
CCY,2022-05-13 12:55,-92.6132,43.0730,68.00,53.60,170.00,7.00,13.00,10.00,29.89,
IFA,2022-05-13 12:55,-93.2651,42.4691,67.80,55.20,240.00,10.00,14.00,10.00,29.92,
VTI,2022-05-13 12:55,-92.0248,42.2176,72.70,54.70,140.00,6.00,,10.00,29.90,
CNC,2022-05-13 12:55,-93.3608,41.0184,68.00,57.20,130.00,9.00,14.00,10.00,29.90,
CSQ,2022-05-13 12:55,-94.3608,41.0188,62.60,62.60,240.00,12.00,,10.00,29.97,
AWG,2022-05-13 12:55,-91.6748,41.2751,71.60,55.40,100.00,6.00,,10.00,29.93,
FSW,2022-05-13 12:55,-91.3267,40.6615,71.60,57.20,40.00,6.00,,10.00,29.96,
EOK,2022-05-13 12:55,-91.4274,40.4615,71.60,60.80,40.00,5.00,11.00,10.00,29.96,
MPZ,2022-05-13 12:55,-91.5122,40.9453,73.40,59.00,90.00,3.00,,10.00,29.96,
ACQ,2022-05-13 12:55,-93.5529,44.0735,62.60,53.60,210.00,8.00,,,29.87,
AEL,2022-05-13 12:55,-93.3672,43.6815,64.40,53.60,200.00,6.00,,10.00,29.90,
PNM,2022-05-13 12:55,-93.6082,45.5599,66.20,57.20,180.00,7.00,,10.00,29.81,
JMR,2022-05-13 12:55,-93.2718,45.8861,64.40,60.80,190.00,6.00,,10.00,29.82,
AUM,2022-05-13 12:55,-92.9333,43.6647,66.20,55.40,190.00,5.00,,10.00,29.89,
HZE,2022-05-13 12:55,-101.5810,47.2899,48.20,48.20,250.00,30.00,39.00,10.00,29.31,
D55,2022-05-13 12:55,-98.3937,48.7531,51.80,51.80,160.00,25.00,32.00,10.00,29.34,
7L2,2022-05-13 12:55,-100.2456,46.2206,50.00,42.80,240.00,24.00,33.00,10.00,29.57,
06D,2022-05-13 12:55,-99.6208,48.8844,48.20,50.00,150.00,22.00,30.00,10.00,29.21,
D60,2022-05-13 12:55,-102.8974,48.3803,44.60,44.60,320.00,22.00,30.00,4.00,29.22,RA
AIT,2022-05-13 12:55,-93.6768,46.5484,64.40,55.40,190.00,8.00,,10.00,29.76,
GHW,2022-05-13 12:55,-95.3204,45.6439,57.20,48.20,220.00,19.00,22.00,10.00,29.80,
ULM,2022-05-13 12:55,-94.5000,44.3200,62.60,51.80,220.00,7.00,,10.00,29.85,
BJI,2022-05-13 12:55,-94.9337,47.5094,60.80,47.50,200.00,14.00,23.00,10.00,29.65,
COQ,2022-05-13 12:55,-92.5036,46.7011,48.20,46.40,140.00,7.00,,0.25,29.80,FG
DTL,2022-05-13 12:55,-95.8856,46.8252,55.40,44.60,200.00,15.00,25.00,10.00,29.68,
ELO,2022-05-13 12:55,-91.8371,47.8287,53.60,53.60,150.00,15.00,,10.00,29.75,
FSE,2022-05-13 12:55,-95.7735,47.5928,55.40,44.60,200.00,22.00,34.00,10.00,29.62,
HCO,2022-05-13 12:55,-96.9430,48.7527,55.40,51.80,160.00,28.00,33.00,10.00,29.47,
MJQ,2022-05-13 12:55,-94.9865,43.6500,59.00,50.00,260.00,12.00,16.00,10.00,29.88,
PQN,2022-05-13 12:55,-96.3004,43.9821,55.40,48.20,260.00,8.00,,10.00,29.87,
RGK,2022-05-13 12:55,-92.4868,44.5915,71.60,55.40,240.00,3.00,,10.00,29.84,
ROX,2022-05-13 12:55,-95.6971,48.8560,62.60,53.60,180.00,22.00,35.00,10.00,29.56,
ONA,2022-05-13 12:55,-91.7083,44.0772,73.40,59.00,130.00,6.00,,10.00,29.84,
LCG,2022-05-13 12:55,-96.9814,42.2419,55.40,47.30,230.00,4.00,,10.00,29.98,
BBB,2022-05-13 12:55,-95.6506,45.3319,55.40,46.40,250.00,10.00,,,29.81,
CQM,2022-05-13 12:55,-92.6894,47.8219,57.20,53.60,200.00,6.00,,10.00,29.76,
TOB,2022-05-13 12:55,-92.8315,44.0180,66.20,51.80,220.00,9.00,,10.00,29.88,
DYT,2022-05-13 12:55,-92.0434,46.7219,41.00,41.00,60.00,17.00,23.00,0.25,29.82,UP FG
HCD,2022-05-13 12:55,-94.3825,44.8599,62.00,51.80,230.00,7.00,,10.00,29.85,
DXX,2022-05-13 12:55,-96.1779,44.9864,60.80,46.40,240.00,15.00,19.00,10.00,29.83,
HZX,2022-05-13 12:55,-93.3098,46.6188,62.60,59.00,160.00,8.00,,10.00,29.77,
LVN,2022-05-13 12:55,-93.2273,44.6252,66.20,51.80,210.00,3.00,,10.00,29.85,
MZH,2022-05-13 12:55,-92.8048,46.4186,55.40,51.80,40.00,4.00,,1.00,29.80,BR
VVV,2022-05-13 12:55,-96.4244,45.3057,57.20,46.40,210.00,10.00,16.00,10.00,29.78,
PWC,2022-05-13 12:55,-94.3817,46.7248,62.60,51.80,220.00,11.00,15.00,10.00,29.76,
ROS,2022-05-13 12:55,-92.9530,45.6980,65.30,56.50,200.00,5.00,,10.00,29.82,
SAZ,2022-05-13 12:55,-94.8066,46.3809,62.60,48.20,220.00,10.00,,10.00,29.74,
JYG,2022-05-13 12:55,-94.5579,43.9863,62.60,51.80,250.00,13.00,17.00,10.00,29.85,
RRT,2022-05-13 12:55,-95.3483,48.9414,59.00,55.40,170.00,9.00,,10.00,29.58,
BDH,2022-05-13 12:55,-95.1304,45.1177,60.80,48.20,250.00,15.00,19.00,10.00,29.84,
MWM,2022-05-13 12:55,-95.1094,43.9134,59.00,48.20,250.00,15.00,,10.00,29.85,
CFE,2022-05-13 12:55,-93.8433,45.1590,64.40,53.60,200.00,6.00,,10.00,29.82,
Y63,2022-05-13 12:55,-95.9920,45.9861,54.70,48.20,220.00,17.00,23.00,10.00,29.76,
GDB,2022-05-13 12:55,-95.5560,44.7533,59.50,50.00,230.00,12.00,,10.00,29.86,
14Y,2022-05-13 12:55,-94.8739,45.8983,57.20,46.40,240.00,17.00,24.00,10.00,29.77,
LYV,2022-05-13 12:55,-96.2158,43.6212,55.40,46.40,250.00,10.00,,10.00,29.90,
OVL,2022-05-13 12:55,-95.0328,44.7786,59.00,48.20,270.00,14.00,,10.00,29.81,
PEX,2022-05-13 12:55,-94.7466,45.3723,59.00,48.20,250.00,13.00,20.00,10.00,29.80,
FKA,2022-05-13 12:55,-92.1797,43.6767,68.70,54.30,140.00,9.00,,7.00,29.86,
9MN,2022-05-13 12:55,-92.4831,44.0198,68.00,51.80,160.00,6.00,,10.00,29.87,
D39,2022-05-13 12:55,-94.9334,45.7066,58.00,48.20,240.00,15.00,22.00,10.00,29.78,
SYN,2022-05-13 12:55,-93.0145,44.4736,68.00,55.20,210.00,8.00,,10.00,29.84,
21D,2022-05-13 12:55,-92.8557,44.9975,68.00,55.40,220.00,7.00,,10.00,29.84,
TKC,2022-05-13 12:55,-95.6072,44.2491,58.50,44.60,260.00,9.00,,10.00,29.87,
RUG,2022-05-13 12:55,-100.0243,48.3904,50.00,50.00,190.00,24.00,30.00,10.00,29.13,
S25,2022-05-13 12:55,-103.2552,47.7966,42.80,42.80,280.00,21.00,35.00,4.00,29.35,-RA
IKV,2022-05-13 12:55,-93.5695,41.6878,68.00,53.60,250.00,12.00,,10.00,29.95,
AIO,2022-05-13 12:55,-95.0465,41.4059,60.80,60.80,260.00,9.00,,10.00,29.94,
CKP,2022-05-13 12:55,-95.5538,42.7304,58.30,54.30,250.00,6.00,,10.00,29.94,
ICL,2022-05-13 12:55,-95.0223,40.7242,62.60,60.80,210.00,8.00,,10.00,30.01,
DEH,2022-05-13 12:55,-91.7433,43.2755,69.80,57.20,130.00,6.00,,10.00,29.87,
OLZ,2022-05-13 12:55,-91.9760,42.6831,71.60,53.60,140.00,8.00,14.00,10.00,29.90,
RDK,2022-05-13 12:55,-95.2624,41.0106,60.80,59.00,180.00,7.00,,10.00,29.97,
SHL,2022-05-13 12:55,-95.8353,43.2082,57.20,50.00,250.00,9.00,,10.00,29.90,
SDA,2022-05-13 12:55,-95.4112,40.7533,62.60,60.80,240.00,8.00,,10.00,29.99,
SLB,2022-05-13 12:55,-95.2399,42.5972,59.00,53.60,260.00,14.00,,10.00,29.93,
AXA,2022-05-13 12:55,-94.2724,43.0796,62.60,60.80,220.00,6.00,,10.00,29.87,
ADU,2022-05-13 12:55,-94.9204,41.6994,60.80,55.40,250.00,3.00,,10.00,29.95,
CIN,2022-05-13 12:55,-94.7889,42.0444,64.40,53.60,250.00,16.00,,10.00,29.92,
FXY,2022-05-13 12:55,-93.6237,43.2323,64.40,53.60,0.00,0.00,,10.00,29.89,
HNR,2022-05-13 12:55,-95.3355,41.5834,59.00,59.00,240.00,5.00,,10.00,29.96,
LRJ,2022-05-13 12:55,-96.1923,42.7754,59.00,48.20,250.00,7.00,,10.00,29.92,
MUT,2022-05-13 12:55,-91.1406,41.3670,73.40,60.80,70.00,7.00,,10.00,29.94,
I75,2022-05-13 12:55,-93.6876,41.0472,66.20,55.40,270.00,9.00,,10.00,29.95,
PRO,2022-05-13 12:55,-94.1637,41.8278,65.70,57.00,210.00,6.00,,10.00,29.92,
MXO,2022-05-13 12:55,-91.1605,42.2204,73.40,57.20,110.00,4.00,,10.00,29.92,
PEA,2022-05-13 12:55,-92.9431,41.3989,70.50,53.60,120.00,11.00,,10.00,29.89,
EBS,2022-05-13 12:55,-93.8691,42.4392,66.20,57.20,210.00,6.00,,10.00,29.89,
BNW,2022-05-13 12:55,-93.8486,42.0486,66.20,59.00,200.00,5.00,,10.00,29.94,
CAV,2022-05-13 12:55,-93.7593,42.7430,66.20,57.20,170.00,12.00,,10.00,29.90,
DNS,2022-05-13 12:55,-95.3800,41.9842,59.00,59.00,250.00,7.00,,10.00,29.96,
FFL,2022-05-13 12:55,-91.9834,41.0521,69.80,55.40,100.00,8.00,,10.00,29.95,
TNU,2022-05-13 12:55,-93.0190,41.6701,68.00,55.40,130.00,14.00,19.00,10.00,29.86,
96D,2022-05-13 12:55,-97.9028,48.9406,53.60,53.60,150.00,20.00,26.00,10.00,29.37,
EVM,2022-05-13 12:55,-92.4981,47.4251,55.40,53.60,210.00,7.00,,10.00,29.78,
ANW,2022-05-13 12:55,-99.9930,42.5792,52.20,38.80,250.00,13.00,,10.00,29.94,
AHQ,2022-05-13 12:55,-96.5946,41.2406,58.50,50.20,0.00,0.00,,10.00,29.99,
PMV,2022-05-13 12:55,-95.9179,40.9502,60.40,57.20,220.00,5.00,,10.00,30.00,
CKN,2022-05-13 12:55,-96.6214,47.8417,53.60,,190.00,26.00,32.00,10.00,29.55,
FBL,2022-05-13 12:55,-93.3108,44.3247,66.20,53.60,210.00,6.00,,10.00,29.85,
FFM,2022-05-13 12:55,-96.1567,46.2844,57.20,48.20,210.00,18.00,21.00,10.00,29.69,
04W,2022-05-13 12:55,-92.8952,46.0229,64.40,60.80,210.00,8.00,,10.00,29.80,
LXL,2022-05-13 12:55,-94.3469,45.9492,62.60,50.00,230.00,9.00,15.00,10.00,29.77,
JKJ,2022-05-13 12:55,-96.6640,46.8393,55.40,46.40,190.00,19.00,25.00,10.00,29.64,
VWU,2022-05-13 12:55,-94.5167,48.1539,64.40,51.80,190.00,5.00,21.00,10.00,29.65,
Y49,2022-05-13 12:55,-94.6453,47.1595,60.00,48.40,200.00,12.00,18.00,10.00,29.68,
HPT,2022-05-13 12:55,-93.2244,42.7175,66.20,51.80,250.00,8.00,,10.00,29.89,
SXK,2022-05-13 12:55,-96.1614,42.9858,57.20,50.00,250.00,9.00,,10.00,29.91,
HJH,2022-05-13 12:55,-97.5870,40.1523,57.40,50.20,310.00,3.00,,10.00,30.03,
HDE,2022-05-13 12:55,-99.3365,40.4521,50.50,39.20,290.00,7.00,,10.00,30.00,
IBM,2022-05-13 12:55,-103.6774,41.1881,48.40,21.70,280.00,9.00,17.00,10.00,30.08,
LXN,2022-05-13 12:55,-99.7759,40.7904,48.40,42.80,300.00,4.00,,10.00,30.02,
MLE,2022-05-13 12:55,-96.1120,41.1960,60.60,54.50,0.00,0.00,,10.00,29.98,
AFK,2022-05-13 12:55,-95.8657,40.6069,60.30,57.40,230.00,4.00,,10.00,30.00,
OGA,2022-05-13 12:55,-101.7697,41.1195,50.50,33.30,0.00,0.00,,10.00,30.04,
ONL,2022-05-13 12:55,-98.6881,42.4697,53.60,40.80,250.00,14.00,19.00,10.00,29.95,
TIF,2022-05-13 12:55,-100.5690,41.9622,50.20,37.80,220.00,12.00,,10.00,30.00,
JYR,2022-05-13 12:55,-97.6228,40.8967,53.60,50.00,240.00,4.00,,10.00,30.03,
TVK,2022-05-13 12:55,-92.8983,40.6832,68.00,53.60,90.00,8.00,,10.00,29.97,
20U,2022-05-13 12:55,-103.9821,46.9252,41.00,41.00,290.00,30.00,42.00,10.00,29.56,
BWW,2022-05-13 12:55,-103.3007,46.1655,41.00,41.00,290.00,28.00,45.00,10.00,29.60,
9D7,2022-05-13 12:55,-99.2364,48.4800,51.80,,180.00,29.00,38.00,10.00,29.26,
46D,2022-05-13 12:55,-99.1513,47.4511,51.80,46.40,210.00,25.00,34.00,10.00,29.38,
2C8,2022-05-13 12:55,-97.6320,48.7837,53.60,50.00,160.00,20.00,31.00,10.00,29.39,
D50,2022-05-13 12:55,-103.2973,48.9285,44.60,44.60,320.00,17.00,25.00,2.00,29.28,+RA
D57,2022-05-13 12:55,-101.8602,46.8128,44.60,39.20,270.00,40.00,51.00,10.00,29.39,
GAF,2022-05-13 12:55,-97.3709,48.4047,55.40,50.00,160.00,22.00,30.00,10.00,29.45,
GWR,2022-05-13 12:55,-97.6435,46.2187,55.40,55.40,220.00,32.00,42.00,10.00,29.60,
5H4,2022-05-13 12:55,-99.9317,47.7912,51.80,48.20,210.00,36.00,47.00,10.00,29.22,
Y19,2022-05-13 12:55,-100.8944,46.7680,48.20,46.40,250.00,28.00,40.00,10.00,29.40,
2D5,2022-05-13 12:55,-98.0799,46.1731,53.60,46.40,210.00,30.00,37.00,10.00,29.62,
08D,2022-05-13 12:55,-102.4064,48.3008,46.40,46.40,310.00,27.00,35.00,2.00,29.16,BR
BAC,2022-05-13 12:55,-98.0180,46.9412,51.80,51.80,200.00,25.00,31.00,10.00,29.53,
BWP,2022-05-13 12:55,-96.6074,46.2441,55.40,48.20,210.00,17.00,,10.00,29.68,
HON,2022-05-13 12:55,-98.2286,44.3852,54.00,45.00,190.00,11.00,,10.00,29.83,
PHP,2022-05-13 12:55,-101.6000,44.0500,52.00,41.00,240.00,17.00,,10.00,29.81,
SPF,2022-05-13 12:55,-103.7830,44.4803,48.20,32.00,280.00,24.00,35.00,10.00,29.81,
BVN,2022-05-13 12:55,-98.0558,41.7286,54.70,44.20,340.00,7.00,,10.00,30.00,
BTA,2022-05-13 12:55,-96.1090,41.4148,60.30,49.30,260.00,4.00,,10.00,29.98,
CBF,2022-05-13 12:55,-95.7604,41.2611,59.00,59.00,250.00,6.00,,10.00,29.96,
FET,2022-05-13 12:55,-96.5200,41.4500,59.50,49.00,280.00,6.00,,10.00,29.98,
GYL,2022-05-13 12:55,-94.0812,44.7560,63.00,54.00,210.00,5.00,,10.00,29.83,
GGI,2022-05-13 12:55,-92.7332,41.7097,71.20,56.00,120.00,11.00,,10.00,29.91,
AUH,2022-05-13 12:55,-97.9946,40.8941,55.60,49.00,160.00,3.00,,10.00,30.05,
3N8,2022-05-13 12:55,-95.9281,47.2605,54.50,47.00,200.00,26.00,33.00,10.00,29.63,
GRN,2022-05-13 12:55,-102.1753,42.8060,46.60,35.00,230.00,15.00,19.00,10.00,29.95,
9V9,2022-05-13 12:55,-99.3183,43.7667,53.40,44.00,220.00,9.00,,10.00,29.88,
BIE,2022-05-13 12:55,-96.7541,40.3013,61.00,58.00,0.00,0.00,,10.00,30.02,
SGS,2022-05-13 12:55,-93.0329,44.8571,69.00,54.00,210.00,7.00,,10.00,29.83,
DLH,2022-05-13 12:55,-92.1936,46.8421,49.00,49.00,120.00,13.00,,0.12,29.79,FG
OOA,2022-05-13 12:55,-92.4919,41.2273,73.00,54.50,120.00,10.00,,10.00,29.93,
OFF,2022-05-13 12:56,-95.9125,41.1183,62.00,56.80,250.00,5.00,,10.00,29.99,
TVF,2022-05-13 12:56,-96.1850,48.0657,56.00,48.00,180.00,27.00,34.00,10.00,29.58,
OTG,2022-05-13 12:56,-95.5792,43.6551,57.00,48.00,250.00,12.00,,10.00,29.90,
FRM,2022-05-13 12:56,-94.4156,43.6439,63.00,52.00,250.00,12.00,,10.00,29.88,
GPZ,2022-05-13 12:56,-93.5097,47.2111,58.00,57.00,160.00,7.00,,10.00,29.75,
FOD,2022-05-13 12:56,-94.2032,42.5497,65.00,57.00,200.00,6.00,,10.00,29.91,
RYM,2022-05-13 12:56,-94.3575,46.0895,62.60,51.40,230.00,10.00,,10.00,29.74,
DVL,2022-05-13 12:56,-98.9083,48.1146,52.00,45.00,180.00,28.00,35.00,10.00,29.29,
RDR,2022-05-13 12:56,-97.4012,47.9611,54.50,47.80,180.00,24.00,31.00,10.00,29.46,
2WX,2022-05-13 12:56,-103.5464,45.6044,47.00,41.00,280.00,35.00,48.00,,29.63,
RCA,2022-05-13 12:56,-103.1036,44.1451,49.50,35.20,230.00,9.00,,10.00,29.81,
8D3,2022-05-13 12:56,-96.9914,45.6689,58.00,46.00,200.00,20.00,28.00,,29.71,
YKN,2022-05-13 12:56,-97.3859,42.9167,57.00,46.00,220.00,8.00,,10.00,29.94,
MIB,2022-05-13 12:56,-101.3580,48.4158,50.20,42.00,320.00,4.00,,10.00,29.09,-RA
MKT,2022-05-13 12:56,-93.9200,44.2200,64.00,56.00,200.00,7.00,,10.00,29.86,
OLU,2022-05-13 12:56,-97.3426,41.4480,57.00,49.00,250.00,6.00,,10.00,30.02,
EAR,2022-05-13 12:56,-99.0068,40.7270,55.00,40.00,310.00,5.00,,10.00,30.01,
JMS,2022-05-13 12:56,-98.6800,46.9300,52.00,42.00,210.00,25.00,45.00,10.00,29.48,
FSD,2022-05-13 12:56,-96.7536,43.5769,59.00,47.00,230.00,5.00,,10.00,29.89,
OFK,2022-05-13 12:56,-97.4351,41.9855,58.00,42.00,240.00,5.00,,10.00,29.99,
GNA,2022-05-13 12:56,-90.3457,47.7453,44.00,42.00,80.00,9.00,,,29.86,
MML,2022-05-13 12:56,-95.8200,44.4500,58.00,49.00,260.00,9.00,,10.00,29.85,
DIK,2022-05-13 12:56,-102.8019,46.7973,42.00,38.00,270.00,30.00,45.00,10.00,29.44,
D07,2022-05-13 12:56,-102.0200,45.0300,49.00,42.00,250.00,21.00,,,29.72,
CWI,2022-05-13 12:56,-90.3328,41.8295,76.00,61.00,160.00,3.00,,10.00,29.96,
1HW,2022-05-13 12:58,-102.8289,41.3251,51.00,24.30,290.00,15.00,23.00,10.00,30.03,
1BW,2022-05-13 12:58,-103.9950,41.5117,42.80,21.90,220.00,12.00,,10.00,30.05,
1CW,2022-05-13 12:58,-103.6706,41.5900,49.60,21.70,240.00,9.00,,10.00,30.03,
PNM,2022-05-13 13:15,-93.6082,45.5599,66.20,55.40,200.00,8.00,,10.00,29.82,
FSE,2022-05-13 13:15,-95.7735,47.5928,55.40,46.40,190.00,23.00,30.00,10.00,29.62,
SYN,2022-05-13 13:15,-93.0145,44.4736,69.00,53.80,230.00,7.00,,10.00,29.83,
MGG,2022-05-13 13:25,-93.9856,45.2360,64.40,46.40,250.00,8.00,,10.00,29.84,
ORB,2022-05-13 13:33,-92.8560,48.0159,59.00,55.40,170.00,6.00,14.00,10.00,29.71,
EVM,2022-05-13 13:35,-92.4981,47.4251,55.40,53.60,180.00,7.00,,10.00,29.78,
XWA,2022-05-13 13:51,-103.7505,48.2597,44.00,43.00,310.00,28.00,37.00,4.00,29.34,RA BR
N60,2022-05-13 13:52,-101.4394,47.6458,48.00,45.00,240.00,26.00,37.00,,29.25,
VTN,2022-05-13 13:52,-100.5489,42.8567,62.00,37.00,250.00,21.00,31.00,10.00,29.92,
EST,2022-05-13 13:52,-94.7476,43.4008,61.00,48.00,280.00,16.00,,10.00,29.89,
DVN,2022-05-13 13:52,-90.5948,41.6133,78.00,61.00,50.00,6.00,,10.00,29.97,
BIS,2022-05-13 13:52,-100.7458,46.7727,50.00,41.00,250.00,25.00,46.00,10.00,29.47,
MBG,2022-05-13 13:52,-100.4078,45.5464,56.00,43.00,240.00,20.00,31.00,10.00,29.64,
IEN,2022-05-13 13:52,-102.5110,43.0225,54.00,36.00,220.00,12.00,,10.00,29.95,
RAP,2022-05-13 13:52,-103.0574,44.0453,54.00,40.00,200.00,10.00,,10.00,29.86,
IOW,2022-05-13 13:52,-91.5445,41.6394,76.00,56.00,120.00,7.00,,10.00,29.95,
OMA,2022-05-13 13:52,-95.8992,41.3103,65.00,47.00,210.00,5.00,,10.00,30.01,
SUX,2022-05-13 13:52,-96.3795,42.3917,60.00,47.00,270.00,12.00,,10.00,29.95,
CID,2022-05-13 13:52,-91.7246,41.8829,74.00,56.00,130.00,14.00,,10.00,29.91,
IML,2022-05-13 13:53,-101.6201,40.5103,59.00,30.90,270.00,5.00,,10.00,30.07,
SNY,2022-05-13 13:53,-102.9847,41.1014,55.00,21.90,280.00,9.00,,10.00,30.05,
CDR,2022-05-13 13:53,-103.0954,42.8376,54.00,32.00,220.00,17.00,26.00,10.00,29.95,
HIB,2022-05-13 13:53,-92.8390,47.3866,58.00,54.00,180.00,8.00,15.00,10.00,29.76,
FCM,2022-05-13 13:53,-93.4607,44.8261,69.00,52.00,240.00,10.00,19.00,10.00,29.83,
PKD,2022-05-13 13:53,-95.0700,46.9000,59.00,45.00,210.00,16.00,31.00,10.00,29.70,
RWF,2022-05-13 13:53,-95.0820,44.5469,61.00,48.00,260.00,13.00,19.00,10.00,29.85,
STC,2022-05-13 13:53,-94.0513,45.5433,64.00,48.00,230.00,11.00,,10.00,29.82,
MIC,2022-05-13 13:53,-93.3511,45.0622,70.00,52.00,250.00,13.00,18.00,10.00,29.82,
OWA,2022-05-13 13:53,-93.2606,44.1233,68.00,53.60,210.00,10.00,,10.00,29.89,
STP,2022-05-13 13:53,-93.0600,44.9345,72.00,52.00,230.00,9.00,,10.00,29.84,
BFF,2022-05-13 13:53,-103.5956,41.8740,56.00,25.00,240.00,12.00,,10.00,30.04,
FOZ,2022-05-13 13:53,-93.6502,47.7828,64.40,59.00,140.00,7.00,,10.00,29.74,
XVG,2022-05-13 13:53,-94.2039,46.9900,62.60,48.20,180.00,9.00,17.00,10.00,29.72,
MIW,2022-05-13 13:53,-92.9163,42.1106,75.00,54.00,230.00,9.00,,10.00,29.92,
OTM,2022-05-13 13:53,-92.4446,41.1008,73.00,57.00,150.00,11.00,,10.00,29.94,
SPW,2022-05-13 13:53,-95.2101,43.1682,62.00,48.00,280.00,10.00,,10.00,29.90,
LBF,2022-05-13 13:53,-100.6690,41.1219,59.00,39.00,260.00,7.00,,10.00,30.03,
AIA,2022-05-13 13:53,-102.8000,42.0572,55.00,26.10,250.00,20.00,26.00,10.00,30.02,
ORB,2022-05-13 13:53,-92.8560,48.0159,59.00,55.40,170.00,9.00,15.00,10.00,29.73,
FAR,2022-05-13 13:53,-96.8111,46.9253,57.00,45.00,190.00,27.00,39.00,10.00,29.62,
CUT,2022-05-13 13:53,-103.6114,43.7331,43.00,32.00,270.00,19.00,31.00,10.00,29.90,
MHE,2022-05-13 13:53,-98.0386,43.7748,60.00,46.00,230.00,12.00,,10.00,29.91,
PIR,2022-05-13 13:53,-100.2860,44.3827,59.00,39.00,260.00,19.00,29.00,10.00,29.79,
ATY,2022-05-13 13:53,-97.1547,44.9140,58.00,45.00,230.00,24.00,34.00,10.00,29.80,
ICR,2022-05-13 13:53,-99.8422,43.3903,58.00,43.00,210.00,13.00,,10.00,29.88,
BBW,2022-05-13 13:53,-99.6385,41.4365,60.00,39.00,240.00,9.00,,10.00,30.01,
DBQ,2022-05-13 13:53,-90.7091,42.3984,77.00,58.00,100.00,7.00,,10.00,29.95,
MCW,2022-05-13 13:53,-93.3261,43.1544,68.00,51.00,190.00,9.00,,10.00,29.93,
HEI,2022-05-13 13:53,-102.6560,46.0149,46.00,38.00,270.00,28.00,41.00,10.00,29.62,
BDE,2022-05-13 13:53,-94.6122,48.7284,66.00,51.00,180.00,13.00,27.00,10.00,29.59,
BRD,2022-05-13 13:53,-94.1308,46.4047,66.00,49.00,190.00,9.00,28.00,10.00,,
MSP,2022-05-13 13:53,-93.2313,44.8854,70.00,51.00,210.00,9.00,,10.00,29.84,
HSI,2022-05-13 13:53,-98.4279,40.6052,63.00,42.00,90.00,4.00,,10.00,30.06,
BRL,2022-05-13 13:53,-91.1255,40.7729,77.00,60.00,50.00,6.00,,10.00,29.96,
DVP,2022-05-13 13:53,-95.7826,43.9868,58.30,47.00,250.00,13.00,17.00,10.00,29.90,
ABR,2022-05-13 13:53,-98.4200,45.4500,59.00,47.00,230.00,23.00,32.00,10.00,29.71,
MCK,2022-05-13 13:53,-100.5921,40.2063,58.00,38.00,280.00,9.00,,10.00,30.05,
AXN,2022-05-13 13:53,-95.3947,45.8663,58.00,47.00,240.00,15.00,,10.00,29.78,
FNB,2022-05-13 13:53,-95.5920,40.0788,62.00,60.00,220.00,3.00,,10.00,30.01,
ODX,2022-05-13 13:53,-98.9517,41.6236,58.00,42.00,260.00,9.00,,10.00,30.00,
AMW,2022-05-13 13:53,-93.6185,41.9904,69.00,56.00,240.00,8.00,,10.00,29.91,
LWD,2022-05-13 13:53,-93.9005,40.6306,65.00,56.00,190.00,13.00,17.00,10.00,30.02,
GRI,2022-05-13 13:53,-98.3096,40.9675,65.00,40.00,0.00,0.00,,10.00,30.04,
GFK,2022-05-13 13:53,-97.1761,47.9492,56.00,47.00,180.00,29.00,39.00,10.00,29.49,
DSM,2022-05-13 13:54,-93.6531,41.5339,68.00,54.00,190.00,10.00,,10.00,29.95,
ALO,2022-05-13 13:54,-92.4013,42.5544,75.00,55.00,150.00,5.00,,10.00,29.87,
INL,2022-05-13 13:54,-93.3956,48.5595,62.00,57.00,160.00,8.00,17.00,10.00,29.67,
RST,2022-05-13 13:54,-92.4916,43.9041,70.00,54.00,220.00,8.00,,10.00,29.90,
TQE,2022-05-13 13:54,-96.1779,41.7635,61.00,50.00,250.00,9.00,,10.00,29.98,
MOT,2022-05-13 13:54,-101.2803,48.2594,54.00,51.00,220.00,9.00,,5.00,29.12,BR
LNK,2022-05-13 13:54,-96.7633,40.8312,62.00,56.00,180.00,5.00,,10.00,30.03,
S32,2022-05-13 13:55,-98.1059,47.4228,51.80,51.80,210.00,29.00,40.00,10.00,29.46,
VTI,2022-05-13 13:55,-92.0248,42.2176,78.30,55.40,130.00,8.00,,10.00,29.89,
CCY,2022-05-13 13:55,-92.6132,43.0730,71.60,55.40,210.00,9.00,,10.00,29.92,
IFA,2022-05-13 13:55,-93.2651,42.4691,68.50,55.00,200.00,6.00,,10.00,29.94,
CNC,2022-05-13 13:55,-93.3608,41.0184,69.80,57.20,250.00,8.00,,10.00,29.99,
CSQ,2022-05-13 13:55,-94.3608,41.0188,62.60,62.60,250.00,11.00,18.00,10.00,30.00,
FSW,2022-05-13 13:55,-91.3267,40.6615,78.80,57.20,30.00,5.00,,10.00,29.96,
AWG,2022-05-13 13:55,-91.6748,41.2751,77.00,55.40,110.00,10.00,,10.00,29.94,
SGS,2022-05-13 13:55,-93.0329,44.8571,71.40,51.80,190.00,8.00,,10.00,29.85,
ACQ,2022-05-13 13:55,-93.5529,44.0735,68.00,51.80,220.00,14.00,,,29.91,
EOK,2022-05-13 13:55,-91.4274,40.4615,77.00,60.80,,5.00,,10.00,29.97,
MPZ,2022-05-13 13:55,-91.5122,40.9453,78.80,57.20,90.00,8.00,,10.00,29.96,
AEL,2022-05-13 13:55,-93.3672,43.6815,68.00,53.60,210.00,7.00,,10.00,29.90,
PNM,2022-05-13 13:55,-93.6082,45.5599,66.20,51.80,220.00,8.00,17.00,10.00,29.83,
HZE,2022-05-13 13:55,-101.5810,47.2899,44.60,44.60,250.00,26.00,37.00,9.00,29.37,
D55,2022-05-13 13:55,-98.3937,48.7531,51.80,51.80,170.00,24.00,35.00,10.00,29.31,
7L2,2022-05-13 13:55,-100.2456,46.2206,51.80,42.80,250.00,29.00,36.00,10.00,29.58,
06D,2022-05-13 13:55,-99.6208,48.8844,48.20,48.20,160.00,21.00,33.00,4.00,29.17,BR
D60,2022-05-13 13:55,-102.8974,48.3803,44.60,44.60,300.00,18.00,24.00,10.00,29.24,
GHW,2022-05-13 13:55,-95.3204,45.6439,57.20,48.20,230.00,20.00,24.00,10.00,29.79,
AIT,2022-05-13 13:55,-93.6768,46.5484,64.40,51.80,200.00,9.00,16.00,10.00,29.76,
AUM,2022-05-13 13:55,-92.9333,43.6647,69.80,53.60,220.00,9.00,,10.00,29.90,
HCO,2022-05-13 13:55,-96.9430,48.7527,57.20,51.80,170.00,32.00,40.00,10.00,29.45,
MJQ,2022-05-13 13:55,-94.9865,43.6500,59.00,46.40,280.00,12.00,,10.00,29.90,
JMR,2022-05-13 13:55,-93.2718,45.8861,64.40,53.60,210.00,9.00,,10.00,29.83,
ULM,2022-05-13 13:55,-94.5000,44.3200,62.60,50.00,270.00,14.00,18.00,10.00,29.88,
PQN,2022-05-13 13:55,-96.3004,43.9821,57.20,50.00,250.00,10.00,,10.00,29.91,
RGK,2022-05-13 13:55,-92.4868,44.5915,73.40,51.80,230.00,7.00,,10.00,29.86,
ROX,2022-05-13 13:55,-95.6971,48.8560,60.80,51.80,180.00,21.00,25.00,10.00,29.54,
ONA,2022-05-13 13:55,-91.7083,44.0772,77.00,59.00,90.00,3.00,,10.00,29.85,
FET,2022-05-13 13:55,-96.5200,41.4500,62.00,49.50,220.00,4.00,,10.00,30.01,
LCG,2022-05-13 13:55,-96.9814,42.2419,59.00,46.60,240.00,7.00,,10.00,29.97,
BJI,2022-05-13 13:55,-94.9337,47.5094,62.00,45.00,200.00,13.00,28.00,10.00,29.66,
BBB,2022-05-13 13:55,-95.6506,45.3319,60.80,48.20,270.00,15.00,,5.00,29.81,HZ
DYT,2022-05-13 13:55,-92.0434,46.7219,41.00,41.00,,6.00,12.00,0.25,29.84,-RA FG
ELO,2022-05-13 13:55,-91.8371,47.8287,57.20,55.40,190.00,9.00,15.00,10.00,29.78,
FSE,2022-05-13 13:55,-95.7735,47.5928,55.40,46.40,190.00,30.00,36.00,10.00,29.63,
GYL,2022-05-13 13:55,-94.0812,44.7560,64.00,51.80,240.00,8.00,,10.00,29.86,
HCD,2022-05-13 13:55,-94.3825,44.8599,62.60,50.40,240.00,10.00,15.00,10.00,29.88,
DXX,2022-05-13 13:55,-96.1779,44.9864,62.60,48.20,230.00,20.00,24.00,10.00,29.83,
LVN,2022-05-13 13:55,-93.2273,44.6252,68.00,51.80,210.00,3.00,,10.00,29.86,
MZH,2022-05-13 13:55,-92.8048,46.4186,55.40,53.60,0.00,0.00,,0.25,29.80,FG
PWC,2022-05-13 13:55,-94.3817,46.7248,62.60,50.00,210.00,13.00,17.00,10.00,29.77,
ROS,2022-05-13 13:55,-92.9530,45.6980,67.60,51.40,230.00,7.00,,10.00,29.83,
JYG,2022-05-13 13:55,-94.5579,43.9863,62.60,48.20,270.00,14.00,20.00,10.00,29.90,
BDH,2022-05-13 13:55,-95.1304,45.1177,60.80,48.20,260.00,16.00,23.00,10.00,29.85,
MWM,2022-05-13 13:55,-95.1094,43.9134,59.00,48.20,250.00,11.00,18.00,10.00,29.88,
CFE,2022-05-13 13:55,-93.8433,45.1590,64.40,50.00,240.00,12.00,,10.00,29.84,
TOB,2022-05-13 13:55,-92.8315,44.0180,69.80,50.00,240.00,12.00,,10.00,29.88,
Y63,2022-05-13 13:55,-95.9920,45.9861,57.60,48.20,220.00,20.00,27.00,10.00,29.76,
GDB,2022-05-13 13:55,-95.5560,44.7533,62.00,50.70,230.00,14.00,19.00,10.00,29.86,
14Y,2022-05-13 13:55,-94.8739,45.8983,57.20,44.60,250.00,15.00,22.00,10.00,29.78,
LYV,2022-05-13 13:55,-96.2158,43.6212,55.40,46.40,240.00,11.00,,10.00,29.92,
HZX,2022-05-13 13:55,-93.3098,46.6188,64.40,53.60,200.00,8.00,,10.00,29.77,
OVL,2022-05-13 13:55,-95.0328,44.7786,59.00,48.20,270.00,13.00,,10.00,29.84,
VVV,2022-05-13 13:55,-96.4244,45.3057,60.80,46.40,220.00,13.00,18.00,10.00,29.79,
PEX,2022-05-13 13:55,-94.7466,45.3723,59.00,48.20,250.00,16.00,19.00,10.00,29.82,
FKA,2022-05-13 13:55,-92.1797,43.6767,72.30,55.40,210.00,5.00,,10.00,29.90,
9MN,2022-05-13 13:55,-92.4831,44.0198,69.80,50.50,210.00,5.00,,10.00,29.90,
SYN,2022-05-13 13:55,-93.0145,44.4736,70.20,53.40,210.00,13.00,16.00,10.00,29.86,
SAZ,2022-05-13 13:55,-94.8066,46.3809,62.60,48.20,220.00,17.00,22.00,2.50,29.75,HZ
21D,2022-05-13 13:55,-92.8557,44.9975,69.80,51.80,230.00,7.00,,10.00,29.86,
TKC,2022-05-13 13:55,-95.6072,44.2491,61.20,44.20,250.00,10.00,14.00,10.00,29.88,
RRT,2022-05-13 13:55,-95.3483,48.9414,59.00,51.80,180.00,11.00,21.00,10.00,29.56,
RUG,2022-05-13 13:55,-100.0243,48.3904,51.80,51.80,210.00,27.00,36.00,10.00,29.13,
S25,2022-05-13 13:55,-103.2552,47.7966,42.80,42.80,280.00,27.00,33.00,10.00,29.36,
IKV,2022-05-13 13:55,-93.5695,41.6878,69.80,53.60,220.00,5.00,,10.00,29.94,
AIO,2022-05-13 13:55,-95.0465,41.4059,62.60,62.60,200.00,10.00,,10.00,30.00,
CKP,2022-05-13 13:55,-95.5538,42.7304,59.40,51.30,260.00,9.00,14.00,10.00,29.92,
ICL,2022-05-13 13:55,-95.0223,40.7242,62.60,60.80,0.00,0.00,,10.00,29.99,
DEH,2022-05-13 13:55,-91.7433,43.2755,75.20,59.00,140.00,8.00,13.00,10.00,29.85,
OLZ,2022-05-13 13:55,-91.9760,42.6831,77.00,53.60,140.00,12.00,,10.00,29.88,
RDK,2022-05-13 13:55,-95.2624,41.0106,62.60,59.00,250.00,6.00,11.00,10.00,29.99,
SHL,2022-05-13 13:55,-95.8353,43.2082,60.80,50.00,260.00,10.00,,10.00,29.90,
SDA,2022-05-13 13:55,-95.4112,40.7533,62.60,60.80,230.00,3.00,,10.00,29.99,
SLB,2022-05-13 13:55,-95.2399,42.5972,59.00,50.00,260.00,14.00,,10.00,29.93,
AXA,2022-05-13 13:55,-94.2724,43.0796,62.60,57.20,280.00,13.00,18.00,10.00,29.90,
ADU,2022-05-13 13:55,-94.9204,41.6994,60.80,55.40,240.00,8.00,,10.00,29.99,
CIN,2022-05-13 13:55,-94.7889,42.0444,62.60,55.40,250.00,13.00,,10.00,29.95,
FXY,2022-05-13 13:55,-93.6237,43.2323,68.00,50.00,240.00,7.00,,10.00,29.92,
HNR,2022-05-13 13:55,-95.3355,41.5834,60.80,60.80,240.00,11.00,,10.00,30.00,
LRJ,2022-05-13 13:55,-96.1923,42.7754,59.00,48.20,260.00,13.00,,10.00,29.94,
MUT,2022-05-13 13:55,-91.1406,41.3670,77.00,57.20,60.00,5.00,,10.00,29.96,
I75,2022-05-13 13:55,-93.6876,41.0472,68.50,56.30,210.00,6.00,9.00,10.00,29.99,
OOA,2022-05-13 13:55,-92.4919,41.2273,78.00,54.70,140.00,16.00,,10.00,29.92,
PRO,2022-05-13 13:55,-94.1637,41.8278,69.40,53.20,240.00,11.00,,10.00,29.94,
MXO,2022-05-13 13:55,-91.1605,42.2204,77.00,57.20,110.00,7.00,,10.00,29.92,
PEA,2022-05-13 13:55,-92.9431,41.3989,74.30,55.20,180.00,8.00,,10.00,29.95,
EBS,2022-05-13 13:55,-93.8691,42.4392,69.80,55.40,210.00,9.00,,10.00,29.91,
CAV,2022-05-13 13:55,-93.7593,42.7430,69.80,57.20,210.00,13.00,,10.00,29.92,
BNW,2022-05-13 13:55,-93.8486,42.0486,69.80,57.20,,,,10.00,29.94,
DNS,2022-05-13 13:55,-95.3800,41.9842,60.80,60.80,240.00,6.00,,10.00,29.99,
FFL,2022-05-13 13:55,-91.9834,41.0521,73.40,55.40,120.00,9.00,,10.00,29.95,
TNU,2022-05-13 13:55,-93.0190,41.6701,73.40,53.60,250.00,11.00,21.00,10.00,29.94,
96D,2022-05-13 13:55,-97.9028,48.9406,53.60,53.60,150.00,22.00,30.00,10.00,29.35,
EVM,2022-05-13 13:55,-92.4981,47.4251,55.40,53.60,170.00,9.00,14.00,10.00,29.78,
AHQ,2022-05-13 13:55,-96.5946,41.2406,61.00,50.50,220.00,3.00,,10.00,30.01,
AUH,2022-05-13 13:55,-97.9946,40.8941,62.00,47.30,190.00,3.00,,10.00,30.05,
PMV,2022-05-13 13:55,-95.9179,40.9502,61.70,55.80,290.00,4.00,,10.00,30.01,
CKN,2022-05-13 13:55,-96.6214,47.8417,55.40,,190.00,25.00,36.00,10.00,29.56,
FBL,2022-05-13 13:55,-93.3108,44.3247,68.00,53.60,200.00,10.00,,10.00,29.88,
FFM,2022-05-13 13:55,-96.1567,46.2844,59.00,48.20,210.00,21.00,30.00,10.00,29.70,
04W,2022-05-13 13:55,-92.8952,46.0229,68.00,55.40,220.00,10.00,,10.00,29.81,
LXL,2022-05-13 13:55,-94.3469,45.9492,62.60,48.20,220.00,12.00,18.00,10.00,29.79,
JKJ,2022-05-13 13:55,-96.6640,46.8393,57.20,46.40,200.00,21.00,30.00,10.00,29.65,
VWU,2022-05-13 13:55,-94.5167,48.1539,66.20,51.80,190.00,13.00,18.00,10.00,29.63,
3N8,2022-05-13 13:55,-95.9281,47.2605,56.00,47.30,200.00,26.00,33.00,10.00,29.64,
Y49,2022-05-13 13:55,-94.6453,47.1595,61.70,47.30,220.00,16.00,21.00,10.00,29.67,
GRN,2022-05-13 13:55,-102.1753,42.8060,51.00,33.40,240.00,15.00,,10.00,29.96,
HPT,2022-05-13 13:55,-93.2244,42.7175,68.00,51.80,220.00,10.00,,10.00,29.93,
SXK,2022-05-13 13:55,-96.1614,42.9858,59.00,50.00,250.00,13.00,,10.00,29.93,
HJH,2022-05-13 13:55,-97.5870,40.1523,64.40,49.30,330.00,3.00,,10.00,30.04,
HDE,2022-05-13 13:55,-99.3365,40.4521,57.20,42.80,0.00,0.00,,10.00,30.04,
IBM,2022-05-13 13:55,-103.6774,41.1881,50.70,21.60,290.00,16.00,21.00,10.00,30.07,
LXN,2022-05-13 13:55,-99.7759,40.7904,56.00,45.00,300.00,4.00,,10.00,30.04,
MLE,2022-05-13 13:55,-96.1120,41.1960,62.00,50.40,220.00,3.00,,10.00,30.02,
AFK,2022-05-13 13:55,-95.8657,40.6069,62.00,58.30,260.00,5.00,,10.00,30.01,
ONL,2022-05-13 13:55,-98.6881,42.4697,56.30,40.50,250.00,11.00,,10.00,29.98,
TIF,2022-05-13 13:55,-100.5690,41.9622,57.40,34.70,250.00,14.00,,10.00,30.00,
JYR,2022-05-13 13:55,-97.6228,40.8967,59.00,51.80,250.00,4.00,,10.00,30.03,
TVK,2022-05-13 13:55,-92.8983,40.6832,71.60,55.40,140.00,6.00,,10.00,30.00,
20U,2022-05-13 13:55,-103.9821,46.9252,41.00,41.00,290.00,27.00,37.00,4.00,29.57,-DZ
BWW,2022-05-13 13:55,-103.3007,46.1655,42.80,42.80,280.00,29.00,40.00,10.00,29.63,
9D7,2022-05-13 13:55,-99.2364,48.4800,51.80,,180.00,25.00,32.00,10.00,29.25,
46D,2022-05-13 13:55,-99.1513,47.4511,51.80,46.40,210.00,28.00,38.00,10.00,29.40,
2C8,2022-05-13 13:55,-97.6320,48.7837,53.60,50.00,170.00,24.00,32.00,10.00,29.37,
D50,2022-05-13 13:55,-103.2973,48.9285,44.60,44.60,320.00,22.00,29.00,5.00,29.26,-RA
D57,2022-05-13 13:55,-101.8602,46.8128,44.60,39.20,260.00,35.00,42.00,10.00,29.44,
GAF,2022-05-13 13:55,-97.3709,48.4047,55.40,48.20,180.00,26.00,34.00,10.00,29.44,
GWR,2022-05-13 13:55,-97.6435,46.2187,55.40,55.40,230.00,33.00,42.00,10.00,29.61,
5H4,2022-05-13 13:55,-99.9317,47.7912,51.80,50.00,220.00,32.00,48.00,10.00,29.26,
Y19,2022-05-13 13:55,-100.8944,46.7680,46.40,42.80,250.00,32.00,41.00,10.00,29.46,
2D5,2022-05-13 13:55,-98.0799,46.1731,55.40,46.40,210.00,29.00,35.00,10.00,29.62,
08D,2022-05-13 13:55,-102.4064,48.3008,48.20,48.20,310.00,22.00,27.00,10.00,29.18,
BAC,2022-05-13 13:55,-98.0180,46.9412,53.60,46.40,220.00,27.00,41.00,10.00,29.53,
BWP,2022-05-13 13:55,-96.6074,46.2441,59.00,48.20,210.00,20.00,30.00,10.00,29.69,
9V9,2022-05-13 13:55,-99.3183,43.7667,58.30,43.70,230.00,12.00,,10.00,29.87,
HON,2022-05-13 13:55,-98.2286,44.3852,58.00,46.00,220.00,13.00,21.00,10.00,29.84,
PHP,2022-05-13 13:55,-101.6000,44.0500,56.00,41.00,240.00,20.00,28.00,10.00,29.82,
SPF,2022-05-13 13:55,-103.7830,44.4803,50.00,32.00,270.00,23.00,33.00,10.00,29.85,
BVN,2022-05-13 13:55,-98.0558,41.7286,60.00,45.00,230.00,4.00,,10.00,30.02,
BTA,2022-05-13 13:55,-96.1090,41.4148,60.40,48.20,230.00,6.00,,10.00,30.01,
COQ,2022-05-13 13:55,-92.5036,46.7011,46.40,46.40,110.00,6.00,,0.25,29.80,FG
CQM,2022-05-13 13:55,-92.6894,47.8219,59.00,53.60,170.00,8.00,16.00,10.00,29.75,
DTL,2022-05-13 13:55,-95.8856,46.8252,57.20,46.40,200.00,14.00,24.00,10.00,29.68,
CBF,2022-05-13 13:55,-95.7604,41.2611,60.80,55.40,220.00,6.00,,10.00,30.01,
OXV,2022-05-13 13:55,-93.1114,41.2984,73.40,53.60,220.00,9.00,,10.00,29.96,
DLH,2022-05-13 13:55,-92.1936,46.8421,48.00,47.00,140.00,9.00,,0.12,29.81,FG
GGI,2022-05-13 13:55,-92.7332,41.7097,79.20,54.00,150.00,12.00,,10.00,29.93,
ANW,2022-05-13 13:55,-99.9930,42.5792,57.70,38.00,260.00,15.00,,10.00,29.95,
BIE,2022-05-13 13:55,-96.7541,40.3013,63.50,60.00,290.00,4.00,,10.00,30.02,
D39,2022-05-13 13:55,-94.9334,45.7066,58.00,47.00,240.00,16.00,26.00,10.00,29.78,
OGA,2022-05-13 13:55,-101.7697,41.1195,60.00,28.20,250.00,4.00,,10.00,30.05,
OFF,2022-05-13 13:56,-95.9125,41.1183,62.00,55.00,0.00,0.00,,10.00,30.03,
GPZ,2022-05-13 13:56,-93.5097,47.2111,62.00,59.00,170.00,12.00,16.00,10.00,29.75,
EAR,2022-05-13 13:56,-99.0068,40.7270,58.00,41.00,50.00,3.00,,10.00,30.05,
OFK,2022-05-13 13:56,-97.4351,41.9855,63.00,43.00,280.00,12.00,,10.00,29.99,
GNA,2022-05-13 13:56,-90.3457,47.7453,46.00,43.00,70.00,13.00,,,29.82,
DIK,2022-05-13 13:56,-102.8019,46.7973,43.00,39.00,270.00,32.00,50.00,10.00,29.47,
RDR,2022-05-13 13:56,-97.4012,47.9611,55.40,47.70,180.00,27.00,36.00,10.00,29.47,
MML,2022-05-13 13:56,-95.8200,44.4500,60.00,48.00,250.00,14.00,,10.00,29.87,
DVL,2022-05-13 13:56,-98.9083,48.1146,52.00,45.00,180.00,27.00,33.00,10.00,29.30,
2WX,2022-05-13 13:56,-103.5464,45.6044,48.00,41.00,280.00,34.00,44.00,,29.64,
RCA,2022-05-13 13:56,-103.1036,44.1451,56.00,34.00,300.00,8.00,,10.00,29.84,
FSD,2022-05-13 13:56,-96.7536,43.5769,60.00,46.00,250.00,6.00,16.00,10.00,29.93,
8D3,2022-05-13 13:56,-96.9914,45.6689,60.00,45.00,220.00,23.00,33.00,,29.72,
YKN,2022-05-13 13:56,-97.3859,42.9167,60.00,46.00,230.00,12.00,,10.00,29.96,
FRM,2022-05-13 13:56,-94.4156,43.6439,63.00,51.00,270.00,13.00,,10.00,29.91,
JMS,2022-05-13 13:56,-98.6800,46.9300,54.00,42.00,220.00,26.00,43.00,10.00,29.48,
FOD,2022-05-13 13:56,-94.2032,42.5497,66.00,53.00,250.00,9.00,,10.00,29.93,
RYM,2022-05-13 13:56,-94.3575,46.0895,63.50,49.00,220.00,12.00,18.00,10.00,29.76,
D07,2022-05-13 13:56,-102.0200,45.0300,50.00,42.00,250.00,28.00,40.00,,29.73,
TVF,2022-05-13 13:56,-96.1850,48.0657,56.00,47.00,190.00,32.00,38.00,10.00,29.58,
OTG,2022-05-13 13:56,-95.5792,43.6551,58.00,49.00,260.00,14.00,,10.00,29.91,
MKT,2022-05-13 13:56,-93.9200,44.2200,67.00,51.00,230.00,13.00,,10.00,29.89,
OLU,2022-05-13 13:56,-97.3426,41.4480,62.00,44.00,240.00,7.00,,10.00,30.03,
CWI,2022-05-13 13:56,-90.3328,41.8295,78.00,64.00,150.00,4.00,,10.00,29.96,
1HW,2022-05-13 13:58,-102.8289,41.3251,56.00,25.00,310.00,15.00,,10.00,30.02,
1CW,2022-05-13 13:58,-103.6706,41.5900,54.00,20.70,250.00,14.00,18.00,10.00,30.05,
1BW,2022-05-13 13:58,-103.9950,41.5117,50.50,18.70,240.00,17.00,,10.00,30.06,
PNM,2022-05-13 14:15,-93.6082,45.5599,66.20,51.80,220.00,8.00,15.00,10.00,29.83,
FSE,2022-05-13 14:15,-95.7735,47.5928,55.40,44.60,190.00,27.00,35.00,10.00,29.63,
SYN,2022-05-13 14:15,-93.0145,44.4736,70.20,53.60,210.00,14.00,17.00,10.00,29.86,
MGG,2022-05-13 14:25,-93.9856,45.2360,64.40,46.40,240.00,8.00,,10.00,29.86,
ORB,2022-05-13 14:33,-92.8560,48.0159,60.80,55.40,170.00,9.00,18.00,10.00,29.72,
EVM,2022-05-13 14:35,-92.4981,47.4251,55.40,53.60,190.00,8.00,14.00,10.00,29.79,
XWA,2022-05-13 14:51,-103.7505,48.2597,43.00,42.00,310.00,30.00,44.00,10.00,29.35,-RA
IOW,2022-05-13 14:52,-91.5445,41.6394,83.00,55.00,140.00,10.00,,10.00,29.94,
OMA,2022-05-13 14:52,-95.8992,41.3103,66.00,48.00,210.00,6.00,,10.00,30.02,
VTN,2022-05-13 14:52,-100.5489,42.8567,66.00,34.00,260.00,23.00,32.00,10.00,29.93,
DVN,2022-05-13 14:52,-90.5948,41.6133,81.00,64.00,120.00,6.00,,10.00,29.97,
EST,2022-05-13 14:52,-94.7476,43.4008,63.00,49.00,280.00,14.00,,10.00,29.92,
SUX,2022-05-13 14:52,-96.3795,42.3917,63.00,49.00,260.00,11.00,,10.00,29.97,
BIS,2022-05-13 14:52,-100.7458,46.7727,50.00,40.00,250.00,27.00,44.00,10.00,29.50,
N60,2022-05-13 14:52,-101.4394,47.6458,45.00,42.00,240.00,30.00,39.00,,29.29,
RAP,2022-05-13 14:52,-103.0574,44.0453,59.00,35.00,260.00,14.00,,10.00,29.87,
CID,2022-05-13 14:52,-91.7246,41.8829,78.00,58.00,170.00,10.00,,10.00,29.92,
MBG,2022-05-13 14:52,-100.4078,45.5464,56.00,42.00,250.00,23.00,38.00,10.00,29.67,
IEN,2022-05-13 14:52,-102.5110,43.0225,58.00,30.00,250.00,20.00,35.00,10.00,29.95,
IML,2022-05-13 14:53,-101.6201,40.5103,63.00,27.00,280.00,9.00,,10.00,30.08,
SNY,2022-05-13 14:53,-102.9847,41.1014,62.00,21.00,290.00,18.00,25.00,10.00,30.06,
MCW,2022-05-13 14:53,-93.3261,43.1544,70.00,50.00,260.00,12.00,,10.00,29.94,
MCK,2022-05-13 14:53,-100.5921,40.2063,64.00,30.90,290.00,8.00,,10.00,30.06,
AXN,2022-05-13 14:53,-95.3947,45.8663,60.00,46.00,240.00,22.00,31.00,10.00,29.80,
BDE,2022-05-13 14:53,-94.6122,48.7284,66.00,48.00,190.00,18.00,34.00,10.00,29.60,
BRD,2022-05-13 14:53,-94.1308,46.4047,67.00,46.00,210.00,20.00,33.00,10.00,,
FNB,2022-05-13 14:53,-95.5920,40.0788,66.00,61.00,350.00,5.00,,10.00,30.00,
HIB,2022-05-13 14:53,-92.8390,47.3866,63.00,55.00,180.00,7.00,21.00,10.00,29.75,
MSP,2022-05-13 14:53,-93.2313,44.8854,71.00,48.00,230.00,14.00,21.00,10.00,29.85,
PKD,2022-05-13 14:53,-95.0700,46.9000,61.00,45.00,220.00,23.00,32.00,10.00,29.71,
STC,2022-05-13 14:53,-94.0513,45.5433,64.00,48.00,220.00,12.00,,10.00,29.84,
ODX,2022-05-13 14:53,-98.9517,41.6236,63.00,43.00,230.00,7.00,,10.00,30.02,
OWA,2022-05-13 14:53,-93.2606,44.1233,69.80,51.80,240.00,15.00,,10.00,29.90,
STP,2022-05-13 14:53,-93.0600,44.9345,72.00,50.00,240.00,10.00,,10.00,29.85,
BFF,2022-05-13 14:53,-103.5956,41.8740,59.00,24.10,270.00,18.00,26.00,10.00,30.03,
AQP,2022-05-13 14:53,-96.0043,45.2275,62.60,46.40,240.00,20.00,28.00,10.00,29.80,
FOZ,2022-05-13 14:53,-93.6502,47.7828,66.20,57.20,180.00,19.00,25.00,10.00,29.75,
XVG,2022-05-13 14:53,-94.2039,46.9900,64.40,48.20,180.00,14.00,20.00,10.00,29.73,
AMW,2022-05-13 14:53,-93.6185,41.9904,72.00,55.00,230.00,11.00,17.00,10.00,29.96,
MIW,2022-05-13 14:53,-92.9163,42.1106,75.00,54.00,230.00,15.00,,10.00,29.94,
OTM,2022-05-13 14:53,-92.4446,41.1008,76.00,57.00,200.00,10.00,,10.00,29.98,
LBF,2022-05-13 14:53,-100.6690,41.1219,65.00,34.00,270.00,12.00,,10.00,30.03,
GRI,2022-05-13 14:53,-98.3096,40.9675,66.00,41.00,260.00,6.00,,10.00,30.05,
AIA,2022-05-13 14:53,-102.8000,42.0572,58.00,26.10,260.00,20.00,29.00,10.00,30.02,
ORB,2022-05-13 14:53,-92.8560,48.0159,62.60,57.20,160.00,10.00,16.00,10.00,29.71,
GFK,2022-05-13 14:53,-97.1761,47.9492,58.00,48.00,200.00,24.00,38.00,10.00,29.49,
ABR,2022-05-13 14:53,-98.4200,45.4500,61.00,48.00,210.00,23.00,31.00,10.00,29.74,
CUT,2022-05-13 14:53,-103.6114,43.7331,46.00,32.00,270.00,18.00,29.00,10.00,29.91,
MHE,2022-05-13 14:53,-98.0386,43.7748,65.00,45.00,240.00,10.00,,10.00,29.90,
ATY,2022-05-13 14:53,-97.1547,44.9140,60.00,46.00,230.00,27.00,35.00,10.00,29.82,
BBW,2022-05-13 14:53,-99.6385,41.4365,65.00,37.00,250.00,9.00,,10.00,30.02,
CDR,2022-05-13 14:53,-103.0954,42.8376,59.00,33.00,230.00,16.00,23.00,10.00,29.96,
HSI,2022-05-13 14:53,-98.4279,40.6052,66.00,40.00,360.00,4.00,,10.00,30.06,
FCM,2022-05-13 14:53,-93.4607,44.8261,70.00,51.00,250.00,12.00,21.00,10.00,29.85,
RWF,2022-05-13 14:53,-95.0820,44.5469,63.00,47.00,250.00,16.00,23.00,10.00,29.86,
MIC,2022-05-13 14:53,-93.3511,45.0622,70.00,51.00,210.00,10.00,,10.00,29.84,
LWD,2022-05-13 14:53,-93.9005,40.6306,63.00,58.00,260.00,27.00,37.00,10.00,29.99,-RA
SPW,2022-05-13 14:53,-95.2101,43.1682,64.00,49.00,280.00,11.00,,10.00,29.94,
FAR,2022-05-13 14:53,-96.8111,46.9253,59.00,44.00,210.00,32.00,41.00,10.00,29.63,
PIR,2022-05-13 14:53,-100.2860,44.3827,63.00,38.00,260.00,28.00,39.00,10.00,29.79,
ICR,2022-05-13 14:53,-99.8422,43.3903,64.00,42.00,250.00,16.00,26.00,10.00,29.90,
DBQ,2022-05-13 14:53,-90.7091,42.3984,80.00,60.00,130.00,13.00,,10.00,29.92,
HEI,2022-05-13 14:53,-102.6560,46.0149,47.00,40.00,270.00,31.00,43.00,10.00,29.64,
BRL,2022-05-13 14:53,-91.1255,40.7729,80.00,62.00,90.00,5.00,,10.00,29.96,
DVP,2022-05-13 14:53,-95.7826,43.9868,60.00,47.00,250.00,16.00,23.00,10.00,29.90,
LNK,2022-05-13 14:54,-96.7633,40.8312,69.00,50.00,330.00,6.00,,10.00,30.03,
DSM,2022-05-13 14:54,-93.6531,41.5339,71.00,54.00,230.00,13.00,,10.00,29.99,
RST,2022-05-13 14:54,-92.4916,43.9041,73.00,50.00,210.00,13.00,,10.00,29.90,
ALO,2022-05-13 14:54,-92.4013,42.5544,80.00,56.00,230.00,8.00,,10.00,29.91,
INL,2022-05-13 14:54,-93.3956,48.5595,65.00,56.00,170.00,10.00,18.00,10.00,29.67,
TQE,2022-05-13 14:54,-96.1779,41.7635,65.00,51.00,230.00,9.00,,10.00,30.00,
MOT,2022-05-13 14:54,-101.2803,48.2594,51.00,49.00,220.00,22.00,32.00,2.50,29.14,-RA BR
OXV,2022-05-13 14:55,-93.1114,41.2984,73.40,53.60,240.00,12.00,,10.00,29.99,
VTI,2022-05-13 14:55,-92.0248,42.2176,82.40,54.00,170.00,8.00,,10.00,29.92,
CCY,2022-05-13 14:55,-92.6132,43.0730,75.20,53.60,230.00,11.00,,10.00,29.92,
IFA,2022-05-13 14:55,-93.2651,42.4691,73.00,55.00,190.00,10.00,,10.00,29.96,
CNC,2022-05-13 14:55,-93.3608,41.0184,68.00,57.20,210.00,13.00,,10.00,30.00,
CSQ,2022-05-13 14:55,-94.3608,41.0188,64.40,64.40,230.00,11.00,,10.00,30.01,
FSW,2022-05-13 14:55,-91.3267,40.6615,82.40,60.80,110.00,6.00,,10.00,29.96,
AWG,2022-05-13 14:55,-91.6748,41.2751,82.40,55.40,150.00,12.00,,10.00,29.93,
EOK,2022-05-13 14:55,-91.4274,40.4615,78.80,60.80,70.00,7.00,,10.00,29.96,
MPZ,2022-05-13 14:55,-91.5122,40.9453,82.40,59.00,120.00,8.00,,10.00,29.96,
SGS,2022-05-13 14:55,-93.0329,44.8571,72.50,47.80,220.00,14.00,,10.00,29.85,
ACQ,2022-05-13 14:55,-93.5529,44.0735,68.00,53.60,250.00,15.00,,,29.91,
AEL,2022-05-13 14:55,-93.3672,43.6815,71.60,48.20,240.00,9.00,14.00,10.00,29.91,
PNM,2022-05-13 14:55,-93.6082,45.5599,68.00,50.00,220.00,11.00,17.00,10.00,29.85,
HZE,2022-05-13 14:55,-101.5810,47.2899,44.60,44.60,250.00,29.00,39.00,10.00,29.40,
7L2,2022-05-13 14:55,-100.2456,46.2206,51.80,42.80,250.00,23.00,30.00,10.00,29.63,
06D,2022-05-13 14:55,-99.6208,48.8844,50.00,50.00,180.00,23.00,33.00,8.00,29.15,
D60,2022-05-13 14:55,-102.8974,48.3803,44.60,44.60,310.00,19.00,29.00,5.00,29.26,-RA
AIT,2022-05-13 14:55,-93.6768,46.5484,66.20,48.20,180.00,13.00,20.00,10.00,29.78,
AUM,2022-05-13 14:55,-92.9333,43.6647,73.40,50.00,220.00,12.00,16.00,10.00,29.91,
GHW,2022-05-13 14:55,-95.3204,45.6439,60.80,48.20,230.00,25.00,31.00,10.00,29.80,
HCO,2022-05-13 14:55,-96.9430,48.7527,57.20,50.00,170.00,32.00,39.00,10.00,29.46,
JMR,2022-05-13 14:55,-93.2718,45.8861,64.40,50.00,220.00,9.00,,10.00,29.84,
ULM,2022-05-13 14:55,-94.5000,44.3200,60.80,48.20,270.00,7.00,,10.00,29.90,
BJI,2022-05-13 14:55,-94.9337,47.5094,61.70,44.60,210.00,16.00,28.00,10.00,29.66,
COQ,2022-05-13 14:55,-92.5036,46.7011,46.40,46.40,110.00,7.00,,0.25,29.81,FG
DTL,2022-05-13 14:55,-95.8856,46.8252,59.00,46.40,210.00,18.00,29.00,10.00,29.70,
ELO,2022-05-13 14:55,-91.8371,47.8287,60.80,55.40,190.00,8.00,,10.00,29.80,
FSE,2022-05-13 14:55,-95.7735,47.5928,57.20,46.40,200.00,30.00,39.00,10.00,29.63,
HCD,2022-05-13 14:55,-94.3825,44.8599,61.70,50.00,240.00,8.00,,10.00,29.89,
MJQ,2022-05-13 14:55,-94.9865,43.6500,60.80,46.40,270.00,12.00,,10.00,29.93,
MZH,2022-05-13 14:55,-92.8048,46.4186,69.80,53.60,220.00,10.00,,10.00,29.81,
PQN,2022-05-13 14:55,-96.3004,43.9821,59.00,50.00,260.00,16.00,19.00,10.00,29.91,
RGK,2022-05-13 14:55,-92.4868,44.5915,75.20,51.80,240.00,6.00,,10.00,29.84,
ROX,2022-05-13 14:55,-95.6971,48.8560,60.80,50.00,180.00,26.00,31.00,10.00,29.55,
BDH,2022-05-13 14:55,-95.1304,45.1177,64.40,48.20,250.00,17.00,23.00,10.00,29.87,
ONA,2022-05-13 14:55,-91.7083,44.0772,80.60,59.00,240.00,6.00,,10.00,29.86,
FET,2022-05-13 14:55,-96.5200,41.4500,65.50,50.40,240.00,7.00,,10.00,30.03,
LCG,2022-05-13 14:55,-96.9814,42.2419,64.40,47.30,280.00,11.00,,10.00,29.98,
BBB,2022-05-13 14:55,-95.6506,45.3319,60.80,48.20,260.00,20.00,26.00,10.00,29.82,
CFE,2022-05-13 14:55,-93.8433,45.1590,66.20,50.00,230.00,14.00,,10.00,29.86,
TOB,2022-05-13 14:55,-92.8315,44.0180,71.60,44.60,240.00,15.00,,10.00,29.90,
DYT,2022-05-13 14:55,-92.0434,46.7219,41.00,41.00,,4.00,,0.25,29.85,FG
Y63,2022-05-13 14:55,-95.9920,45.9861,60.00,48.60,220.00,21.00,32.00,10.00,29.77,
FGN,2022-05-13 14:55,-94.9028,49.3183,44.60,39.20,170.00,11.00,,10.00,29.57,
GYL,2022-05-13 14:55,-94.0812,44.7560,64.40,49.60,230.00,6.00,16.00,10.00,29.87,
GDB,2022-05-13 14:55,-95.5560,44.7533,64.60,50.70,240.00,21.00,26.00,10.00,29.88,
14Y,2022-05-13 14:55,-94.8739,45.8983,60.80,46.40,230.00,13.00,19.00,10.00,29.81,
LYV,2022-05-13 14:55,-96.2158,43.6212,59.00,46.40,250.00,16.00,,10.00,29.93,
DXX,2022-05-13 14:55,-96.1779,44.9864,64.40,46.40,250.00,22.00,29.00,10.00,29.84,
HZX,2022-05-13 14:55,-93.3098,46.6188,66.20,50.00,210.00,12.00,21.00,10.00,29.80,
LVN,2022-05-13 14:55,-93.2273,44.6252,71.60,51.80,250.00,9.00,14.00,10.00,29.86,
VVV,2022-05-13 14:55,-96.4244,45.3057,62.60,46.40,230.00,17.00,25.00,10.00,29.80,
PEX,2022-05-13 14:55,-94.7466,45.3723,60.80,48.20,240.00,14.00,21.00,10.00,29.84,
PWC,2022-05-13 14:55,-94.3817,46.7248,62.60,46.40,210.00,20.00,25.00,10.00,29.79,
9MN,2022-05-13 14:55,-92.4831,44.0198,72.50,46.60,210.00,14.00,20.00,10.00,29.90,
ROS,2022-05-13 14:55,-92.9530,45.6980,68.70,49.50,240.00,11.00,16.00,10.00,29.84,
D39,2022-05-13 14:55,-94.9334,45.7066,60.30,46.60,230.00,17.00,26.00,10.00,29.81,
SYN,2022-05-13 14:55,-93.0145,44.4736,71.60,51.80,240.00,11.00,,10.00,29.86,
SAZ,2022-05-13 14:55,-94.8066,46.3809,62.60,46.40,210.00,17.00,21.00,10.00,29.77,
JYG,2022-05-13 14:55,-94.5579,43.9863,62.60,48.20,280.00,7.00,,10.00,29.91,
21D,2022-05-13 14:55,-92.8557,44.9975,71.60,50.00,220.00,16.00,21.00,10.00,29.86,
RRT,2022-05-13 14:55,-95.3483,48.9414,59.00,48.20,190.00,11.00,28.00,10.00,29.58,
MWM,2022-05-13 14:55,-95.1094,43.9134,62.60,48.20,240.00,11.00,,10.00,29.90,
OVL,2022-05-13 14:55,-95.0328,44.7786,62.60,46.40,250.00,13.00,20.00,10.00,29.85,
FKA,2022-05-13 14:55,-92.1797,43.6767,76.60,51.80,230.00,10.00,14.00,7.00,29.91,
Y19,2022-05-13 14:55,-100.8944,46.7680,48.20,42.80,260.00,32.00,41.00,10.00,29.48,
RUG,2022-05-13 14:55,-100.0243,48.3904,50.00,50.00,210.00,33.00,39.00,2.00,29.16,BR
08D,2022-05-13 14:55,-102.4064,48.3008,46.40,46.40,290.00,22.00,28.00,9.00,29.22,-DZ
S25,2022-05-13 14:55,-103.2552,47.7966,44.60,44.60,280.00,21.00,32.00,10.00,29.38,
AIO,2022-05-13 14:55,-95.0465,41.4059,60.80,60.80,210.00,6.00,,10.00,30.01,
ICL,2022-05-13 14:55,-95.0223,40.7242,62.60,60.80,0.00,0.00,,10.00,30.05,
CBF,2022-05-13 14:55,-95.7604,41.2611,62.60,55.40,220.00,5.00,,10.00,30.01,
OLZ,2022-05-13 14:55,-91.9760,42.6831,82.40,51.80,190.00,13.00,,10.00,29.91,
SLB,2022-05-13 14:55,-95.2399,42.5972,60.80,50.00,260.00,14.00,,10.00,29.97,
AXA,2022-05-13 14:55,-94.2724,43.0796,62.60,51.80,270.00,9.00,,10.00,29.95,
IKV,2022-05-13 14:55,-93.5695,41.6878,71.60,53.60,240.00,9.00,,9.00,29.99,
CIN,2022-05-13 14:55,-94.7889,42.0444,62.60,55.40,270.00,15.00,21.00,10.00,29.96,
CKP,2022-05-13 14:55,-95.5538,42.7304,60.40,51.30,260.00,9.00,14.00,10.00,29.97,
DEH,2022-05-13 14:55,-91.7433,43.2755,78.80,57.20,,6.00,,10.00,29.89,
FXY,2022-05-13 14:55,-93.6237,43.2323,68.00,46.40,250.00,8.00,,10.00,29.94,
LRJ,2022-05-13 14:55,-96.1923,42.7754,60.80,48.20,260.00,10.00,15.00,10.00,29.95,
OOA,2022-05-13 14:55,-92.4919,41.2273,80.80,53.80,230.00,9.00,,10.00,29.98,
PRO,2022-05-13 14:55,-94.1637,41.8278,68.00,52.00,250.00,17.00,22.00,10.00,29.98,
RDK,2022-05-13 14:55,-95.2624,41.0106,64.40,59.00,220.00,4.00,,10.00,30.03,
SHL,2022-05-13 14:55,-95.8353,43.2082,60.80,51.80,250.00,12.00,,10.00,29.92,
SDA,2022-05-13 14:55,-95.4112,40.7533,64.40,60.80,0.00,0.00,,10.00,30.01,
ADU,2022-05-13 14:55,-94.9204,41.6994,60.80,55.40,230.00,4.00,,10.00,30.01,
GGI,2022-05-13 14:55,-92.7332,41.7097,78.30,56.30,240.00,15.00,19.00,10.00,29.98,
HNR,2022-05-13 14:55,-95.3355,41.5834,60.80,59.00,220.00,7.00,,10.00,30.01,
MXO,2022-05-13 14:55,-91.1605,42.2204,82.40,57.20,110.00,9.00,14.00,10.00,29.90,
MUT,2022-05-13 14:55,-91.1406,41.3670,80.60,59.00,110.00,9.00,,10.00,29.94,
EBS,2022-05-13 14:55,-93.8691,42.4392,68.00,50.00,260.00,17.00,,10.00,29.96,
PEA,2022-05-13 14:55,-92.9431,41.3989,73.40,54.30,230.00,10.00,,10.00,29.99,
BNW,2022-05-13 14:55,-93.8486,42.0486,69.80,51.80,250.00,10.00,19.00,10.00,29.99,
CAV,2022-05-13 14:55,-93.7593,42.7430,69.80,53.60,280.00,16.00,,10.00,29.94,
DNS,2022-05-13 14:55,-95.3800,41.9842,60.80,57.20,230.00,4.00,,10.00,30.01,
FFL,2022-05-13 14:55,-91.9834,41.0521,78.80,57.20,140.00,12.00,,10.00,29.95,
TNU,2022-05-13 14:55,-93.0190,41.6701,77.00,53.60,220.00,14.00,,10.00,29.95,
96D,2022-05-13 14:55,-97.9028,48.9406,55.40,48.20,170.00,24.00,36.00,10.00,29.35,
EVM,2022-05-13 14:55,-92.4981,47.4251,57.20,55.40,180.00,8.00,,10.00,29.79,
ANW,2022-05-13 14:55,-99.9930,42.5792,63.00,36.50,250.00,15.00,,10.00,29.97,
PMV,2022-05-13 14:55,-95.9179,40.9502,66.20,57.20,260.00,5.00,,10.00,30.03,
AHQ,2022-05-13 14:55,-96.5946,41.2406,65.80,51.80,260.00,9.00,,10.00,30.02,
CKN,2022-05-13 14:55,-96.6214,47.8417,57.20,,210.00,33.00,40.00,10.00,29.55,
FBL,2022-05-13 14:55,-93.3108,44.3247,69.80,51.80,220.00,12.00,17.00,10.00,29.88,
FFM,2022-05-13 14:55,-96.1567,46.2844,62.60,48.20,220.00,22.00,27.00,10.00,29.71,
AUH,2022-05-13 14:55,-97.9946,40.8941,65.80,43.70,0.00,0.00,,10.00,30.05,
04W,2022-05-13 14:55,-92.8952,46.0229,69.80,51.80,220.00,10.00,16.00,10.00,29.82,
LXL,2022-05-13 14:55,-94.3469,45.9492,60.80,46.40,220.00,16.00,21.00,10.00,29.82,
JKJ,2022-05-13 14:55,-96.6640,46.8393,59.00,46.40,210.00,20.00,32.00,10.00,29.67,
VWU,2022-05-13 14:55,-94.5167,48.1539,69.80,48.20,180.00,7.00,16.00,10.00,29.63,
3N8,2022-05-13 14:55,-95.9281,47.2605,58.30,47.70,200.00,30.00,37.00,10.00,29.64,
GRN,2022-05-13 14:55,-102.1753,42.8060,57.00,30.40,240.00,18.00,23.00,10.00,29.97,
HPT,2022-05-13 14:55,-93.2244,42.7175,73.40,50.00,230.00,8.00,,10.00,29.93,
SXK,2022-05-13 14:55,-96.1614,42.9858,59.00,50.00,250.00,16.00,,10.00,29.94,
IBM,2022-05-13 14:55,-103.6774,41.1881,57.70,19.00,280.00,23.00,34.00,10.00,30.08,
LXN,2022-05-13 14:55,-99.7759,40.7904,64.40,41.70,270.00,9.00,,10.00,30.06,
OGA,2022-05-13 14:55,-101.7697,41.1195,63.00,27.00,260.00,5.00,,10.00,30.06,
HJH,2022-05-13 14:55,-97.5870,40.1523,67.60,45.30,360.00,4.00,,10.00,30.04,
AFK,2022-05-13 14:55,-95.8657,40.6069,64.80,59.50,300.00,8.00,,10.00,30.02,
JYR,2022-05-13 14:55,-97.6228,40.8967,64.40,48.20,280.00,4.00,,10.00,30.04,
TVK,2022-05-13 14:55,-92.8983,40.6832,73.40,55.40,200.00,22.00,26.00,10.00,30.05,
20U,2022-05-13 14:55,-103.9821,46.9252,42.80,42.80,290.00,30.00,42.00,9.00,29.60,-DZ
BWW,2022-05-13 14:55,-103.3007,46.1655,44.60,44.60,280.00,33.00,44.00,8.00,29.63,
9D7,2022-05-13 14:55,-99.2364,48.4800,53.60,,190.00,29.00,40.00,10.00,29.25,
46D,2022-05-13 14:55,-99.1513,47.4511,53.60,46.40,220.00,29.00,41.00,10.00,29.41,
2C8,2022-05-13 14:55,-97.6320,48.7837,55.40,50.00,170.00,27.00,36.00,10.00,29.38,
D50,2022-05-13 14:55,-103.2973,48.9285,44.60,44.60,310.00,22.00,29.00,4.00,29.25,RA
D57,2022-05-13 14:55,-101.8602,46.8128,46.40,39.20,260.00,31.00,41.00,10.00,29.48,
GAF,2022-05-13 14:55,-97.3709,48.4047,55.40,48.20,180.00,23.00,31.00,9.00,29.45,
GWR,2022-05-13 14:55,-97.6435,46.2187,57.20,55.40,230.00,32.00,45.00,10.00,29.65,
5H4,2022-05-13 14:55,-99.9317,47.7912,50.00,46.40,220.00,37.00,45.00,10.00,29.30,
D55,2022-05-13 14:55,-98.3937,48.7531,51.80,51.80,180.00,31.00,41.00,10.00,29.31,
2D5,2022-05-13 14:55,-98.0799,46.1731,57.20,48.20,220.00,27.00,37.00,10.00,29.65,
S32,2022-05-13 14:55,-98.1059,47.4228,53.60,53.60,210.00,29.00,43.00,10.00,29.47,
BAC,2022-05-13 14:55,-98.0180,46.9412,55.40,48.20,220.00,32.00,39.00,10.00,29.54,
BWP,2022-05-13 14:55,-96.6074,46.2441,60.80,48.20,210.00,21.00,33.00,10.00,29.72,
BTN,2022-05-13 14:55,-97.7428,45.8150,59.00,48.20,220.00,23.00,32.00,10.00,29.70,
9V9,2022-05-13 14:55,-99.3183,43.7667,61.70,43.70,220.00,15.00,,10.00,29.89,
HON,2022-05-13 14:55,-98.2286,44.3852,63.00,45.00,230.00,11.00,21.00,10.00,29.86,
PHP,2022-05-13 14:55,-101.6000,44.0500,61.00,41.00,240.00,19.00,28.00,10.00,29.84,
SPF,2022-05-13 14:55,-103.7830,44.4803,51.80,33.80,260.00,20.00,28.00,10.00,29.86,
BVN,2022-05-13 14:55,-98.0558,41.7286,65.00,45.30,300.00,10.00,,10.00,30.01,
BIE,2022-05-13 14:55,-96.7541,40.3013,69.40,54.00,330.00,5.00,,10.00,30.02,
BTA,2022-05-13 14:55,-96.1090,41.4148,63.70,49.30,230.00,6.00,,10.00,30.01,
CQM,2022-05-13 14:55,-92.6894,47.8219,62.60,55.40,170.00,12.00,16.00,10.00,29.74,
TKC,2022-05-13 14:55,-95.6072,44.2491,62.80,44.00,260.00,11.00,20.00,10.00,29.89,
Y49,2022-05-13 14:55,-94.6453,47.1595,60.40,45.00,210.00,17.00,27.00,10.00,29.69,
DLH,2022-05-13 14:55,-92.1936,46.8421,47.00,47.00,140.00,8.00,,0.12,29.83,FG
I75,2022-05-13 14:55,-93.6876,41.0472,67.00,58.00,200.00,10.00,14.00,10.00,30.01,
HDE,2022-05-13 14:55,-99.3365,40.4521,62.00,41.20,0.00,0.00,,10.00,30.07,
MLE,2022-05-13 14:55,-96.1120,41.1960,65.00,55.60,0.00,0.00,,10.00,30.02,
ONL,2022-05-13 14:55,-98.6881,42.4697,60.00,42.40,210.00,7.00,,10.00,30.00,
TIF,2022-05-13 14:55,-100.5690,41.9622,63.00,32.20,280.00,14.00,19.00,10.00,30.00,
2WX,2022-05-13 14:56,-103.5464,45.6044,49.00,41.00,270.00,35.00,44.00,,29.67,
GPZ,2022-05-13 14:56,-93.5097,47.2111,66.00,50.00,200.00,12.00,22.00,10.00,29.76,
TVF,2022-05-13 14:56,-96.1850,48.0657,57.00,48.00,190.00,32.00,40.00,10.00,29.58,
OTG,2022-05-13 14:56,-95.5792,43.6551,61.00,50.00,260.00,15.00,21.00,10.00,29.92,
EAR,2022-05-13 14:56,-99.0068,40.7270,62.00,43.00,200.00,5.00,,10.00,30.07,
OFK,2022-05-13 14:56,-97.4351,41.9855,66.00,43.00,300.00,13.00,,10.00,29.99,
FOD,2022-05-13 14:56,-94.2032,42.5497,64.00,52.00,270.00,7.00,,10.00,29.97,
RYM,2022-05-13 14:56,-94.3575,46.0895,62.40,47.80,220.00,10.00,16.00,10.00,29.78,
RDR,2022-05-13 14:56,-97.4012,47.9611,55.40,46.60,200.00,30.00,35.00,10.00,29.47,
DVL,2022-05-13 14:56,-98.9083,48.1146,52.00,45.00,200.00,25.00,33.00,10.00,29.32,
MIB,2022-05-13 14:56,-101.3580,48.4158,53.40,44.60,280.00,9.00,,10.00,29.11,
D07,2022-05-13 14:56,-102.0200,45.0300,54.00,41.00,270.00,30.00,47.00,,29.75,
FSD,2022-05-13 14:56,-96.7536,43.5769,63.00,45.00,240.00,11.00,21.00,10.00,29.93,
8D3,2022-05-13 14:56,-96.9914,45.6689,63.00,46.00,220.00,19.00,36.00,,29.74,
YKN,2022-05-13 14:56,-97.3859,42.9167,63.00,45.00,220.00,11.00,,10.00,29.96,
OFF,2022-05-13 14:56,-95.9125,41.1183,65.50,56.00,300.00,4.00,,10.00,30.04,
FRM,2022-05-13 14:56,-94.4156,43.6439,63.00,49.00,300.00,12.00,,10.00,29.92,
MKT,2022-05-13 14:56,-93.9200,44.2200,66.00,51.00,260.00,12.00,,10.00,29.89,
GNA,2022-05-13 14:56,-90.3457,47.7453,50.00,44.00,80.00,10.00,,,29.81,
JMS,2022-05-13 14:56,-98.6800,46.9300,55.00,42.00,230.00,32.00,51.00,10.00,29.49,
RCA,2022-05-13 14:56,-103.1036,44.1451,58.60,33.00,300.00,20.00,24.00,10.00,29.84,
OLU,2022-05-13 14:56,-97.3426,41.4480,65.00,44.00,230.00,7.00,,10.00,30.04,
DIK,2022-05-13 14:56,-102.8019,46.7973,44.00,40.00,270.00,30.00,42.00,10.00,29.49,
MML,2022-05-13 14:56,-95.8200,44.4500,62.00,49.00,250.00,18.00,24.00,10.00,29.88,
CWI,2022-05-13 14:56,-90.3328,41.8295,80.00,66.00,,,,10.00,29.96,
1HW,2022-05-13 14:58,-102.8289,41.3251,60.30,21.20,300.00,19.00,27.00,10.00,30.03,
1CW,2022-05-13 14:58,-103.6706,41.5900,57.40,16.70,270.00,18.00,23.00,10.00,30.05,
1BW,2022-05-13 14:58,-103.9950,41.5117,54.00,18.10,270.00,21.00,25.00,10.00,30.07,
PNM,2022-05-13 15:15,-93.6082,45.5599,69.80,50.00,210.00,10.00,18.00,10.00,29.85,
FSE,2022-05-13 15:15,-95.7735,47.5928,57.20,46.40,190.00,31.00,41.00,10.00,29.63,
SYN,2022-05-13 15:15,-93.0145,44.4736,71.60,52.20,230.00,11.00,,10.00,29.88,
MGG,2022-05-13 15:25,-93.9856,45.2360,66.20,44.60,240.00,10.00,14.00,10.00,29.87,
ORB,2022-05-13 15:33,-92.8560,48.0159,64.40,55.40,180.00,10.00,17.00,10.00,29.71,
EVM,2022-05-13 15:35,-92.4981,47.4251,62.60,55.40,180.00,8.00,,10.00,29.79,
XWA,2022-05-13 15:51,-103.7505,48.2597,43.00,41.00,310.00,29.00,41.00,6.00,29.37,-RA BR
VTN,2022-05-13 15:52,-100.5489,42.8567,70.00,30.00,250.00,22.00,,10.00,29.93,
BIS,2022-05-13 15:52,-100.7458,46.7727,53.00,41.00,240.00,32.00,51.00,10.00,29.52,
IEN,2022-05-13 15:52,-102.5110,43.0225,61.00,30.90,270.00,18.00,28.00,10.00,29.95,
N60,2022-05-13 15:52,-101.4394,47.6458,46.00,42.00,240.00,25.00,40.00,,29.33,
IOW,2022-05-13 15:52,-91.5445,41.6394,86.00,53.00,170.00,9.00,,10.00,29.95,
CID,2022-05-13 15:52,-91.7246,41.8829,82.00,56.00,180.00,12.00,,10.00,29.94,
DVN,2022-05-13 15:52,-90.5948,41.6133,84.00,65.00,150.00,12.00,,3.00,29.93,HZ
RAP,2022-05-13 15:52,-103.0574,44.0453,61.00,35.00,270.00,19.00,28.00,10.00,29.87,
OMA,2022-05-13 15:52,-95.8992,41.3103,71.00,47.00,270.00,7.00,,10.00,29.99,
EST,2022-05-13 15:52,-94.7476,43.4008,65.00,47.00,260.00,9.00,,10.00,29.96,
SUX,2022-05-13 15:52,-96.3795,42.3917,67.00,49.00,240.00,12.00,17.00,10.00,29.98,
MBG,2022-05-13 15:52,-100.4078,45.5464,60.00,44.00,250.00,21.00,34.00,10.00,29.70,
IML,2022-05-13 15:53,-101.6201,40.5103,66.00,27.00,310.00,12.00,24.00,10.00,30.07,
SNY,2022-05-13 15:53,-102.9847,41.1014,65.00,21.90,250.00,21.00,32.00,10.00,30.05,
CDR,2022-05-13 15:53,-103.0954,42.8376,62.00,30.90,280.00,22.00,30.00,10.00,29.95,
MCK,2022-05-13 15:53,-100.5921,40.2063,68.00,30.00,320.00,7.00,,10.00,30.06,
AXN,2022-05-13 15:53,-95.3947,45.8663,63.00,48.00,230.00,19.00,30.00,10.00,29.81,
BRD,2022-05-13 15:53,-94.1308,46.4047,66.00,46.00,210.00,12.00,32.00,10.00,29.79,
HIB,2022-05-13 15:53,-92.8390,47.3866,66.00,52.00,180.00,15.00,32.00,10.00,29.75,
MSP,2022-05-13 15:53,-93.2313,44.8854,72.00,50.00,240.00,12.00,,10.00,29.87,
FCM,2022-05-13 15:53,-93.4607,44.8261,70.00,52.00,230.00,14.00,21.00,10.00,29.87,
PKD,2022-05-13 15:53,-95.0700,46.9000,63.00,45.00,210.00,27.00,37.00,10.00,29.72,
FNB,2022-05-13 15:53,-95.5920,40.0788,70.00,61.00,360.00,3.00,,10.00,29.98,
OWA,2022-05-13 15:53,-93.2606,44.1233,71.60,53.60,240.00,12.00,16.00,10.00,29.92,
STP,2022-05-13 15:53,-93.0600,44.9345,73.00,50.00,230.00,14.00,20.00,10.00,29.86,
BFF,2022-05-13 15:53,-103.5956,41.8740,63.00,25.00,260.00,15.00,24.00,10.00,30.04,
AQP,2022-05-13 15:53,-96.0043,45.2275,66.20,46.40,240.00,20.00,29.00,10.00,29.81,
FOZ,2022-05-13 15:53,-93.6502,47.7828,69.80,48.20,190.00,22.00,30.00,10.00,29.76,
XVG,2022-05-13 15:53,-94.2039,46.9900,64.40,44.60,210.00,12.00,21.00,10.00,29.74,
MIW,2022-05-13 15:53,-92.9163,42.1106,76.00,50.00,250.00,19.00,27.00,10.00,29.96,
SPW,2022-05-13 15:53,-95.2101,43.1682,66.00,48.00,260.00,8.00,,10.00,29.96,
AIA,2022-05-13 15:53,-102.8000,42.0572,62.00,25.00,250.00,25.00,35.00,10.00,30.01,
ORB,2022-05-13 15:53,-92.8560,48.0159,66.20,55.40,180.00,15.00,20.00,10.00,29.72,
DVP,2022-05-13 15:53,-95.7826,43.9868,61.70,48.60,230.00,17.00,24.00,10.00,29.92,
ODX,2022-05-13 15:53,-98.9517,41.6236,66.00,43.00,,,,10.00,30.01,
GFK,2022-05-13 15:53,-97.1761,47.9492,58.00,46.00,200.00,24.00,44.00,10.00,29.51,
ABR,2022-05-13 15:53,-98.4200,45.4500,62.00,46.00,230.00,22.00,36.00,10.00,29.76,
CUT,2022-05-13 15:53,-103.6114,43.7331,48.00,30.90,270.00,21.00,32.00,10.00,29.92,
ATY,2022-05-13 15:53,-97.1547,44.9140,62.00,45.00,220.00,23.00,36.00,10.00,29.82,
DBQ,2022-05-13 15:53,-90.7091,42.3984,84.00,62.00,140.00,9.00,,10.00,29.92,
STC,2022-05-13 15:53,-94.0513,45.5433,63.00,47.00,210.00,14.00,,10.00,29.84,
HSI,2022-05-13 15:53,-98.4279,40.6052,68.00,42.00,360.00,4.00,,10.00,30.07,
FAR,2022-05-13 15:53,-96.8111,46.9253,61.00,44.00,200.00,31.00,40.00,10.00,29.65,
AMW,2022-05-13 15:53,-93.6185,41.9904,72.00,53.00,260.00,12.00,,10.00,29.99,
LBF,2022-05-13 15:53,-100.6690,41.1219,68.00,33.00,260.00,9.00,,10.00,30.05,
PIR,2022-05-13 15:53,-100.2860,44.3827,66.00,38.00,270.00,22.00,35.00,10.00,29.80,
ICR,2022-05-13 15:53,-99.8422,43.3903,68.00,40.00,260.00,14.00,22.00,10.00,29.90,
BBW,2022-05-13 15:53,-99.6385,41.4365,68.00,35.00,260.00,8.00,,10.00,30.03,
MCW,2022-05-13 15:53,-93.3261,43.1544,71.00,49.00,260.00,12.00,19.00,10.00,29.97,
HEI,2022-05-13 15:53,-102.6560,46.0149,49.00,42.00,260.00,25.00,35.00,10.00,29.68,
BDE,2022-05-13 15:53,-94.6122,48.7284,67.00,47.00,180.00,19.00,34.00,10.00,29.61,
RWF,2022-05-13 15:53,-95.0820,44.5469,65.00,47.00,250.00,15.00,23.00,10.00,29.89,
LWD,2022-05-13 15:53,-93.9005,40.6306,65.00,58.00,220.00,7.00,18.00,10.00,29.92,
OTM,2022-05-13 15:53,-92.4446,41.1008,78.00,56.00,250.00,16.00,21.00,10.00,29.99,
GRI,2022-05-13 15:53,-98.3096,40.9675,69.00,42.00,250.00,4.00,,10.00,30.05,
MHE,2022-05-13 15:53,-98.0386,43.7748,67.00,44.00,220.00,12.00,19.00,10.00,29.91,
MIC,2022-05-13 15:53,-93.3511,45.0622,71.00,52.00,230.00,10.00,17.00,10.00,29.85,
BRL,2022-05-13 15:53,-91.1255,40.7729,83.00,63.00,180.00,5.00,,10.00,29.95,
ALO,2022-05-13 15:54,-92.4013,42.5544,82.00,52.00,230.00,21.00,31.00,10.00,29.92,
INL,2022-05-13 15:54,-93.3956,48.5595,68.00,55.00,180.00,9.00,22.00,10.00,29.66,
RST,2022-05-13 15:54,-92.4916,43.9041,76.00,46.00,230.00,14.00,,10.00,29.91,
LNK,2022-05-13 15:54,-96.7633,40.8312,72.00,47.00,330.00,6.00,,10.00,30.02,
DSM,2022-05-13 15:54,-93.6531,41.5339,70.00,53.00,270.00,19.00,27.00,10.00,29.95,
TQE,2022-05-13 15:54,-96.1779,41.7635,70.00,51.00,280.00,8.00,,10.00,30.00,
MOT,2022-05-13 15:54,-101.2803,48.2594,51.00,47.00,220.00,23.00,35.00,10.00,29.18,
S32,2022-05-13 15:55,-98.1059,47.4228,53.60,53.60,210.00,30.00,40.00,10.00,29.51,
VTI,2022-05-13 15:55,-92.0248,42.2176,85.00,47.80,220.00,14.00,21.00,10.00,29.94,
CCY,2022-05-13 15:55,-92.6132,43.0730,77.00,50.00,240.00,10.00,19.00,10.00,29.93,
CNC,2022-05-13 15:55,-93.3608,41.0184,68.00,60.80,220.00,10.00,18.00,10.00,29.97,
CSQ,2022-05-13 15:55,-94.3608,41.0188,66.20,66.20,250.00,15.00,,10.00,29.96,
FSW,2022-05-13 15:55,-91.3267,40.6615,82.40,60.80,130.00,3.00,,10.00,29.96,
AWG,2022-05-13 15:55,-91.6748,41.2751,84.20,57.20,230.00,10.00,,10.00,29.95,
SGS,2022-05-13 15:55,-93.0329,44.8571,74.00,48.40,230.00,10.00,16.00,10.00,29.86,
ACQ,2022-05-13 15:55,-93.5529,44.0735,68.00,51.80,250.00,10.00,16.00,,29.93,
EOK,2022-05-13 15:55,-91.4274,40.4615,82.40,62.60,0.00,0.00,,10.00,29.97,
MPZ,2022-05-13 15:55,-91.5122,40.9453,86.00,55.40,140.00,7.00,,10.00,29.96,
AEL,2022-05-13 15:55,-93.3672,43.6815,71.60,48.20,230.00,8.00,,10.00,29.94,
PNM,2022-05-13 15:55,-93.6082,45.5599,68.00,48.20,200.00,11.00,18.00,10.00,29.85,
JYG,2022-05-13 15:55,-94.5579,43.9863,64.40,48.20,260.00,9.00,,10.00,29.92,
OVL,2022-05-13 15:55,-95.0328,44.7786,64.40,48.20,240.00,18.00,21.00,10.00,29.87,
HZE,2022-05-13 15:55,-101.5810,47.2899,46.40,44.60,240.00,29.00,39.00,4.00,29.43,-RA
D55,2022-05-13 15:55,-98.3937,48.7531,53.60,53.60,190.00,28.00,40.00,10.00,29.32,
7L2,2022-05-13 15:55,-100.2456,46.2206,55.40,42.80,260.00,25.00,33.00,10.00,29.65,
06D,2022-05-13 15:55,-99.6208,48.8844,50.00,50.00,200.00,27.00,37.00,9.00,29.17,
D60,2022-05-13 15:55,-102.8974,48.3803,44.60,44.60,290.00,22.00,29.00,6.00,29.28,-RA
GHW,2022-05-13 15:55,-95.3204,45.6439,62.60,50.00,230.00,19.00,29.00,10.00,29.81,
ULM,2022-05-13 15:55,-94.5000,44.3200,64.40,48.20,280.00,11.00,,10.00,29.91,
AIT,2022-05-13 15:55,-93.6768,46.5484,68.00,48.20,180.00,11.00,17.00,10.00,29.78,
AUM,2022-05-13 15:55,-92.9333,43.6647,73.40,51.80,250.00,12.00,19.00,10.00,29.93,
TOB,2022-05-13 15:55,-92.8315,44.0180,73.40,48.20,240.00,13.00,20.00,10.00,29.91,
HCO,2022-05-13 15:55,-96.9430,48.7527,59.00,51.80,170.00,36.00,41.00,10.00,29.46,
MJQ,2022-05-13 15:55,-94.9865,43.6500,62.60,46.40,250.00,10.00,,10.00,29.94,
JMR,2022-05-13 15:55,-93.2718,45.8861,64.40,50.00,240.00,8.00,,10.00,29.85,
PQN,2022-05-13 15:55,-96.3004,43.9821,62.60,51.80,260.00,16.00,19.00,10.00,29.92,
RGK,2022-05-13 15:55,-92.4868,44.5915,77.00,44.60,250.00,8.00,,10.00,29.86,
ROX,2022-05-13 15:55,-95.6971,48.8560,60.80,50.00,180.00,27.00,33.00,10.00,29.55,
ONA,2022-05-13 15:55,-91.7083,44.0772,82.40,55.40,250.00,10.00,15.00,10.00,29.87,
LCG,2022-05-13 15:55,-96.9814,42.2419,67.00,48.40,260.00,9.00,,10.00,30.01,
BBB,2022-05-13 15:55,-95.6506,45.3319,62.60,48.20,280.00,20.00,27.00,10.00,29.83,
COQ,2022-05-13 15:55,-92.5036,46.7011,48.20,48.20,130.00,5.00,,1.25,29.82,BR
DYT,2022-05-13 15:55,-92.0434,46.7219,,,,,,,,
ELO,2022-05-13 15:55,-91.8371,47.8287,62.60,55.40,180.00,12.00,,10.00,29.80,
FGN,2022-05-13 15:55,-94.9028,49.3183,46.40,39.20,170.00,12.00,,10.00,29.57,
FSE,2022-05-13 15:55,-95.7735,47.5928,59.00,46.40,200.00,34.00,42.00,10.00,29.63,
GYL,2022-05-13 15:55,-94.0812,44.7560,64.00,47.80,250.00,9.00,15.00,10.00,29.90,
HCD,2022-05-13 15:55,-94.3825,44.8599,65.80,51.40,220.00,9.00,16.00,10.00,29.90,
DXX,2022-05-13 15:55,-96.1779,44.9864,66.20,46.40,240.00,23.00,28.00,10.00,29.84,
LVN,2022-05-13 15:55,-93.2273,44.6252,71.60,50.00,240.00,6.00,,10.00,29.88,
MZH,2022-05-13 15:55,-92.8048,46.4186,71.60,46.40,220.00,12.00,20.00,10.00,29.81,
PWC,2022-05-13 15:55,-94.3817,46.7248,64.40,48.20,220.00,17.00,23.00,10.00,29.80,
ROS,2022-05-13 15:55,-92.9530,45.6980,69.40,47.70,230.00,10.00,18.00,10.00,29.84,
SAZ,2022-05-13 15:55,-94.8066,46.3809,64.40,46.40,220.00,14.00,21.00,10.00,29.78,
RRT,2022-05-13 15:55,-95.3483,48.9414,59.00,50.00,170.00,17.00,22.00,10.00,29.58,
BDH,2022-05-13 15:55,-95.1304,45.1177,64.40,48.20,250.00,20.00,25.00,10.00,29.89,
MWM,2022-05-13 15:55,-95.1094,43.9134,64.40,46.40,250.00,14.00,17.00,10.00,29.92,
CFE,2022-05-13 15:55,-93.8433,45.1590,66.20,51.80,230.00,13.00,18.00,10.00,29.86,
Y63,2022-05-13 15:55,-95.9920,45.9861,62.00,48.60,240.00,22.00,31.00,10.00,29.79,
GDB,2022-05-13 15:55,-95.5560,44.7533,65.70,50.40,230.00,23.00,,10.00,29.88,
14Y,2022-05-13 15:55,-94.8739,45.8983,60.80,46.40,240.00,19.00,24.00,10.00,29.82,
LYV,2022-05-13 15:55,-96.2158,43.6212,62.60,44.60,250.00,14.00,19.00,10.00,29.94,
HZX,2022-05-13 15:55,-93.3098,46.6188,66.20,46.40,190.00,20.00,24.00,10.00,29.80,
VVV,2022-05-13 15:55,-96.4244,45.3057,64.40,48.20,240.00,16.00,22.00,10.00,29.81,
PEX,2022-05-13 15:55,-94.7466,45.3723,62.60,48.20,230.00,17.00,24.00,10.00,29.85,
FKA,2022-05-13 15:55,-92.1797,43.6767,77.00,46.00,250.00,11.00,,7.00,29.92,
9MN,2022-05-13 15:55,-92.4831,44.0198,75.70,43.70,220.00,11.00,17.00,10.00,29.92,
D39,2022-05-13 15:55,-94.9334,45.7066,61.50,47.70,230.00,20.00,25.00,10.00,29.82,
SYN,2022-05-13 15:55,-93.0145,44.4736,73.00,51.40,230.00,9.00,,10.00,29.88,
21D,2022-05-13 15:55,-92.8557,44.9975,71.60,50.00,230.00,11.00,16.00,10.00,29.87,
TKC,2022-05-13 15:55,-95.6072,44.2491,64.40,44.80,250.00,14.00,22.00,10.00,29.89,
Y19,2022-05-13 15:55,-100.8944,46.7680,50.00,42.80,240.00,32.00,48.00,10.00,29.51,
RUG,2022-05-13 15:55,-100.0243,48.3904,50.00,48.20,220.00,33.00,40.00,10.00,29.20,
08D,2022-05-13 15:55,-102.4064,48.3008,46.40,46.40,280.00,23.00,31.00,9.00,29.25,-DZ
S25,2022-05-13 15:55,-103.2552,47.7966,44.60,44.60,280.00,23.00,31.00,9.00,29.42,-RA
IKV,2022-05-13 15:55,-93.5695,41.6878,69.80,53.60,290.00,14.00,20.00,10.00,29.97,
AIO,2022-05-13 15:55,-95.0465,41.4059,64.40,62.60,250.00,8.00,,10.00,29.99,
CKP,2022-05-13 15:55,-95.5538,42.7304,62.60,51.40,250.00,9.00,,10.00,29.99,
ICL,2022-05-13 15:55,-95.0223,40.7242,68.00,59.00,310.00,5.00,,10.00,30.02,
CBF,2022-05-13 15:55,-95.7604,41.2611,66.20,46.40,300.00,8.00,,10.00,29.98,
DEH,2022-05-13 15:55,-91.7433,43.2755,80.60,48.20,,6.00,18.00,10.00,29.90,
OLZ,2022-05-13 15:55,-91.9760,42.6831,82.40,50.00,260.00,16.00,,10.00,29.93,
OOA,2022-05-13 15:55,-92.4919,41.2273,81.30,52.00,250.00,19.00,23.00,10.00,30.00,
RDK,2022-05-13 15:55,-95.2624,41.0106,66.20,53.60,270.00,6.00,,10.00,30.00,
SHL,2022-05-13 15:55,-95.8353,43.2082,62.60,50.00,240.00,13.00,18.00,10.00,29.95,
SDA,2022-05-13 15:55,-95.4112,40.7533,69.80,53.60,350.00,4.00,,10.00,29.99,
SLB,2022-05-13 15:55,-95.2399,42.5972,60.80,50.00,260.00,13.00,,10.00,29.98,
AXA,2022-05-13 15:55,-94.2724,43.0796,64.40,53.60,270.00,11.00,,10.00,29.96,
ADU,2022-05-13 15:55,-94.9204,41.6994,62.60,55.40,230.00,5.00,,10.00,30.00,
CIN,2022-05-13 15:55,-94.7889,42.0444,62.60,51.80,270.00,15.00,,10.00,29.97,
FXY,2022-05-13 15:55,-93.6237,43.2323,68.00,46.40,260.00,6.00,,10.00,29.96,
HNR,2022-05-13 15:55,-95.3355,41.5834,64.40,55.40,260.00,10.00,,10.00,30.00,
LRJ,2022-05-13 15:55,-96.1923,42.7754,64.40,48.20,240.00,11.00,,10.00,29.97,
MUT,2022-05-13 15:55,-91.1406,41.3670,84.20,59.00,120.00,7.00,,10.00,29.93,
I75,2022-05-13 15:55,-93.6876,41.0472,66.20,60.80,200.00,5.00,,10.00,29.95,-RA
PRO,2022-05-13 15:55,-94.1637,41.8278,69.30,50.20,270.00,11.00,,10.00,29.99,
MXO,2022-05-13 15:55,-91.1605,42.2204,86.00,57.20,140.00,11.00,19.00,10.00,29.90,
PEA,2022-05-13 15:55,-92.9431,41.3989,72.70,55.40,230.00,14.00,20.00,10.00,30.00,
EBS,2022-05-13 15:55,-93.8691,42.4392,69.80,50.00,270.00,12.00,17.00,10.00,29.97,
BNW,2022-05-13 15:55,-93.8486,42.0486,68.00,51.80,260.00,10.00,,10.00,30.01,
CAV,2022-05-13 15:55,-93.7593,42.7430,68.00,50.00,280.00,12.00,,10.00,29.97,
DNS,2022-05-13 15:55,-95.3800,41.9842,62.60,53.60,250.00,10.00,,10.00,30.01,
FFL,2022-05-13 15:55,-91.9834,41.0521,84.20,53.60,230.00,10.00,,10.00,29.99,
TNU,2022-05-13 15:55,-93.0190,41.6701,75.20,50.00,230.00,13.00,21.00,10.00,29.99,
96D,2022-05-13 15:55,-97.9028,48.9406,55.40,46.40,170.00,21.00,35.00,10.00,29.35,
EVM,2022-05-13 15:55,-92.4981,47.4251,64.40,55.40,200.00,11.00,16.00,10.00,29.79,
ANW,2022-05-13 15:55,-99.9930,42.5792,65.80,31.80,270.00,19.00,24.00,10.00,29.97,
AUH,2022-05-13 15:55,-97.9946,40.8941,67.30,46.60,0.00,0.00,,10.00,30.05,
PMV,2022-05-13 15:55,-95.9179,40.9502,69.60,57.60,300.00,6.00,,10.00,30.00,
CKN,2022-05-13 15:55,-96.6214,47.8417,57.20,,220.00,33.00,42.00,10.00,29.57,
FBL,2022-05-13 15:55,-93.3108,44.3247,71.60,51.80,230.00,11.00,,10.00,29.90,
FFM,2022-05-13 15:55,-96.1567,46.2844,62.60,48.20,220.00,20.00,30.00,10.00,29.73,
04W,2022-05-13 15:55,-92.8952,46.0229,69.80,51.80,200.00,11.00,,10.00,29.83,
LXL,2022-05-13 15:55,-94.3469,45.9492,62.60,48.20,230.00,14.00,21.00,10.00,29.83,
JKJ,2022-05-13 15:55,-96.6640,46.8393,60.80,46.40,210.00,26.00,35.00,10.00,29.67,
VWU,2022-05-13 15:55,-94.5167,48.1539,69.80,46.40,190.00,14.00,21.00,10.00,29.65,
3N8,2022-05-13 15:55,-95.9281,47.2605,59.50,48.20,210.00,28.00,36.00,10.00,29.65,
HPT,2022-05-13 15:55,-93.2244,42.7175,73.40,50.00,270.00,16.00,22.00,10.00,29.96,
SXK,2022-05-13 15:55,-96.1614,42.9858,64.40,51.80,250.00,15.00,,10.00,29.95,
HJH,2022-05-13 15:55,-97.5870,40.1523,71.40,41.70,360.00,3.00,,10.00,30.04,
HDE,2022-05-13 15:55,-99.3365,40.4521,64.60,37.20,220.00,3.00,,10.00,30.07,
IBM,2022-05-13 15:55,-103.6774,41.1881,62.60,19.40,260.00,21.00,27.00,10.00,30.08,
LXN,2022-05-13 15:55,-99.7759,40.7904,67.00,35.80,0.00,0.00,,10.00,30.06,
MLE,2022-05-13 15:55,-96.1120,41.1960,69.00,50.00,300.00,8.00,,10.00,30.01,
AFK,2022-05-13 15:55,-95.8657,40.6069,,,,,,,,
OGA,2022-05-13 15:55,-101.7697,41.1195,67.80,28.80,300.00,15.00,21.00,10.00,30.05,
ONL,2022-05-13 15:55,-98.6881,42.4697,65.30,40.80,200.00,9.00,14.00,10.00,29.99,
TIF,2022-05-13 15:55,-100.5690,41.9622,67.30,26.20,290.00,18.00,24.00,10.00,30.00,
JYR,2022-05-13 15:55,-97.6228,40.8967,68.00,46.40,250.00,4.00,,10.00,30.05,
ANE,2022-05-13 15:55,-93.2102,45.1449,73.40,50.00,230.00,10.00,15.00,10.00,29.86,
TVK,2022-05-13 15:55,-92.8983,40.6832,73.40,55.40,200.00,7.00,14.00,10.00,30.01,
20U,2022-05-13 15:55,-103.9821,46.9252,44.60,42.80,290.00,28.00,38.00,10.00,29.62,
BWW,2022-05-13 15:55,-103.3007,46.1655,44.60,44.60,280.00,33.00,38.00,3.00,29.66,-RA
9D7,2022-05-13 15:55,-99.2364,48.4800,51.80,,210.00,30.00,45.00,10.00,29.27,
46D,2022-05-13 15:55,-99.1513,47.4511,53.60,44.60,230.00,31.00,42.00,10.00,29.44,
2C8,2022-05-13 15:55,-97.6320,48.7837,55.40,48.20,180.00,27.00,39.00,10.00,29.38,
D50,2022-05-13 15:55,-103.2973,48.9285,44.60,44.60,310.00,21.00,27.00,1.25,29.26,-RA
D57,2022-05-13 15:55,-101.8602,46.8128,48.20,39.20,270.00,36.00,43.00,10.00,29.50,
GAF,2022-05-13 15:55,-97.3709,48.4047,55.40,46.40,180.00,27.00,35.00,10.00,29.46,
GWR,2022-05-13 15:55,-97.6435,46.2187,59.00,57.20,240.00,34.00,47.00,10.00,29.66,
5H4,2022-05-13 15:55,-99.9317,47.7912,48.20,44.60,230.00,36.00,48.00,10.00,29.34,
2D5,2022-05-13 15:55,-98.0799,46.1731,59.00,46.40,220.00,30.00,41.00,10.00,29.67,
BAC,2022-05-13 15:55,-98.0180,46.9412,57.20,48.20,220.00,34.00,41.00,10.00,29.56,
BWP,2022-05-13 15:55,-96.6074,46.2441,62.60,50.00,230.00,26.00,36.00,10.00,29.72,
BTN,2022-05-13 15:55,-97.7428,45.8150,60.80,48.20,220.00,27.00,43.00,10.00,29.71,
9V9,2022-05-13 15:55,-99.3183,43.7667,66.40,40.50,250.00,14.00,22.00,10.00,29.88,
HON,2022-05-13 15:55,-98.2286,44.3852,66.00,45.00,230.00,13.00,24.00,10.00,29.86,
SPF,2022-05-13 15:55,-103.7830,44.4803,55.40,32.00,270.00,20.00,31.00,10.00,29.85,
BVN,2022-05-13 15:55,-98.0558,41.7286,66.20,43.30,230.00,5.00,,10.00,30.02,
BIE,2022-05-13 15:55,-96.7541,40.3013,72.50,50.50,320.00,4.00,,10.00,30.02,
BTA,2022-05-13 15:55,-96.1090,41.4148,67.30,47.70,240.00,9.00,,10.00,30.01,
CQM,2022-05-13 15:55,-92.6894,47.8219,66.20,53.60,170.00,11.00,18.00,10.00,29.74,
DTL,2022-05-13 15:55,-95.8856,46.8252,59.00,44.60,220.00,24.00,31.00,10.00,29.70,
OXV,2022-05-13 15:55,-93.1114,41.2984,71.60,55.40,220.00,13.00,20.00,10.00,29.99,
IFA,2022-05-13 15:55,-93.2651,42.4691,74.30,53.00,260.00,14.00,20.00,10.00,29.99,
DLH,2022-05-13 15:55,-92.1936,46.8421,50.00,49.00,140.00,7.00,,2.50,29.83,BR
GGI,2022-05-13 15:55,-92.7332,41.7097,77.70,53.00,230.00,20.00,27.00,10.00,30.00,
AHQ,2022-05-13 15:55,-96.5946,41.2406,68.50,47.00,290.00,8.00,,10.00,30.02,
FET,2022-05-13 15:55,-96.5200,41.4500,69.00,47.00,270.00,4.00,,10.00,30.02,
PHP,2022-05-13 15:55,-101.6000,44.0500,65.00,38.00,240.00,20.00,29.00,10.00,29.85,
BJI,2022-05-13 15:55,-94.9337,47.5094,63.00,43.70,210.00,20.00,32.00,10.00,29.68,
Y49,2022-05-13 15:55,-94.6453,47.1595,62.00,44.60,200.00,15.00,23.00,10.00,29.71,
GRN,2022-05-13 15:55,-102.1753,42.8060,60.00,30.00,260.00,16.00,26.00,10.00,29.96,
OFF,2022-05-13 15:56,-95.9125,41.1183,71.00,47.30,290.00,9.00,,10.00,30.00,
TVF,2022-05-13 15:56,-96.1850,48.0657,58.00,48.00,190.00,28.00,38.00,10.00,29.58,
OTG,2022-05-13 15:56,-95.5792,43.6551,61.00,50.00,250.00,15.00,,10.00,29.94,
GPZ,2022-05-13 15:56,-93.5097,47.2111,68.00,48.00,190.00,17.00,23.00,10.00,29.76,
OLU,2022-05-13 15:56,-97.3426,41.4480,68.00,46.00,270.00,10.00,,10.00,30.04,
EAR,2022-05-13 15:56,-99.0068,40.7270,66.00,39.00,0.00,0.00,,10.00,30.07,
OFK,2022-05-13 15:56,-97.4351,41.9855,69.00,43.00,250.00,13.00,,10.00,30.01,
RDR,2022-05-13 15:56,-97.4012,47.9611,57.60,46.80,210.00,32.00,41.00,10.00,29.49,
FOD,2022-05-13 15:56,-94.2032,42.5497,66.00,52.00,280.00,9.00,,10.00,29.98,
RYM,2022-05-13 15:56,-94.3575,46.0895,65.30,48.20,220.00,15.00,21.00,10.00,29.79,
DVL,2022-05-13 15:56,-98.9083,48.1146,52.00,43.00,220.00,35.00,38.00,10.00,29.33,
2WX,2022-05-13 15:56,-103.5464,45.6044,50.00,41.00,270.00,36.00,46.00,,29.69,
RCA,2022-05-13 15:56,-103.1036,44.1451,60.80,30.70,310.00,20.00,26.00,10.00,29.84,
FSD,2022-05-13 15:56,-96.7536,43.5769,66.00,46.00,250.00,10.00,20.00,10.00,29.93,
8D3,2022-05-13 15:56,-96.9914,45.6689,64.00,46.00,220.00,25.00,34.00,,29.76,
YKN,2022-05-13 15:56,-97.3859,42.9167,66.00,46.00,200.00,11.00,,10.00,29.97,
FRM,2022-05-13 15:56,-94.4156,43.6439,64.00,49.00,270.00,9.00,,10.00,29.95,
JMS,2022-05-13 15:56,-98.6800,46.9300,57.00,42.00,230.00,26.00,40.00,10.00,29.54,
MML,2022-05-13 15:56,-95.8200,44.4500,64.00,49.00,260.00,23.00,27.00,10.00,29.87,
CWI,2022-05-13 15:56,-90.3328,41.8295,84.00,67.00,,,,10.00,29.92,
DIK,2022-05-13 15:56,-102.8019,46.7973,46.00,40.00,270.00,31.00,43.00,10.00,29.52,
D07,2022-05-13 15:56,-102.0200,45.0300,55.00,42.00,270.00,29.00,45.00,,29.76,
MKT,2022-05-13 15:56,-93.9200,44.2200,67.00,47.00,250.00,14.00,,10.00,29.92,
GNA,2022-05-13 15:56,-90.3457,47.7453,49.00,44.00,80.00,7.00,,,29.84,
1HW,2022-05-13 15:58,-102.8289,41.3251,65.30,20.70,290.00,26.00,29.00,10.00,30.02,
1BW,2022-05-13 15:58,-103.9950,41.5117,58.00,17.20,270.00,21.00,32.00,10.00,30.06,
1CW,2022-05-13 15:58,-103.6706,41.5900,60.80,15.60,250.00,20.00,31.00,10.00,30.03,
PNM,2022-05-13 16:15,-93.6082,45.5599,69.80,48.20,220.00,8.00,16.00,10.00,29.86,
FSE,2022-05-13 16:15,-95.7735,47.5928,59.00,46.40,200.00,35.00,44.00,10.00,29.64,
SYN,2022-05-13 16:15,-93.0145,44.4736,73.40,51.30,240.00,11.00,17.00,10.00,29.89,
ORB,2022-05-13 16:33,-92.8560,48.0159,69.80,53.60,180.00,16.00,20.00,10.00,29.71,
EVM,2022-05-13 16:35,-92.4981,47.4251,66.20,53.60,190.00,12.00,20.00,10.00,29.79,
XWA,2022-05-13 16:51,-103.7505,48.2597,44.00,42.00,300.00,31.00,49.00,8.00,29.40,-RA
N60,2022-05-13 16:52,-101.4394,47.6458,46.00,43.00,240.00,26.00,39.00,,29.38,
IOW,2022-05-13 16:52,-91.5445,41.6394,87.00,52.00,260.00,16.00,24.00,10.00,29.97,
OMA,2022-05-13 16:52,-95.8992,41.3103,75.00,43.00,300.00,11.00,,10.00,29.99,
VTN,2022-05-13 16:52,-100.5489,42.8567,72.00,27.00,260.00,23.00,32.00,10.00,29.94,
CID,2022-05-13 16:52,-91.7246,41.8829,83.00,54.00,250.00,20.00,30.00,10.00,29.95,
IEN,2022-05-13 16:52,-102.5110,43.0225,63.00,30.90,260.00,18.00,29.00,10.00,29.95,
RAP,2022-05-13 16:52,-103.0574,44.0453,63.00,32.00,270.00,15.00,26.00,10.00,29.88,
SUX,2022-05-13 16:52,-96.3795,42.3917,70.00,51.00,250.00,12.00,,10.00,29.97,
MBG,2022-05-13 16:52,-100.4078,45.5464,63.00,44.00,250.00,25.00,38.00,10.00,29.70,
EST,2022-05-13 16:52,-94.7476,43.4008,67.00,49.00,280.00,13.00,,10.00,29.95,
DVN,2022-05-13 16:52,-90.5948,41.6133,87.00,62.00,160.00,8.00,,10.00,29.94,
BIS,2022-05-13 16:52,-100.7458,46.7727,56.00,40.00,250.00,33.00,49.00,10.00,29.57,
DBQ,2022-05-13 16:53,-90.7091,42.3984,85.00,61.00,180.00,9.00,,10.00,29.94,
IML,2022-05-13 16:53,-101.6201,40.5103,69.00,28.00,280.00,8.00,18.00,10.00,30.06,
SNY,2022-05-13 16:53,-102.9847,41.1014,66.00,25.00,240.00,14.00,26.00,10.00,30.05,
MCW,2022-05-13 16:53,-93.3261,43.1544,71.00,46.00,220.00,10.00,,10.00,29.96,
CDR,2022-05-13 16:53,-103.0954,42.8376,64.00,30.00,290.00,20.00,32.00,10.00,29.97,
MCK,2022-05-13 16:53,-100.5921,40.2063,71.00,26.10,,4.00,,10.00,30.06,
HEI,2022-05-13 16:53,-102.6560,46.0149,47.00,43.00,270.00,26.00,36.00,10.00,29.70,
AXN,2022-05-13 16:53,-95.3947,45.8663,65.00,48.00,240.00,19.00,30.00,10.00,29.82,
BDE,2022-05-13 16:53,-94.6122,48.7284,68.00,48.00,180.00,14.00,31.00,10.00,29.63,
BRD,2022-05-13 16:53,-94.1308,46.4047,68.00,46.00,210.00,22.00,35.00,10.00,29.80,
STC,2022-05-13 16:53,-94.0513,45.5433,66.00,48.00,220.00,15.00,23.00,10.00,29.85,
FNB,2022-05-13 16:53,-95.5920,40.0788,73.00,63.00,300.00,6.00,,10.00,29.98,
HSI,2022-05-13 16:53,-98.4279,40.6052,69.00,43.00,260.00,6.00,,10.00,30.06,
MIC,2022-05-13 16:53,-93.3511,45.0622,70.00,50.00,210.00,13.00,,10.00,29.87,
OWA,2022-05-13 16:53,-93.2606,44.1233,69.80,51.80,240.00,13.00,,10.00,29.94,
PKD,2022-05-13 16:53,-95.0700,46.9000,65.00,46.00,210.00,25.00,35.00,10.00,29.74,
BFF,2022-05-13 16:53,-103.5956,41.8740,66.00,25.00,270.00,14.00,25.00,10.00,30.03,
AQP,2022-05-13 16:53,-96.0043,45.2275,68.00,46.40,230.00,24.00,30.00,10.00,29.82,
FOZ,2022-05-13 16:53,-93.6502,47.7828,69.80,46.40,190.00,21.00,30.00,10.00,29.77,
XVG,2022-05-13 16:53,-94.2039,46.9900,64.40,44.60,200.00,14.00,23.00,10.00,29.76,
LWD,2022-05-13 16:53,-93.9005,40.6306,70.00,61.00,290.00,15.00,23.00,10.00,29.94,
BRL,2022-05-13 16:53,-91.1255,40.7729,85.00,59.00,0.00,0.00,,10.00,29.95,
LBF,2022-05-13 16:53,-100.6690,41.1219,70.00,32.00,260.00,7.00,20.00,10.00,30.03,
GRI,2022-05-13 16:53,-98.3096,40.9675,72.00,41.00,280.00,6.00,,10.00,30.04,
ORB,2022-05-13 16:53,-92.8560,48.0159,71.60,53.60,210.00,15.00,22.00,10.00,29.71,
AIA,2022-05-13 16:53,-102.8000,42.0572,64.00,25.00,260.00,24.00,35.00,10.00,30.02,
ABR,2022-05-13 16:53,-98.4200,45.4500,63.00,46.00,230.00,19.00,31.00,10.00,29.78,
CUT,2022-05-13 16:53,-103.6114,43.7331,52.00,30.00,260.00,19.00,30.00,10.00,29.94,
MHE,2022-05-13 16:53,-98.0386,43.7748,70.00,43.00,240.00,14.00,24.00,10.00,29.91,
PIR,2022-05-13 16:53,-100.2860,44.3827,69.00,37.00,270.00,23.00,37.00,10.00,29.82,
BBW,2022-05-13 16:53,-99.6385,41.4365,70.00,30.00,210.00,7.00,15.00,10.00,30.03,
MSP,2022-05-13 16:53,-93.2313,44.8854,72.00,51.00,240.00,13.00,27.00,10.00,29.90,
FCM,2022-05-13 16:53,-93.4607,44.8261,70.00,47.00,250.00,12.00,21.00,10.00,29.89,
STP,2022-05-13 16:53,-93.0600,44.9345,73.00,53.00,250.00,11.00,,10.00,29.89,
FAR,2022-05-13 16:53,-96.8111,46.9253,63.00,44.00,210.00,31.00,46.00,10.00,29.67,
GFK,2022-05-13 16:53,-97.1761,47.9492,61.00,47.00,200.00,32.00,44.00,10.00,29.53,
HIB,2022-05-13 16:53,-92.8390,47.3866,69.00,47.00,190.00,11.00,25.00,10.00,29.76,
RWF,2022-05-13 16:53,-95.0820,44.5469,67.00,49.00,240.00,10.00,20.00,10.00,29.89,
ODX,2022-05-13 16:53,-98.9517,41.6236,69.00,42.00,200.00,8.00,,10.00,30.01,
AMW,2022-05-13 16:53,-93.6185,41.9904,71.00,51.00,300.00,14.00,,10.00,29.93,
MIW,2022-05-13 16:53,-92.9163,42.1106,74.00,51.00,270.00,11.00,,10.00,29.95,
OTM,2022-05-13 16:53,-92.4446,41.1008,78.00,56.00,190.00,11.00,,10.00,29.96,
SPW,2022-05-13 16:53,-95.2101,43.1682,69.00,49.00,240.00,11.00,,10.00,29.96,
DVP,2022-05-13 16:53,-95.7826,43.9868,65.00,47.00,240.00,20.00,28.00,10.00,29.92,
ATY,2022-05-13 16:53,-97.1547,44.9140,65.00,47.00,230.00,20.00,32.00,10.00,29.85,
ICR,2022-05-13 16:53,-99.8422,43.3903,71.00,40.00,240.00,18.00,26.00,10.00,29.90,
LNK,2022-05-13 16:54,-96.7633,40.8312,75.00,45.00,260.00,6.00,,10.00,30.02,
DSM,2022-05-13 16:54,-93.6531,41.5339,71.00,54.00,260.00,6.00,,10.00,29.96,
INL,2022-05-13 16:54,-93.3956,48.5595,72.00,50.00,190.00,12.00,28.00,10.00,29.66,
TQE,2022-05-13 16:54,-96.1779,41.7635,71.00,52.00,250.00,12.00,,10.00,29.99,
MOT,2022-05-13 16:54,-101.2803,48.2594,51.00,46.00,230.00,22.00,38.00,10.00,29.23,
RST,2022-05-13 16:54,-92.4916,43.9041,79.00,47.00,250.00,13.00,23.00,10.00,29.93,
ALO,2022-05-13 16:54,-92.4013,42.5544,78.00,51.00,250.00,16.00,26.00,10.00,29.94,
S32,2022-05-13 16:55,-98.1059,47.4228,55.40,51.80,220.00,32.00,45.00,10.00,29.54,
OXV,2022-05-13 16:55,-93.1114,41.2984,71.60,55.40,0.00,0.00,,10.00,29.95,
CCY,2022-05-13 16:55,-92.6132,43.0730,77.00,48.20,260.00,13.00,21.00,10.00,29.94,
VTI,2022-05-13 16:55,-92.0248,42.2176,83.50,48.00,240.00,14.00,22.00,10.00,29.95,
CNC,2022-05-13 16:55,-93.3608,41.0184,69.80,60.80,300.00,6.00,,10.00,29.95,
CSQ,2022-05-13 16:55,-94.3608,41.0188,71.60,59.00,260.00,13.00,,10.00,29.97,
AWG,2022-05-13 16:55,-91.6748,41.2751,86.00,53.60,260.00,14.00,20.00,10.00,29.95,
FSW,2022-05-13 16:55,-91.3267,40.6615,86.00,55.40,0.00,0.00,,10.00,29.96,
EOK,2022-05-13 16:55,-91.4274,40.4615,84.20,60.80,0.00,0.00,,10.00,29.96,
MPZ,2022-05-13 16:55,-91.5122,40.9453,87.80,51.80,270.00,8.00,13.00,10.00,29.97,
SGS,2022-05-13 16:55,-93.0329,44.8571,73.80,49.80,230.00,8.00,,10.00,29.89,
ACQ,2022-05-13 16:55,-93.5529,44.0735,69.80,48.20,250.00,13.00,,,29.95,
AEL,2022-05-13 16:55,-93.3672,43.6815,71.60,48.20,260.00,8.00,,10.00,29.94,
PNM,2022-05-13 16:55,-93.6082,45.5599,71.60,48.20,220.00,12.00,,10.00,29.87,
HZE,2022-05-13 16:55,-101.5810,47.2899,46.40,46.40,260.00,30.00,38.00,4.00,29.47,-RA
D55,2022-05-13 16:55,-98.3937,48.7531,53.60,53.60,190.00,32.00,42.00,10.00,29.34,
7L2,2022-05-13 16:55,-100.2456,46.2206,55.40,42.80,260.00,27.00,36.00,10.00,29.68,
06D,2022-05-13 16:55,-99.6208,48.8844,48.20,48.20,200.00,25.00,38.00,4.00,29.21,BR
D60,2022-05-13 16:55,-102.8974,48.3803,42.80,44.60,280.00,27.00,36.00,3.00,29.32,RA
DLH,2022-05-13 16:55,-92.1936,46.8421,59.00,52.00,170.00,6.00,,10.00,29.83,
GHW,2022-05-13 16:55,-95.3204,45.6439,66.20,48.20,220.00,21.00,27.00,10.00,29.83,
IBM,2022-05-13 16:55,-103.6774,41.1881,63.70,21.70,230.00,19.00,30.00,10.00,30.07,
AIT,2022-05-13 16:55,-93.6768,46.5484,68.00,48.20,190.00,15.00,22.00,10.00,29.80,
AUM,2022-05-13 16:55,-92.9333,43.6647,73.40,48.20,230.00,9.00,15.00,10.00,29.95,
HCO,2022-05-13 16:55,-96.9430,48.7527,60.80,48.20,180.00,31.00,45.00,10.00,29.48,
MJQ,2022-05-13 16:55,-94.9865,43.6500,64.40,44.60,260.00,11.00,17.00,10.00,29.95,
JMR,2022-05-13 16:55,-93.2718,45.8861,68.00,48.20,220.00,13.00,20.00,10.00,29.87,
ULM,2022-05-13 16:55,-94.5000,44.3200,66.20,48.20,260.00,14.00,,10.00,29.92,
PQN,2022-05-13 16:55,-96.3004,43.9821,64.40,48.20,260.00,17.00,23.00,10.00,29.92,
RGK,2022-05-13 16:55,-92.4868,44.5915,77.00,44.60,240.00,11.00,,10.00,29.89,
ROX,2022-05-13 16:55,-95.6971,48.8560,62.60,50.00,180.00,25.00,33.00,10.00,29.58,
ONA,2022-05-13 16:55,-91.7083,44.0772,82.40,53.60,250.00,7.00,,10.00,29.88,
BVN,2022-05-13 16:55,-98.0558,41.7286,69.40,42.40,270.00,6.00,,10.00,30.01,
FET,2022-05-13 16:55,-96.5200,41.4500,71.00,48.20,260.00,7.00,,10.00,30.01,
HJH,2022-05-13 16:55,-97.5870,40.1523,73.40,41.20,10.00,5.00,,10.00,30.04,
LXN,2022-05-13 16:55,-99.7759,40.7904,69.00,39.00,180.00,3.00,,10.00,30.05,
AFK,2022-05-13 16:55,-95.8657,40.6069,,,,,,,,
OGA,2022-05-13 16:55,-101.7697,41.1195,70.70,27.00,280.00,8.00,,10.00,30.04,
TIF,2022-05-13 16:55,-100.5690,41.9622,70.30,27.00,280.00,12.00,19.00,10.00,30.00,
LCG,2022-05-13 16:55,-96.9814,42.2419,70.70,47.50,240.00,9.00,14.00,10.00,29.98,
JYR,2022-05-13 16:55,-97.6228,40.8967,69.80,48.20,,4.00,,10.00,30.03,
BBB,2022-05-13 16:55,-95.6506,45.3319,64.40,48.20,260.00,20.00,26.00,10.00,29.84,
COQ,2022-05-13 16:55,-92.5036,46.7011,55.40,51.80,110.00,5.00,,10.00,29.81,
DYT,2022-05-13 16:55,-92.0434,46.7219,,,,,,,,
ELO,2022-05-13 16:55,-91.8371,47.8287,69.80,46.40,210.00,13.00,18.00,10.00,29.79,
FGN,2022-05-13 16:55,-94.9028,49.3183,46.40,39.20,160.00,17.00,,10.00,29.59,
FSE,2022-05-13 16:55,-95.7735,47.5928,60.80,46.40,200.00,33.00,43.00,10.00,29.66,
HCD,2022-05-13 16:55,-94.3825,44.8599,65.70,50.20,220.00,9.00,17.00,10.00,29.91,
DXX,2022-05-13 16:55,-96.1779,44.9864,69.80,48.20,240.00,22.00,32.00,10.00,29.85,
ANE,2022-05-13 16:55,-93.2102,45.1449,71.60,51.80,250.00,10.00,,10.00,29.89,
MZH,2022-05-13 16:55,-92.8048,46.4186,73.40,46.40,200.00,13.00,20.00,10.00,29.81,
BDH,2022-05-13 16:55,-95.1304,45.1177,66.20,51.80,230.00,18.00,,10.00,29.89,
HDE,2022-05-13 16:55,-99.3365,40.4521,67.00,36.30,180.00,4.00,,10.00,30.06,
MLE,2022-05-13 16:55,-96.1120,41.1960,71.80,45.50,270.00,10.00,14.00,10.00,30.00,
CFE,2022-05-13 16:55,-93.8433,45.1590,66.20,50.00,220.00,15.00,20.00,10.00,29.89,
Y63,2022-05-13 16:55,-95.9920,45.9861,64.80,49.50,230.00,22.00,32.00,10.00,29.80,
GYL,2022-05-13 16:55,-94.0812,44.7560,65.50,49.50,250.00,10.00,17.00,10.00,29.91,
GDB,2022-05-13 16:55,-95.5560,44.7533,68.20,51.80,220.00,18.00,25.00,10.00,29.88,
14Y,2022-05-13 16:55,-94.8739,45.8983,62.60,48.20,230.00,17.00,24.00,10.00,29.83,
LYV,2022-05-13 16:55,-96.2158,43.6212,66.20,44.60,260.00,18.00,25.00,10.00,29.94,
HZX,2022-05-13 16:55,-93.3098,46.6188,68.00,46.40,200.00,18.00,24.00,10.00,29.81,
LVN,2022-05-13 16:55,-93.2273,44.6252,69.80,48.20,230.00,7.00,,10.00,29.91,
VVV,2022-05-13 16:55,-96.4244,45.3057,66.20,48.20,220.00,14.00,24.00,10.00,29.82,
PEX,2022-05-13 16:55,-94.7466,45.3723,64.40,50.00,230.00,14.00,20.00,10.00,29.87,
PWC,2022-05-13 16:55,-94.3817,46.7248,66.20,48.20,210.00,16.00,23.00,10.00,29.81,
FKA,2022-05-13 16:55,-92.1797,43.6767,78.80,42.60,240.00,12.00,17.00,7.00,29.94,
9MN,2022-05-13 16:55,-92.4831,44.0198,76.50,45.30,250.00,8.00,18.00,10.00,29.92,
ROS,2022-05-13 16:55,-92.9530,45.6980,69.00,49.50,210.00,9.00,15.00,10.00,29.86,
D39,2022-05-13 16:55,-94.9334,45.7066,64.40,49.30,230.00,14.00,23.00,10.00,29.83,
SYN,2022-05-13 16:55,-93.0145,44.4736,73.40,48.60,250.00,10.00,,10.00,29.90,
SAZ,2022-05-13 16:55,-94.8066,46.3809,66.20,46.40,230.00,18.00,23.00,10.00,29.79,
JYG,2022-05-13 16:55,-94.5579,43.9863,66.20,48.20,280.00,12.00,,10.00,29.92,
21D,2022-05-13 16:55,-92.8557,44.9975,73.40,48.20,250.00,17.00,22.00,10.00,29.89,
TKC,2022-05-13 16:55,-95.6072,44.2491,66.60,45.30,240.00,20.00,26.00,10.00,29.90,
RRT,2022-05-13 16:55,-95.3483,48.9414,59.00,50.00,180.00,16.00,25.00,10.00,29.60,
OVL,2022-05-13 16:55,-95.0328,44.7786,66.20,48.20,240.00,13.00,,10.00,29.88,
IKV,2022-05-13 16:55,-93.5695,41.6878,69.80,51.80,0.00,0.00,,9.00,29.98,
BAC,2022-05-13 16:55,-98.0180,46.9412,59.00,44.60,230.00,34.00,45.00,10.00,29.61,
S25,2022-05-13 16:55,-103.2552,47.7966,44.60,44.60,270.00,22.00,36.00,9.00,29.45,
AIO,2022-05-13 16:55,-95.0465,41.4059,68.00,55.40,270.00,11.00,18.00,10.00,29.97,
CKP,2022-05-13 16:55,-95.5538,42.7304,65.80,50.20,250.00,10.00,,10.00,29.97,
ICL,2022-05-13 16:55,-95.0223,40.7242,71.60,55.40,340.00,6.00,,10.00,29.99,
DEH,2022-05-13 16:55,-91.7433,43.2755,80.60,46.40,240.00,11.00,23.00,10.00,29.92,
OLZ,2022-05-13 16:55,-91.9760,42.6831,82.40,50.00,230.00,22.00,,10.00,29.94,
RDK,2022-05-13 16:55,-95.2624,41.0106,71.60,53.60,,6.00,,10.00,29.98,
SHL,2022-05-13 16:55,-95.8353,43.2082,66.20,48.20,240.00,15.00,,10.00,29.93,
SDA,2022-05-13 16:55,-95.4112,40.7533,73.40,55.40,,4.00,,10.00,29.97,
SLB,2022-05-13 16:55,-95.2399,42.5972,64.40,50.00,260.00,11.00,,10.00,29.98,
AXA,2022-05-13 16:55,-94.2724,43.0796,66.20,53.60,270.00,12.00,,10.00,29.95,
ADU,2022-05-13 16:55,-94.9204,41.6994,66.20,53.60,270.00,5.00,,10.00,29.99,
CIN,2022-05-13 16:55,-94.7889,42.0444,64.40,51.80,280.00,9.00,,10.00,29.97,
FXY,2022-05-13 16:55,-93.6237,43.2323,69.80,46.40,290.00,11.00,,10.00,29.95,
HNR,2022-05-13 16:55,-95.3355,41.5834,68.00,53.60,280.00,12.00,,10.00,29.99,
LRJ,2022-05-13 16:55,-96.1923,42.7754,68.00,50.00,250.00,9.00,14.00,10.00,29.95,
MUT,2022-05-13 16:55,-91.1406,41.3670,87.80,55.40,240.00,9.00,,7.00,29.95,
I75,2022-05-13 16:55,-93.6876,41.0472,69.40,60.80,290.00,12.00,17.00,10.00,29.98,
OOA,2022-05-13 16:55,-92.4919,41.2273,82.00,54.00,220.00,12.00,18.00,10.00,29.97,
GGI,2022-05-13 16:55,-92.7332,41.7097,75.40,54.70,250.00,11.00,,10.00,29.98,
MXO,2022-05-13 16:55,-91.1605,42.2204,89.60,55.40,220.00,12.00,21.00,10.00,29.93,
EBS,2022-05-13 16:55,-93.8691,42.4392,69.80,51.80,260.00,11.00,,10.00,29.95,
BNW,2022-05-13 16:55,-93.8486,42.0486,68.00,53.60,290.00,10.00,,10.00,29.97,
CAV,2022-05-13 16:55,-93.7593,42.7430,69.80,51.80,270.00,12.00,,10.00,29.97,
DNS,2022-05-13 16:55,-95.3800,41.9842,66.20,51.80,260.00,10.00,,10.00,30.00,
FFL,2022-05-13 16:55,-91.9834,41.0521,82.40,53.60,250.00,11.00,,10.00,29.98,
TNU,2022-05-13 16:55,-93.0190,41.6701,73.40,51.80,250.00,8.00,,10.00,29.96,
9V9,2022-05-13 16:55,-99.3183,43.7667,69.30,37.20,270.00,14.00,22.00,10.00,29.89,
96D,2022-05-13 16:55,-97.9028,48.9406,57.20,46.40,190.00,28.00,37.00,10.00,29.36,
EVM,2022-05-13 16:55,-92.4981,47.4251,68.00,55.40,200.00,10.00,16.00,10.00,29.78,
HON,2022-05-13 16:55,-98.2286,44.3852,69.00,43.00,230.00,14.00,28.00,10.00,29.87,
ANW,2022-05-13 16:55,-99.9930,42.5792,69.60,25.70,280.00,15.00,23.00,10.00,29.97,
PMV,2022-05-13 16:55,-95.9179,40.9502,72.70,48.70,270.00,8.00,,10.00,30.00,
AHQ,2022-05-13 16:55,-96.5946,41.2406,71.60,48.00,290.00,9.00,,10.00,30.01,
CKN,2022-05-13 16:55,-96.6214,47.8417,60.80,,210.00,36.00,44.00,10.00,29.60,
FBL,2022-05-13 16:55,-93.3108,44.3247,69.80,50.00,240.00,10.00,14.00,10.00,29.93,
FFM,2022-05-13 16:55,-96.1567,46.2844,64.40,48.20,240.00,25.00,33.00,10.00,29.73,
LXL,2022-05-13 16:55,-94.3469,45.9492,64.40,48.20,200.00,12.00,17.00,10.00,29.84,
AUH,2022-05-13 16:55,-97.9946,40.8941,69.40,43.50,0.00,0.00,,10.00,30.05,
04W,2022-05-13 16:55,-92.8952,46.0229,69.80,51.80,230.00,14.00,22.00,10.00,29.85,
JKJ,2022-05-13 16:55,-96.6640,46.8393,60.80,46.40,210.00,27.00,37.00,10.00,29.71,
VWU,2022-05-13 16:55,-94.5167,48.1539,69.80,46.40,210.00,12.00,20.00,10.00,29.66,
3N8,2022-05-13 16:55,-95.9281,47.2605,60.60,47.30,210.00,32.00,42.00,10.00,29.67,
Y49,2022-05-13 16:55,-94.6453,47.1595,64.40,44.40,210.00,22.00,30.00,10.00,29.72,
GRN,2022-05-13 16:55,-102.1753,42.8060,62.60,27.10,260.00,19.00,27.00,10.00,29.96,
HPT,2022-05-13 16:55,-93.2244,42.7175,71.60,44.60,250.00,12.00,18.00,10.00,29.96,
SXK,2022-05-13 16:55,-96.1614,42.9858,68.00,53.60,250.00,13.00,,10.00,29.94,
TVK,2022-05-13 16:55,-92.8983,40.6832,73.40,53.60,130.00,5.00,,10.00,29.96,
20U,2022-05-13 16:55,-103.9821,46.9252,46.40,46.40,280.00,29.00,38.00,5.00,29.64,BR
BWW,2022-05-13 16:55,-103.3007,46.1655,46.40,46.40,290.00,29.00,39.00,10.00,29.69,
9D7,2022-05-13 16:55,-99.2364,48.4800,50.00,,210.00,31.00,42.00,10.00,29.33,
46D,2022-05-13 16:55,-99.1513,47.4511,55.40,44.60,230.00,32.00,47.00,10.00,29.48,
2C8,2022-05-13 16:55,-97.6320,48.7837,57.20,48.20,190.00,34.00,43.00,10.00,29.39,-DZ
D50,2022-05-13 16:55,-103.2973,48.9285,44.60,44.60,300.00,22.00,29.00,2.00,29.29,BR
D57,2022-05-13 16:55,-101.8602,46.8128,48.20,39.20,270.00,29.00,43.00,10.00,29.55,
GAF,2022-05-13 16:55,-97.3709,48.4047,57.20,48.20,200.00,29.00,41.00,9.00,29.49,
GWR,2022-05-13 16:55,-97.6435,46.2187,60.80,53.60,230.00,34.00,42.00,10.00,29.69,
5H4,2022-05-13 16:55,-99.9317,47.7912,50.00,44.60,230.00,35.00,52.00,10.00,29.38,
Y19,2022-05-13 16:55,-100.8944,46.7680,51.80,44.60,250.00,34.00,45.00,10.00,29.55,
2D5,2022-05-13 16:55,-98.0799,46.1731,59.00,46.40,220.00,25.00,39.00,10.00,29.71,
RUG,2022-05-13 16:55,-100.0243,48.3904,46.40,46.40,210.00,30.00,38.00,2.50,29.24,BR
08D,2022-05-13 16:55,-102.4064,48.3008,46.40,46.40,270.00,24.00,33.00,2.50,29.28,-RA
BWP,2022-05-13 16:55,-96.6074,46.2441,64.40,50.00,220.00,25.00,33.00,10.00,29.74,
BTN,2022-05-13 16:55,-97.7428,45.8150,62.60,48.20,230.00,29.00,40.00,10.00,29.73,
PHP,2022-05-13 16:55,-101.6000,44.0500,67.00,37.00,260.00,26.00,34.00,10.00,29.86,
SPF,2022-05-13 16:55,-103.7830,44.4803,57.20,30.20,270.00,19.00,29.00,10.00,29.86,
BIE,2022-05-13 16:55,-96.7541,40.3013,73.40,49.80,310.00,9.00,,10.00,30.01,
BTA,2022-05-13 16:55,-96.1090,41.4148,70.20,45.70,250.00,11.00,15.00,10.00,30.00,
CQM,2022-05-13 16:55,-92.6894,47.8219,69.80,51.80,180.00,12.00,20.00,10.00,29.74,
DTL,2022-05-13 16:55,-95.8856,46.8252,60.80,44.60,230.00,23.00,37.00,10.00,29.73,
TOB,2022-05-13 16:55,-92.8315,44.0180,73.40,44.60,240.00,13.00,,10.00,29.93,
CBF,2022-05-13 16:55,-95.7604,41.2611,71.60,42.80,290.00,7.00,14.00,10.00,29.98,
ONL,2022-05-13 16:55,-98.6881,42.4697,68.50,40.00,220.00,10.00,17.00,10.00,30.00,
BJI,2022-05-13 16:55,-94.9337,47.5094,64.80,44.00,200.00,19.00,29.00,10.00,29.70,
PRO,2022-05-13 16:55,-94.1637,41.8278,70.70,49.00,300.00,9.00,,10.00,29.97,
PEA,2022-05-13 16:55,-92.9431,41.3989,72.30,56.00,230.00,3.00,,10.00,29.96,
IFA,2022-05-13 16:55,-93.2651,42.4691,73.00,45.00,270.00,16.00,19.00,10.00,29.97,
TVF,2022-05-13 16:56,-96.1850,48.0657,60.00,48.00,200.00,34.00,43.00,10.00,29.60,
OTG,2022-05-13 16:56,-95.5792,43.6551,64.00,50.00,250.00,18.00,24.00,10.00,29.94,
FRM,2022-05-13 16:56,-94.4156,43.6439,67.00,48.00,270.00,13.00,,10.00,29.95,
GPZ,2022-05-13 16:56,-93.5097,47.2111,69.00,45.00,200.00,19.00,27.00,10.00,29.76,
OLU,2022-05-13 16:56,-97.3426,41.4480,70.00,45.00,290.00,5.00,,10.00,30.02,
MKT,2022-05-13 16:56,-93.9200,44.2200,68.00,48.00,240.00,12.00,16.00,10.00,29.92,
GNA,2022-05-13 16:56,-90.3457,47.7453,51.00,45.00,70.00,5.00,,,29.84,
RDR,2022-05-13 16:56,-97.4012,47.9611,59.40,46.80,200.00,24.00,42.00,10.00,29.52,
CWI,2022-05-13 16:56,-90.3328,41.8295,88.00,64.00,140.00,7.00,,10.00,29.93,
RYM,2022-05-13 16:56,-94.3575,46.0895,67.00,47.70,220.00,13.00,21.00,10.00,29.81,
RCA,2022-05-13 16:56,-103.1036,44.1451,62.80,30.00,310.00,19.00,26.00,10.00,29.85,
D07,2022-05-13 16:56,-102.0200,45.0300,59.00,41.00,270.00,32.00,45.00,,29.77,
OFF,2022-05-13 16:56,-95.9125,41.1183,73.40,47.00,290.00,9.00,,10.00,30.01,
FOD,2022-05-13 16:56,-94.2032,42.5497,66.00,49.00,270.00,7.00,,10.00,29.97,
2WX,2022-05-13 16:56,-103.5464,45.6044,55.00,42.00,270.00,33.00,43.00,,29.71,
FSD,2022-05-13 16:56,-96.7536,43.5769,70.00,44.00,260.00,10.00,19.00,10.00,29.94,
8D3,2022-05-13 16:56,-96.9914,45.6689,66.00,47.00,230.00,23.00,36.00,,29.78,
OFK,2022-05-13 16:56,-97.4351,41.9855,72.00,42.00,230.00,8.00,,10.00,29.99,
EAR,2022-05-13 16:56,-99.0068,40.7270,69.00,40.00,220.00,4.00,,10.00,30.06,
JMS,2022-05-13 16:56,-98.6800,46.9300,58.00,42.00,230.00,25.00,42.00,10.00,29.56,
MML,2022-05-13 16:56,-95.8200,44.4500,67.00,49.00,250.00,24.00,31.00,10.00,29.88,
DVL,2022-05-13 16:56,-98.9083,48.1146,51.00,42.00,220.00,33.00,40.00,10.00,29.38,
DIK,2022-05-13 16:56,-102.8019,46.7973,47.00,40.00,260.00,32.00,43.00,10.00,29.56,
YKN,2022-05-13 16:56,-97.3859,42.9167,69.00,44.00,190.00,9.00,,10.00,29.97,
1HW,2022-05-13 16:58,-102.8289,41.3251,68.50,20.50,270.00,22.00,30.00,10.00,30.02,
1CW,2022-05-13 16:58,-103.6706,41.5900,63.00,16.00,290.00,24.00,28.00,10.00,30.03,
1BW,2022-05-13 16:58,-103.9950,41.5117,60.00,17.60,260.00,25.00,30.00,10.00,30.06,
PNM,2022-05-13 17:15,-93.6082,45.5599,69.80,48.20,220.00,10.00,18.00,10.00,29.88,
FSE,2022-05-13 17:15,-95.7735,47.5928,60.80,46.40,200.00,34.00,40.00,10.00,29.67,
SYN,2022-05-13 17:15,-93.0145,44.4736,74.00,51.00,230.00,11.00,17.00,10.00,29.90,
ORB,2022-05-13 17:33,-92.8560,48.0159,71.60,48.20,190.00,18.00,24.00,10.00,29.71,
EVM,2022-05-13 17:35,-92.4981,47.4251,71.60,51.80,200.00,15.00,22.00,10.00,29.79,
XWA,2022-05-13 17:51,-103.7505,48.2597,44.00,42.00,290.00,31.00,44.00,4.00,29.44,-RA BR
OMA,2022-05-13 17:52,-95.8992,41.3103,77.00,45.00,300.00,8.00,,10.00,29.98,
VTN,2022-05-13 17:52,-100.5489,42.8567,73.00,26.10,250.00,21.00,31.00,10.00,29.94,
DVN,2022-05-13 17:52,-90.5948,41.6133,90.00,59.00,210.00,7.00,,10.00,29.93,
IOW,2022-05-13 17:52,-91.5445,41.6394,86.00,55.00,,,,10.00,29.95,
BIS,2022-05-13 17:52,-100.7458,46.7727,56.00,41.00,250.00,27.00,45.00,10.00,29.60,
MBG,2022-05-13 17:52,-100.4078,45.5464,64.00,43.00,250.00,25.00,37.00,10.00,29.72,
IEN,2022-05-13 17:52,-102.5110,43.0225,65.00,30.90,250.00,19.00,27.00,10.00,29.96,
N60,2022-05-13 17:52,-101.4394,47.6458,46.00,42.00,240.00,27.00,39.00,,29.42,
EST,2022-05-13 17:52,-94.7476,43.4008,68.00,49.00,270.00,11.00,,10.00,29.94,
RAP,2022-05-13 17:52,-103.0574,44.0453,66.00,33.00,260.00,16.00,27.00,10.00,29.89,
SUX,2022-05-13 17:52,-96.3795,42.3917,74.00,49.00,260.00,11.00,17.00,10.00,29.95,
CID,2022-05-13 17:52,-91.7246,41.8829,80.00,54.00,250.00,16.00,24.00,10.00,29.94,
DBQ,2022-05-13 17:53,-90.7091,42.3984,87.00,59.00,260.00,14.00,24.00,10.00,29.92,
IML,2022-05-13 17:53,-101.6201,40.5103,71.00,28.90,270.00,7.00,,10.00,30.04,
MCW,2022-05-13 17:53,-93.3261,43.1544,71.00,46.00,240.00,7.00,,10.00,29.94,
SNY,2022-05-13 17:53,-102.9847,41.1014,70.00,26.10,240.00,16.00,26.00,10.00,30.03,
CDR,2022-05-13 17:53,-103.0954,42.8376,66.00,28.90,280.00,21.00,29.00,10.00,29.97,
MCK,2022-05-13 17:53,-100.5921,40.2063,75.00,25.00,330.00,6.00,,10.00,30.05,
HEI,2022-05-13 17:53,-102.6560,46.0149,49.00,41.00,270.00,25.00,39.00,10.00,29.73,
BRD,2022-05-13 17:53,-94.1308,46.4047,69.00,46.00,220.00,15.00,32.00,10.00,29.81,
HIB,2022-05-13 17:53,-92.8390,47.3866,70.00,45.00,220.00,11.00,30.00,10.00,29.77,
MSP,2022-05-13 17:53,-93.2313,44.8854,72.00,46.00,260.00,11.00,,10.00,29.89,
FCM,2022-05-13 17:53,-93.4607,44.8261,68.00,48.00,270.00,8.00,20.00,10.00,29.88,
PKD,2022-05-13 17:53,-95.0700,46.9000,67.00,45.00,230.00,21.00,32.00,10.00,29.75,
STC,2022-05-13 17:53,-94.0513,45.5433,67.00,50.00,210.00,12.00,,10.00,29.85,
ODX,2022-05-13 17:53,-98.9517,41.6236,72.00,41.00,200.00,9.00,17.00,10.00,29.99,
OWA,2022-05-13 17:53,-93.2606,44.1233,69.80,51.80,260.00,9.00,,10.00,29.93,
STP,2022-05-13 17:53,-93.0600,44.9345,73.00,48.00,240.00,15.00,22.00,10.00,29.88,
BFF,2022-05-13 17:53,-103.5956,41.8740,69.00,25.00,280.00,19.00,27.00,10.00,30.02,
AQP,2022-05-13 17:53,-96.0043,45.2275,69.80,46.40,240.00,22.00,29.00,10.00,29.82,
FOZ,2022-05-13 17:53,-93.6502,47.7828,71.60,46.40,200.00,20.00,28.00,10.00,29.77,
XVG,2022-05-13 17:53,-94.2039,46.9900,66.20,46.40,190.00,15.00,20.00,10.00,29.76,
LWD,2022-05-13 17:53,-93.9005,40.6306,75.00,59.00,270.00,6.00,,10.00,29.97,
SPW,2022-05-13 17:53,-95.2101,43.1682,72.00,48.00,250.00,13.00,19.00,10.00,29.94,
ORB,2022-05-13 17:53,-92.8560,48.0159,73.40,48.20,200.00,15.00,26.00,10.00,29.71,
AIA,2022-05-13 17:53,-102.8000,42.0572,65.00,26.10,270.00,22.00,37.00,10.00,30.01,
DVP,2022-05-13 17:53,-95.7826,43.9868,67.50,47.30,250.00,18.00,27.00,10.00,29.92,
FAR,2022-05-13 17:53,-96.8111,46.9253,62.00,43.00,210.00,32.00,45.00,10.00,29.70,
GFK,2022-05-13 17:53,-97.1761,47.9492,61.00,46.00,210.00,34.00,45.00,10.00,29.55,
ABR,2022-05-13 17:53,-98.4200,45.4500,65.00,46.00,230.00,19.00,28.00,10.00,29.79,
CUT,2022-05-13 17:53,-103.6114,43.7331,55.00,28.00,270.00,16.00,34.00,10.00,29.94,
MHE,2022-05-13 17:53,-98.0386,43.7748,70.00,43.00,230.00,14.00,25.00,10.00,29.90,
PIR,2022-05-13 17:53,-100.2860,44.3827,71.00,36.00,260.00,21.00,34.00,10.00,29.83,
ICR,2022-05-13 17:53,-99.8422,43.3903,73.00,37.00,250.00,15.00,24.00,10.00,29.90,
BBW,2022-05-13 17:53,-99.6385,41.4365,74.00,26.10,250.00,12.00,25.00,10.00,30.01,
AXN,2022-05-13 17:53,-95.3947,45.8663,68.00,49.00,220.00,20.00,30.00,10.00,29.83,
BDE,2022-05-13 17:53,-94.6122,48.7284,68.00,47.00,200.00,21.00,32.00,10.00,29.64,
MIC,2022-05-13 17:53,-93.3511,45.0622,70.00,49.00,210.00,9.00,,10.00,29.87,
AMW,2022-05-13 17:53,-93.6185,41.9904,75.00,51.00,280.00,9.00,16.00,10.00,29.94,
MIW,2022-05-13 17:53,-92.9163,42.1106,73.00,47.00,310.00,7.00,,10.00,29.93,
LBF,2022-05-13 17:53,-100.6690,41.1219,73.00,33.00,300.00,10.00,18.00,10.00,30.02,
RWF,2022-05-13 17:53,-95.0820,44.5469,69.00,49.00,220.00,15.00,22.00,10.00,29.88,
FNB,2022-05-13 17:53,-95.5920,40.0788,76.00,62.00,250.00,6.00,,10.00,29.97,
HSI,2022-05-13 17:53,-98.4279,40.6052,71.00,40.00,,4.00,,10.00,30.05,
BRL,2022-05-13 17:53,-91.1255,40.7729,87.00,60.00,,4.00,,10.00,29.93,
OTM,2022-05-13 17:53,-92.4446,41.1008,76.00,58.00,160.00,6.00,,10.00,29.91,
GRI,2022-05-13 17:53,-98.3096,40.9675,74.00,38.00,,6.00,,10.00,30.03,
ATY,2022-05-13 17:53,-97.1547,44.9140,67.00,45.00,240.00,24.00,34.00,10.00,29.84,
DSM,2022-05-13 17:54,-93.6531,41.5339,72.00,50.00,310.00,6.00,,10.00,29.95,
TQE,2022-05-13 17:54,-96.1779,41.7635,75.00,50.00,280.00,11.00,,10.00,29.98,
LNK,2022-05-13 17:54,-96.7633,40.8312,77.00,47.00,290.00,7.00,,10.00,30.01,
ALO,2022-05-13 17:54,-92.4013,42.5544,77.00,53.00,250.00,10.00,,10.00,29.92,
INL,2022-05-13 17:54,-93.3956,48.5595,73.00,47.00,200.00,15.00,30.00,10.00,29.66,
RST,2022-05-13 17:54,-92.4916,43.9041,80.00,47.00,220.00,15.00,27.00,10.00,29.92,
MOT,2022-05-13 17:54,-101.2803,48.2594,51.00,44.00,230.00,31.00,46.00,10.00,29.27,
S32,2022-05-13 17:55,-98.1059,47.4228,57.20,48.20,220.00,32.00,44.00,10.00,29.57,
CCY,2022-05-13 17:55,-92.6132,43.0730,75.20,51.80,250.00,11.00,18.00,10.00,29.93,
VTI,2022-05-13 17:55,-92.0248,42.2176,83.00,49.60,230.00,10.00,20.00,10.00,29.94,
CNC,2022-05-13 17:55,-93.3608,41.0184,71.60,60.80,360.00,12.00,19.00,10.00,29.95,
CSQ,2022-05-13 17:55,-94.3608,41.0188,75.20,55.40,300.00,14.00,,10.00,29.96,
FSW,2022-05-13 17:55,-91.3267,40.6615,87.80,57.20,330.00,4.00,,10.00,29.93,
AWG,2022-05-13 17:55,-91.6748,41.2751,84.20,55.40,240.00,10.00,16.00,10.00,29.92,
ACQ,2022-05-13 17:55,-93.5529,44.0735,68.00,48.20,240.00,10.00,,,29.94,
EOK,2022-05-13 17:55,-91.4274,40.4615,86.00,59.00,,3.00,,10.00,29.92,
MPZ,2022-05-13 17:55,-91.5122,40.9453,87.80,53.60,320.00,5.00,,10.00,29.93,
SGS,2022-05-13 17:55,-93.0329,44.8571,73.00,48.00,270.00,10.00,14.00,10.00,29.88,
AEL,2022-05-13 17:55,-93.3672,43.6815,71.60,46.40,260.00,7.00,,10.00,29.94,
PNM,2022-05-13 17:55,-93.6082,45.5599,69.80,46.40,200.00,13.00,18.00,10.00,29.86,
HZE,2022-05-13 17:55,-101.5810,47.2899,48.20,46.40,270.00,33.00,38.00,10.00,29.51,
7L2,2022-05-13 17:55,-100.2456,46.2206,57.20,44.60,240.00,27.00,39.00,10.00,29.70,
D55,2022-05-13 17:55,-98.3937,48.7531,51.80,51.80,190.00,33.00,45.00,10.00,29.38,
06D,2022-05-13 17:55,-99.6208,48.8844,46.40,46.40,190.00,25.00,38.00,0.75,29.23,BR
D60,2022-05-13 17:55,-102.8974,48.3803,42.80,42.80,280.00,26.00,38.00,5.00,29.36,RA
DLH,2022-05-13 17:55,-92.1936,46.8421,68.00,52.00,210.00,13.00,19.00,10.00,29.82,
GHW,2022-05-13 17:55,-95.3204,45.6439,68.00,48.20,220.00,23.00,29.00,10.00,29.83,
ULM,2022-05-13 17:55,-94.5000,44.3200,68.00,48.20,250.00,10.00,,10.00,29.90,
IBM,2022-05-13 17:55,-103.6774,41.1881,65.70,19.60,250.00,13.00,27.00,10.00,30.05,
AIT,2022-05-13 17:55,-93.6768,46.5484,66.20,48.20,190.00,13.00,21.00,10.00,29.81,
AUM,2022-05-13 17:55,-92.9333,43.6647,73.40,46.40,210.00,12.00,,10.00,29.93,
MJQ,2022-05-13 17:55,-94.9865,43.6500,64.40,46.40,240.00,11.00,15.00,10.00,29.94,
JMR,2022-05-13 17:55,-93.2718,45.8861,66.20,46.40,220.00,11.00,16.00,10.00,29.87,
PQN,2022-05-13 17:55,-96.3004,43.9821,66.20,50.00,270.00,15.00,21.00,10.00,29.91,
RGK,2022-05-13 17:55,-92.4868,44.5915,78.80,44.60,230.00,6.00,,10.00,29.87,
ROX,2022-05-13 17:55,-95.6971,48.8560,62.60,50.00,190.00,25.00,36.00,10.00,29.59,
ONA,2022-05-13 17:55,-91.7083,44.0772,82.40,50.00,240.00,10.00,17.00,10.00,29.88,
FET,2022-05-13 17:55,-96.5200,41.4500,72.50,46.20,240.00,6.00,,10.00,30.01,
HJH,2022-05-13 17:55,-97.5870,40.1523,76.30,38.70,350.00,4.00,,10.00,30.02,
AFK,2022-05-13 17:55,-95.8657,40.6069,75.20,48.40,310.00,8.00,14.00,10.00,29.99,
OGA,2022-05-13 17:55,-101.7697,41.1195,73.80,23.70,250.00,19.00,23.00,10.00,30.02,
ONL,2022-05-13 17:55,-98.6881,42.4697,71.80,34.00,250.00,12.00,19.00,10.00,29.97,
TIF,2022-05-13 17:55,-100.5690,41.9622,71.60,27.50,280.00,15.00,,10.00,29.99,
LCG,2022-05-13 17:55,-96.9814,42.2419,72.00,47.30,260.00,8.00,,10.00,29.97,
JYR,2022-05-13 17:55,-97.6228,40.8967,69.80,46.40,290.00,5.00,,10.00,30.02,
BJI,2022-05-13 17:55,-94.9337,47.5094,67.30,45.50,210.00,15.00,24.00,10.00,29.71,
BBB,2022-05-13 17:55,-95.6506,45.3319,66.20,50.00,260.00,21.00,29.00,10.00,29.84,
COQ,2022-05-13 17:55,-92.5036,46.7011,64.40,51.80,140.00,7.00,,10.00,29.81,
DYT,2022-05-13 17:55,-92.0434,46.7219,42.80,41.00,360.00,6.00,,0.25,29.85,-RA FG
ELO,2022-05-13 17:55,-91.8371,47.8287,71.60,44.60,210.00,14.00,24.00,10.00,29.78,
FGN,2022-05-13 17:55,-94.9028,49.3183,46.40,37.40,160.00,13.00,,10.00,29.60,
FSE,2022-05-13 17:55,-95.7735,47.5928,60.80,44.60,210.00,33.00,40.00,10.00,29.69,
DXX,2022-05-13 17:55,-96.1779,44.9864,69.80,50.00,240.00,18.00,29.00,10.00,29.85,
ANE,2022-05-13 17:55,-93.2102,45.1449,73.40,46.40,260.00,13.00,20.00,10.00,29.88,
MZH,2022-05-13 17:55,-92.8048,46.4186,73.40,46.40,230.00,13.00,18.00,10.00,29.83,
BDH,2022-05-13 17:55,-95.1304,45.1177,69.80,51.80,230.00,20.00,26.00,10.00,29.89,
HDE,2022-05-13 17:55,-99.3365,40.4521,69.80,35.60,130.00,4.00,,10.00,30.04,
CFE,2022-05-13 17:55,-93.8433,45.1590,68.00,48.20,240.00,14.00,,10.00,29.88,
TOB,2022-05-13 17:55,-92.8315,44.0180,73.40,44.60,240.00,14.00,17.00,10.00,29.92,
Y63,2022-05-13 17:55,-95.9920,45.9861,66.70,50.20,230.00,25.00,36.00,10.00,29.81,
GDB,2022-05-13 17:55,-95.5560,44.7533,70.50,52.50,220.00,19.00,26.00,10.00,29.89,
14Y,2022-05-13 17:55,-94.8739,45.8983,64.40,48.20,230.00,16.00,22.00,10.00,29.84,
LYV,2022-05-13 17:55,-96.2158,43.6212,68.00,41.00,260.00,15.00,19.00,10.00,29.92,
HZX,2022-05-13 17:55,-93.3098,46.6188,66.20,46.40,200.00,19.00,26.00,10.00,29.83,
LVN,2022-05-13 17:55,-93.2273,44.6252,69.80,44.60,260.00,10.00,14.00,10.00,29.89,
VVV,2022-05-13 17:55,-96.4244,45.3057,66.20,48.20,240.00,20.00,26.00,10.00,29.82,
PEX,2022-05-13 17:55,-94.7466,45.3723,66.20,50.00,210.00,14.00,21.00,10.00,29.86,
PWC,2022-05-13 17:55,-94.3817,46.7248,68.00,50.00,210.00,13.00,20.00,10.00,29.81,
9MN,2022-05-13 17:55,-92.4831,44.0198,76.30,41.70,220.00,10.00,21.00,10.00,29.92,
ROS,2022-05-13 17:55,-92.9530,45.6980,70.70,48.20,220.00,9.00,17.00,10.00,29.87,
SYN,2022-05-13 17:55,-93.0145,44.4736,72.70,48.70,240.00,11.00,16.00,10.00,29.90,
SAZ,2022-05-13 17:55,-94.8066,46.3809,69.80,46.40,210.00,14.00,23.00,10.00,29.80,
JYG,2022-05-13 17:55,-94.5579,43.9863,69.80,46.40,240.00,12.00,,10.00,29.91,
21D,2022-05-13 17:55,-92.8557,44.9975,71.60,50.00,250.00,12.00,,10.00,29.89,
TKC,2022-05-13 17:55,-95.6072,44.2491,68.50,46.60,240.00,13.00,23.00,10.00,29.89,
RRT,2022-05-13 17:55,-95.3483,48.9414,59.00,48.20,180.00,17.00,29.00,10.00,29.61,
MWM,2022-05-13 17:55,-95.1094,43.9134,64.40,48.20,220.00,12.00,17.00,10.00,29.92,
OVL,2022-05-13 17:55,-95.0328,44.7786,68.00,50.00,240.00,16.00,,10.00,29.87,
Y19,2022-05-13 17:55,-100.8944,46.7680,53.60,44.60,250.00,33.00,40.00,10.00,29.58,
RUG,2022-05-13 17:55,-100.0243,48.3904,48.20,48.20,220.00,29.00,39.00,3.00,29.28,BR
08D,2022-05-13 17:55,-102.4064,48.3008,44.60,44.60,270.00,27.00,37.00,7.00,29.33,-RA
S25,2022-05-13 17:55,-103.2552,47.7966,46.40,46.40,270.00,26.00,33.00,9.00,29.49,
IKV,2022-05-13 17:55,-93.5695,41.6878,73.40,51.80,270.00,12.00,,10.00,29.97,
AIO,2022-05-13 17:55,-95.0465,41.4059,71.60,53.60,300.00,14.00,,10.00,29.97,
ICL,2022-05-13 17:55,-95.0223,40.7242,75.20,53.60,310.00,8.00,,10.00,29.98,
CBF,2022-05-13 17:55,-95.7604,41.2611,73.40,41.00,290.00,7.00,,10.00,29.98,
OLZ,2022-05-13 17:55,-91.9760,42.6831,78.80,51.80,240.00,14.00,20.00,10.00,29.93,
RDK,2022-05-13 17:55,-95.2624,41.0106,75.20,55.40,280.00,7.00,13.00,10.00,29.97,
SDA,2022-05-13 17:55,-95.4112,40.7533,77.00,55.40,290.00,8.00,14.00,10.00,29.96,
AXA,2022-05-13 17:55,-94.2724,43.0796,68.00,51.80,260.00,10.00,,10.00,29.94,
CIN,2022-05-13 17:55,-94.7889,42.0444,69.80,50.00,290.00,14.00,19.00,10.00,29.96,
CKP,2022-05-13 17:55,-95.5538,42.7304,69.80,48.70,260.00,11.00,17.00,10.00,29.96,
DEH,2022-05-13 17:55,-91.7433,43.2755,82.40,48.20,250.00,8.00,17.00,10.00,29.90,
FXY,2022-05-13 17:55,-93.6237,43.2323,69.80,44.60,250.00,6.00,,10.00,29.94,
LRJ,2022-05-13 17:55,-96.1923,42.7754,71.60,48.20,250.00,10.00,17.00,10.00,29.94,
I75,2022-05-13 17:55,-93.6876,41.0472,75.20,59.00,300.00,10.00,16.00,7.00,29.95,
SHL,2022-05-13 17:55,-95.8353,43.2082,69.80,50.00,250.00,15.00,,10.00,29.93,
ADU,2022-05-13 17:55,-94.9204,41.6994,71.60,51.80,290.00,9.00,,10.00,29.98,
HNR,2022-05-13 17:55,-95.3355,41.5834,71.60,51.80,290.00,12.00,19.00,10.00,29.98,
MXO,2022-05-13 17:55,-91.1605,42.2204,86.00,55.40,240.00,13.00,20.00,10.00,29.92,
MUT,2022-05-13 17:55,-91.1406,41.3670,89.60,55.40,260.00,12.00,17.00,10.00,29.92,
PEA,2022-05-13 17:55,-92.9431,41.3989,73.60,57.20,280.00,8.00,,10.00,29.96,
EBS,2022-05-13 17:55,-93.8691,42.4392,71.60,48.20,280.00,11.00,,10.00,29.94,
BNW,2022-05-13 17:55,-93.8486,42.0486,69.80,50.00,260.00,7.00,,10.00,29.98,
CAV,2022-05-13 17:55,-93.7593,42.7430,69.80,50.00,280.00,11.00,,10.00,29.95,
DNS,2022-05-13 17:55,-95.3800,41.9842,69.80,50.00,270.00,10.00,17.00,10.00,29.99,
FFL,2022-05-13 17:55,-91.9834,41.0521,82.40,53.60,190.00,7.00,,10.00,29.93,
TNU,2022-05-13 17:55,-93.0190,41.6701,75.20,51.80,320.00,10.00,,10.00,29.95,
96D,2022-05-13 17:55,-97.9028,48.9406,59.00,46.40,190.00,31.00,40.00,10.00,29.39,
9V9,2022-05-13 17:55,-99.3183,43.7667,71.00,38.70,270.00,17.00,23.00,10.00,29.90,
EVM,2022-05-13 17:55,-92.4981,47.4251,71.60,50.00,210.00,14.00,22.00,10.00,29.79,
ANW,2022-05-13 17:55,-99.9930,42.5792,71.00,25.00,230.00,18.00,24.00,10.00,29.96,
PMV,2022-05-13 17:55,-95.9179,40.9502,76.00,47.50,320.00,11.00,15.00,10.00,29.99,
CKN,2022-05-13 17:55,-96.6214,47.8417,62.60,,220.00,34.00,46.00,10.00,29.60,
FBL,2022-05-13 17:55,-93.3108,44.3247,71.60,46.40,250.00,9.00,15.00,10.00,29.92,
FFM,2022-05-13 17:55,-96.1567,46.2844,66.20,50.00,230.00,27.00,34.00,10.00,29.74,
LXL,2022-05-13 17:55,-94.3469,45.9492,68.00,50.00,190.00,14.00,18.00,10.00,29.84,
AUH,2022-05-13 17:55,-97.9946,40.8941,71.40,45.70,230.00,4.00,,10.00,30.03,
04W,2022-05-13 17:55,-92.8952,46.0229,71.60,48.20,230.00,17.00,21.00,10.00,29.86,
JKJ,2022-05-13 17:55,-96.6640,46.8393,62.60,46.40,220.00,29.00,37.00,10.00,29.71,
VWU,2022-05-13 17:55,-94.5167,48.1539,71.60,46.40,200.00,12.00,23.00,10.00,29.67,
3N8,2022-05-13 17:55,-95.9281,47.2605,62.40,47.70,220.00,28.00,37.00,10.00,29.70,
Y49,2022-05-13 17:55,-94.6453,47.1595,66.40,46.60,210.00,17.00,27.00,10.00,29.73,
GRN,2022-05-13 17:55,-102.1753,42.8060,64.40,29.80,270.00,16.00,24.00,10.00,29.97,
HPT,2022-05-13 17:55,-93.2244,42.7175,73.40,44.60,280.00,8.00,,10.00,29.93,
SXK,2022-05-13 17:55,-96.1614,42.9858,69.80,51.80,250.00,14.00,20.00,10.00,29.94,
LXN,2022-05-13 17:55,-99.7759,40.7904,70.50,36.30,330.00,5.00,,10.00,30.04,
TVK,2022-05-13 17:55,-92.8983,40.6832,73.40,55.40,140.00,3.00,,10.00,29.95,
20U,2022-05-13 17:55,-103.9821,46.9252,46.40,44.60,280.00,28.00,36.00,10.00,29.67,
BWW,2022-05-13 17:55,-103.3007,46.1655,50.00,44.60,280.00,26.00,37.00,10.00,29.72,
9D7,2022-05-13 17:55,-99.2364,48.4800,50.00,,210.00,30.00,40.00,9.00,29.35,
46D,2022-05-13 17:55,-99.1513,47.4511,57.20,44.60,230.00,27.00,42.00,10.00,29.52,
2C8,2022-05-13 17:55,-97.6320,48.7837,57.20,46.40,200.00,29.00,39.00,10.00,29.41,
D50,2022-05-13 17:55,-103.2973,48.9285,44.60,44.60,300.00,26.00,34.00,2.50,29.32,BR
D57,2022-05-13 17:55,-101.8602,46.8128,50.00,41.00,270.00,31.00,42.00,10.00,29.57,
GWR,2022-05-13 17:55,-97.6435,46.2187,62.60,50.00,230.00,31.00,42.00,10.00,29.72,
5H4,2022-05-13 17:55,-99.9317,47.7912,50.00,42.80,230.00,33.00,49.00,10.00,29.43,
2D5,2022-05-13 17:55,-98.0799,46.1731,60.80,46.40,230.00,29.00,37.00,10.00,29.73,
BAC,2022-05-13 17:55,-98.0180,46.9412,60.80,46.40,230.00,34.00,47.00,10.00,29.63,
BWP,2022-05-13 17:55,-96.6074,46.2441,66.20,50.00,220.00,29.00,39.00,10.00,29.75,
BTN,2022-05-13 17:55,-97.7428,45.8150,62.60,48.20,230.00,24.00,37.00,10.00,29.75,
SPF,2022-05-13 17:55,-103.7830,44.4803,57.20,30.20,270.00,15.00,27.00,10.00,29.88,
BVN,2022-05-13 17:55,-98.0558,41.7286,71.80,40.50,220.00,5.00,,10.00,30.00,
BTA,2022-05-13 17:55,-96.1090,41.4148,72.50,46.00,280.00,10.00,,10.00,30.00,
CQM,2022-05-13 17:55,-92.6894,47.8219,71.60,46.40,210.00,13.00,23.00,10.00,29.75,
DTL,2022-05-13 17:55,-95.8856,46.8252,62.60,46.40,220.00,17.00,31.00,10.00,29.74,
OXV,2022-05-13 17:55,-93.1114,41.2984,71.60,57.20,310.00,8.00,,10.00,29.95,
SLB,2022-05-13 17:55,-95.2399,42.5972,68.00,48.20,260.00,12.00,19.00,10.00,29.96,
IFA,2022-05-13 17:55,-93.2651,42.4691,75.20,44.00,250.00,11.00,,10.00,29.97,
MLE,2022-05-13 17:55,-96.1120,41.1960,73.60,46.00,310.00,10.00,,10.00,29.99,
D39,2022-05-13 17:55,-94.9334,45.7066,66.00,49.00,220.00,16.00,23.00,10.00,29.84,
FKA,2022-05-13 17:55,-92.1797,43.6767,79.00,46.00,270.00,11.00,19.00,7.00,29.92,
OOA,2022-05-13 17:55,-92.4919,41.2273,80.60,54.00,170.00,4.00,,10.00,29.93,
PRO,2022-05-13 17:55,-94.1637,41.8278,72.00,49.00,290.00,7.00,,3.00,29.97,HZ
AHQ,2022-05-13 17:55,-96.5946,41.2406,73.00,45.00,250.00,6.00,,10.00,30.00,
PHP,2022-05-13 17:55,-101.6000,44.0500,70.00,33.00,270.00,21.00,33.00,10.00,29.86,
HON,2022-05-13 17:55,-98.2286,44.3852,71.00,42.00,230.00,19.00,28.00,10.00,29.87,
BIE,2022-05-13 17:55,-96.7541,40.3013,76.00,47.00,300.00,6.00,,10.00,30.00,
HCD,2022-05-13 17:55,-94.3825,44.8599,69.00,52.00,230.00,10.00,16.00,10.00,29.90,
GYL,2022-05-13 17:55,-94.0812,44.7560,67.00,49.60,210.00,9.00,14.00,10.00,29.90,
GGI,2022-05-13 17:55,-92.7332,41.7097,76.00,53.40,270.00,7.00,,10.00,29.97,
TVF,2022-05-13 17:56,-96.1850,48.0657,60.00,48.00,200.00,32.00,44.00,10.00,29.62,
OTG,2022-05-13 17:56,-95.5792,43.6551,68.00,50.00,250.00,18.00,22.00,10.00,29.94,
FRM,2022-05-13 17:56,-94.4156,43.6439,69.00,48.00,270.00,13.00,18.00,10.00,29.94,
EAR,2022-05-13 17:56,-99.0068,40.7270,71.00,37.00,,3.00,,10.00,30.04,
GNA,2022-05-13 17:56,-90.3457,47.7453,52.00,45.00,60.00,3.00,,,29.84,
DIK,2022-05-13 17:56,-102.8019,46.7973,49.00,43.00,260.00,34.00,46.00,10.00,29.58,
RDR,2022-05-13 17:56,-97.4012,47.9611,60.00,46.20,210.00,29.00,38.00,10.00,29.54,
JMS,2022-05-13 17:56,-98.6800,46.9300,61.00,43.00,220.00,22.00,48.00,10.00,29.60,
FOD,2022-05-13 17:56,-94.2032,42.5497,67.00,50.00,280.00,10.00,,10.00,29.97,
MML,2022-05-13 17:56,-95.8200,44.4500,68.00,50.00,260.00,22.00,26.00,10.00,29.87,
CWI,2022-05-13 17:56,-90.3328,41.8295,90.00,61.00,,,,10.00,29.92,
DVL,2022-05-13 17:56,-98.9083,48.1146,53.00,41.00,220.00,34.00,46.00,10.00,29.42,
MIB,2022-05-13 17:56,-101.3580,48.4158,50.50,37.20,280.00,21.00,33.00,10.00,29.22,
RCA,2022-05-13 17:56,-103.1036,44.1451,65.00,31.10,290.00,15.00,29.00,10.00,29.86,
FSD,2022-05-13 17:56,-96.7536,43.5769,71.00,45.00,270.00,13.00,19.00,10.00,29.93,
8D3,2022-05-13 17:56,-96.9914,45.6689,68.00,46.00,230.00,28.00,41.00,,29.77,
2WX,2022-05-13 17:56,-103.5464,45.6044,57.00,42.00,280.00,33.00,42.00,,29.73,
OLU,2022-05-13 17:56,-97.3426,41.4480,73.00,44.00,230.00,7.00,,10.00,30.01,
RYM,2022-05-13 17:56,-94.3575,46.0895,69.40,49.00,210.00,17.00,22.00,10.00,29.81,
YKN,2022-05-13 17:56,-97.3859,42.9167,70.00,44.00,190.00,7.00,,10.00,29.95,
OFK,2022-05-13 17:56,-97.4351,41.9855,75.00,42.00,240.00,6.00,16.00,10.00,29.98,
GPZ,2022-05-13 17:56,-93.5097,47.2111,69.00,47.00,200.00,16.00,24.00,10.00,29.78,
MKT,2022-05-13 17:56,-93.9200,44.2200,67.00,49.00,270.00,10.00,,10.00,29.92,
D07,2022-05-13 17:56,-102.0200,45.0300,62.00,40.00,270.00,28.00,43.00,,29.78,
OFF,2022-05-13 17:56,-95.9125,41.1183,76.00,41.50,290.00,11.00,15.00,10.00,30.00,
1HW,2022-05-13 17:58,-102.8289,41.3251,70.00,25.90,240.00,20.00,31.00,10.00,30.01,
1BW,2022-05-13 17:58,-103.9950,41.5117,62.80,19.90,270.00,25.00,33.00,10.00,30.05,
1CW,2022-05-13 17:58,-103.6706,41.5900,65.50,16.50,260.00,22.00,30.00,10.00,30.02,
PNM,2022-05-13 18:15,-93.6082,45.5599,71.60,48.20,190.00,12.00,15.00,10.00,29.86,
FSE,2022-05-13 18:15,-95.7735,47.5928,60.80,46.40,210.00,26.00,36.00,10.00,29.69,
SYN,2022-05-13 18:15,-93.0145,44.4736,72.00,50.20,210.00,8.00,,10.00,29.90,
MGG,2022-05-13 18:25,-93.9856,45.2360,69.80,46.40,210.00,3.00,,10.00,29.88,
ORB,2022-05-13 18:33,-92.8560,48.0159,75.20,46.40,190.00,14.00,23.00,10.00,29.70,
EVM,2022-05-13 18:35,-92.4981,47.4251,71.60,44.60,200.00,18.00,24.00,10.00,29.79,
XWA,2022-05-13 18:51,-103.7505,48.2597,44.00,41.00,290.00,26.00,45.00,10.00,29.47,-RA
IOW,2022-05-13 18:52,-91.5445,41.6394,83.00,54.00,260.00,5.00,,10.00,29.92,
OMA,2022-05-13 18:52,-95.8992,41.3103,78.00,45.00,270.00,11.00,20.00,10.00,29.96,
VTN,2022-05-13 18:52,-100.5489,42.8567,75.00,27.00,260.00,20.00,30.00,10.00,29.93,
CID,2022-05-13 18:52,-91.7246,41.8829,79.00,54.00,,4.00,,10.00,29.91,
SUX,2022-05-13 18:52,-96.3795,42.3917,75.00,46.00,270.00,10.00,16.00,10.00,29.94,
DVN,2022-05-13 18:52,-90.5948,41.6133,91.00,55.00,210.00,9.00,,10.00,29.92,
BIS,2022-05-13 18:52,-100.7458,46.7727,58.00,41.00,260.00,26.00,42.00,10.00,29.62,
IEN,2022-05-13 18:52,-102.5110,43.0225,65.00,28.90,280.00,14.00,28.00,10.00,29.94,
N60,2022-05-13 18:52,-101.4394,47.6458,48.00,42.00,,,,,29.45,
RAP,2022-05-13 18:52,-103.0574,44.0453,66.00,33.00,280.00,15.00,,10.00,29.88,
EST,2022-05-13 18:52,-94.7476,43.4008,71.00,49.00,250.00,12.00,20.00,10.00,29.94,
MBG,2022-05-13 18:52,-100.4078,45.5464,65.00,44.00,280.00,26.00,42.00,10.00,29.74,
DBQ,2022-05-13 18:53,-90.7091,42.3984,86.00,57.00,230.00,12.00,22.00,10.00,29.91,
IML,2022-05-13 18:53,-101.6201,40.5103,74.00,28.90,240.00,12.00,18.00,10.00,30.03,
SNY,2022-05-13 18:53,-102.9847,41.1014,69.00,21.00,260.00,16.00,30.00,10.00,30.00,
MCK,2022-05-13 18:53,-100.5921,40.2063,73.00,25.00,0.00,0.00,,10.00,30.03,
BRD,2022-05-13 18:53,-94.1308,46.4047,72.00,46.00,230.00,22.00,33.00,10.00,29.81,
HSI,2022-05-13 18:53,-98.4279,40.6052,74.00,37.00,,3.00,,9.00,30.01,
FCM,2022-05-13 18:53,-93.4607,44.8261,70.00,50.00,220.00,11.00,17.00,10.00,29.89,
PKD,2022-05-13 18:53,-95.0700,46.9000,70.00,46.00,220.00,28.00,36.00,10.00,29.77,
STC,2022-05-13 18:53,-94.0513,45.5433,70.00,50.00,230.00,12.00,21.00,10.00,29.85,
ODX,2022-05-13 18:53,-98.9517,41.6236,73.00,36.00,220.00,9.00,22.00,10.00,29.97,
OWA,2022-05-13 18:53,-93.2606,44.1233,71.60,51.80,240.00,10.00,,10.00,29.92,
STP,2022-05-13 18:53,-93.0600,44.9345,73.00,48.00,250.00,12.00,,10.00,29.89,
BFF,2022-05-13 18:53,-103.5956,41.8740,68.00,24.10,280.00,20.00,29.00,10.00,29.99,
AQP,2022-05-13 18:53,-96.0043,45.2275,71.60,46.40,240.00,16.00,25.00,10.00,29.83,
FOZ,2022-05-13 18:53,-93.6502,47.7828,71.60,46.40,180.00,18.00,24.00,10.00,29.78,
XVG,2022-05-13 18:53,-94.2039,46.9900,68.00,46.40,210.00,12.00,22.00,10.00,29.77,
AMW,2022-05-13 18:53,-93.6185,41.9904,76.00,50.00,300.00,9.00,,10.00,29.95,
BRL,2022-05-13 18:53,-91.1255,40.7729,89.00,57.00,10.00,6.00,,10.00,29.88,
LWD,2022-05-13 18:53,-93.9005,40.6306,77.00,59.00,,4.00,,10.00,29.97,
MIW,2022-05-13 18:53,-92.9163,42.1106,74.00,46.00,250.00,9.00,,10.00,29.96,
SPW,2022-05-13 18:53,-95.2101,43.1682,76.00,46.00,260.00,14.00,,10.00,29.94,
LBF,2022-05-13 18:53,-100.6690,41.1219,75.00,32.00,290.00,9.00,20.00,10.00,30.00,
AIA,2022-05-13 18:53,-102.8000,42.0572,67.00,27.00,260.00,18.00,29.00,10.00,29.99,
ORB,2022-05-13 18:53,-92.8560,48.0159,75.20,46.40,210.00,12.00,20.00,10.00,29.70,
FAR,2022-05-13 18:53,-96.8111,46.9253,66.00,43.00,220.00,35.00,47.00,10.00,29.69,
GFK,2022-05-13 18:53,-97.1761,47.9492,63.00,46.00,210.00,33.00,51.00,10.00,29.56,
ABR,2022-05-13 18:53,-98.4200,45.4500,69.00,46.00,240.00,26.00,36.00,10.00,29.78,
CUT,2022-05-13 18:53,-103.6114,43.7331,57.00,26.10,280.00,17.00,28.00,10.00,29.93,
PIR,2022-05-13 18:53,-100.2860,44.3827,71.00,34.00,280.00,19.00,33.00,10.00,29.83,
ATY,2022-05-13 18:53,-97.1547,44.9140,69.00,43.00,230.00,25.00,37.00,10.00,29.84,
ICR,2022-05-13 18:53,-99.8422,43.3903,75.00,34.00,250.00,19.00,26.00,10.00,29.89,
BBW,2022-05-13 18:53,-99.6385,41.4365,76.00,26.10,240.00,17.00,23.00,10.00,29.99,
FNB,2022-05-13 18:53,-95.5920,40.0788,77.00,60.00,360.00,4.00,,10.00,29.97,
RWF,2022-05-13 18:53,-95.0820,44.5469,72.00,51.00,230.00,16.00,23.00,10.00,29.88,
OTM,2022-05-13 18:53,-92.4446,41.1008,77.00,58.00,270.00,10.00,,10.00,29.95,
MHE,2022-05-13 18:53,-98.0386,43.7748,72.00,44.00,210.00,11.00,23.00,10.00,29.89,
MCW,2022-05-13 18:53,-93.3261,43.1544,71.00,47.00,240.00,9.00,,10.00,29.96,
HEI,2022-05-13 18:53,-102.6560,46.0149,56.00,42.00,270.00,30.00,38.00,10.00,29.74,
AXN,2022-05-13 18:53,-95.3947,45.8663,69.00,49.00,230.00,19.00,30.00,10.00,29.83,
HIB,2022-05-13 18:53,-92.8390,47.3866,71.00,44.00,210.00,16.00,25.00,10.00,29.76,
MSP,2022-05-13 18:53,-93.2313,44.8854,71.00,47.00,250.00,10.00,18.00,10.00,29.90,
GRI,2022-05-13 18:53,-98.3096,40.9675,76.00,35.00,,,,10.00,30.00,
CDR,2022-05-13 18:53,-103.0954,42.8376,67.00,28.00,270.00,13.00,24.00,10.00,29.94,
BDE,2022-05-13 18:53,-94.6122,48.7284,69.00,48.00,200.00,22.00,35.00,10.00,29.65,
MIC,2022-05-13 18:53,-93.3511,45.0622,69.00,50.00,200.00,9.00,,10.00,29.87,
DVP,2022-05-13 18:53,-95.7826,43.9868,69.00,45.30,260.00,17.00,26.00,10.00,29.92,
ALO,2022-05-13 18:54,-92.4013,42.5544,76.00,48.00,290.00,8.00,,10.00,29.92,
INL,2022-05-13 18:54,-93.3956,48.5595,74.00,46.00,220.00,20.00,32.00,10.00,29.67,
MOT,2022-05-13 18:54,-101.2803,48.2594,49.00,43.00,230.00,25.00,40.00,10.00,29.31,-RA
DSM,2022-05-13 18:54,-93.6531,41.5339,77.00,47.00,290.00,11.00,,10.00,29.94,
TQE,2022-05-13 18:54,-96.1779,41.7635,77.00,49.00,240.00,6.00,,10.00,29.96,
LNK,2022-05-13 18:54,-96.7633,40.8312,78.00,44.00,300.00,3.00,,10.00,29.99,
RST,2022-05-13 18:54,-92.4916,43.9041,76.00,41.00,230.00,13.00,,10.00,29.91,
S32,2022-05-13 18:55,-98.1059,47.4228,59.00,48.20,220.00,37.00,46.00,10.00,29.58,
OXV,2022-05-13 18:55,-93.1114,41.2984,75.20,51.80,340.00,8.00,,10.00,29.97,
CCY,2022-05-13 18:55,-92.6132,43.0730,75.20,42.80,230.00,10.00,,10.00,29.93,
VTI,2022-05-13 18:55,-92.0248,42.2176,82.80,45.30,240.00,7.00,,10.00,29.92,
IFA,2022-05-13 18:55,-93.2651,42.4691,73.20,46.60,250.00,15.00,19.00,10.00,29.97,
CNC,2022-05-13 18:55,-93.3608,41.0184,73.40,59.00,,4.00,10.00,10.00,29.97,
CSQ,2022-05-13 18:55,-94.3608,41.0188,77.00,50.00,300.00,14.00,,10.00,29.96,
AWG,2022-05-13 18:55,-91.6748,41.2751,82.40,51.80,260.00,6.00,,10.00,29.91,
FSW,2022-05-13 18:55,-91.3267,40.6615,87.80,57.20,0.00,0.00,,10.00,29.89,
EOK,2022-05-13 18:55,-91.4274,40.4615,87.80,59.00,,3.00,,9.00,29.89,
SGS,2022-05-13 18:55,-93.0329,44.8571,72.50,47.80,290.00,6.00,,10.00,29.90,
ACQ,2022-05-13 18:55,-93.5529,44.0735,69.80,48.20,230.00,11.00,,,29.94,
MPZ,2022-05-13 18:55,-91.5122,40.9453,87.80,55.40,290.00,5.00,,10.00,29.91,
AEL,2022-05-13 18:55,-93.3672,43.6815,71.60,46.40,280.00,6.00,,10.00,29.94,
PNM,2022-05-13 18:55,-93.6082,45.5599,71.60,48.20,210.00,7.00,20.00,10.00,29.86,
BVN,2022-05-13 18:55,-98.0558,41.7286,74.00,39.40,240.00,8.00,,10.00,29.99,
7L2,2022-05-13 18:55,-100.2456,46.2206,59.00,44.60,250.00,24.00,37.00,10.00,29.72,
D55,2022-05-13 18:55,-98.3937,48.7531,53.60,51.80,210.00,38.00,45.00,10.00,29.38,
06D,2022-05-13 18:55,-99.6208,48.8844,48.20,48.20,210.00,32.00,41.00,3.00,29.26,-RA
AIT,2022-05-13 18:55,-93.6768,46.5484,68.00,46.40,200.00,14.00,20.00,10.00,29.81,
AUM,2022-05-13 18:55,-92.9333,43.6647,73.40,46.40,260.00,10.00,17.00,10.00,29.92,
DLH,2022-05-13 18:55,-92.1936,46.8421,71.00,52.00,200.00,11.00,23.00,10.00,29.82,
GHW,2022-05-13 18:55,-95.3204,45.6439,69.80,50.00,210.00,21.00,30.00,10.00,29.84,
JMR,2022-05-13 18:55,-93.2718,45.8861,68.00,48.20,230.00,11.00,19.00,10.00,29.87,
ULM,2022-05-13 18:55,-94.5000,44.3200,68.00,48.20,240.00,11.00,17.00,10.00,29.91,
FET,2022-05-13 18:55,-96.5200,41.4500,75.20,48.40,220.00,6.00,,10.00,29.99,
TIF,2022-05-13 18:55,-100.5690,41.9622,72.70,26.10,260.00,23.00,28.00,10.00,29.98,
BJI,2022-05-13 18:55,-94.9337,47.5094,67.30,44.40,230.00,18.00,28.00,10.00,29.73,
COQ,2022-05-13 18:55,-92.5036,46.7011,71.60,41.00,200.00,16.00,25.00,10.00,29.80,
DTL,2022-05-13 18:55,-95.8856,46.8252,64.40,46.40,230.00,19.00,30.00,10.00,29.75,
ELO,2022-05-13 18:55,-91.8371,47.8287,71.60,46.40,210.00,15.00,19.00,10.00,29.78,
FSE,2022-05-13 18:55,-95.7735,47.5928,62.60,46.40,210.00,30.00,38.00,10.00,29.69,
HCD,2022-05-13 18:55,-94.3825,44.8599,69.80,52.50,230.00,11.00,15.00,10.00,29.90,
MJQ,2022-05-13 18:55,-94.9865,43.6500,69.80,46.40,260.00,16.00,20.00,10.00,29.93,
MZH,2022-05-13 18:55,-92.8048,46.4186,73.40,44.60,200.00,13.00,21.00,10.00,29.83,
PQN,2022-05-13 18:55,-96.3004,43.9821,69.80,46.40,270.00,17.00,24.00,10.00,29.91,
RGK,2022-05-13 18:55,-92.4868,44.5915,77.00,44.60,240.00,9.00,,10.00,29.87,
ROX,2022-05-13 18:55,-95.6971,48.8560,62.60,48.20,180.00,29.00,35.00,10.00,29.60,
BDH,2022-05-13 18:55,-95.1304,45.1177,71.60,51.80,230.00,19.00,22.00,10.00,29.89,
ONA,2022-05-13 18:55,-91.7083,44.0772,82.40,51.80,210.00,5.00,,10.00,29.88,
LCG,2022-05-13 18:55,-96.9814,42.2419,76.80,43.50,260.00,13.00,16.00,10.00,29.96,
BBB,2022-05-13 18:55,-95.6506,45.3319,68.00,51.80,270.00,18.00,26.00,10.00,29.85,
CFE,2022-05-13 18:55,-93.8433,45.1590,69.80,50.00,240.00,15.00,,10.00,29.87,
DYT,2022-05-13 18:55,-92.0434,46.7219,42.80,41.00,30.00,4.00,,7.00,29.84,
FGN,2022-05-13 18:55,-94.9028,49.3183,48.20,39.20,180.00,16.00,,10.00,29.61,
GYL,2022-05-13 18:55,-94.0812,44.7560,68.70,49.80,220.00,10.00,17.00,10.00,29.89,
GDB,2022-05-13 18:55,-95.5560,44.7533,72.00,52.20,240.00,22.00,26.00,10.00,29.89,
14Y,2022-05-13 18:55,-94.8739,45.8983,68.00,50.00,250.00,19.00,24.00,10.00,29.84,
LYV,2022-05-13 18:55,-96.2158,43.6212,69.80,39.20,260.00,17.00,,10.00,29.93,
DXX,2022-05-13 18:55,-96.1779,44.9864,71.60,46.40,250.00,18.00,25.00,10.00,29.86,
HZX,2022-05-13 18:55,-93.3098,46.6188,68.00,48.20,190.00,17.00,22.00,10.00,29.82,
LVN,2022-05-13 18:55,-93.2273,44.6252,69.80,44.60,260.00,7.00,,10.00,29.91,
VVV,2022-05-13 18:55,-96.4244,45.3057,69.80,46.40,230.00,16.00,29.00,10.00,29.82,
PEX,2022-05-13 18:55,-94.7466,45.3723,68.00,50.00,220.00,16.00,22.00,10.00,29.87,
PWC,2022-05-13 18:55,-94.3817,46.7248,66.20,48.20,210.00,16.00,28.00,10.00,29.82,
9MN,2022-05-13 18:55,-92.4831,44.0198,76.30,37.60,240.00,6.00,18.00,10.00,29.90,
ROS,2022-05-13 18:55,-92.9530,45.6980,71.40,46.80,210.00,14.00,19.00,10.00,29.86,
SYN,2022-05-13 18:55,-93.0145,44.4736,72.70,45.50,230.00,9.00,,10.00,29.90,
SAZ,2022-05-13 18:55,-94.8066,46.3809,69.80,46.40,210.00,15.00,24.00,10.00,29.81,
JYG,2022-05-13 18:55,-94.5579,43.9863,69.80,48.20,230.00,13.00,,10.00,29.92,
21D,2022-05-13 18:55,-92.8557,44.9975,71.60,48.20,230.00,8.00,,10.00,29.90,
TKC,2022-05-13 18:55,-95.6072,44.2491,70.70,42.30,250.00,14.00,20.00,10.00,29.90,
RRT,2022-05-13 18:55,-95.3483,48.9414,60.80,48.20,180.00,13.00,30.00,10.00,29.62,
MWM,2022-05-13 18:55,-95.1094,43.9134,69.80,48.20,240.00,16.00,20.00,10.00,29.91,
OVL,2022-05-13 18:55,-95.0328,44.7786,69.80,51.80,240.00,15.00,,10.00,29.87,
FKA,2022-05-13 18:55,-92.1797,43.6767,78.00,46.20,260.00,8.00,,7.00,29.92,
BNW,2022-05-13 18:55,-93.8486,42.0486,73.40,51.80,280.00,10.00,15.00,10.00,29.99,
Y19,2022-05-13 18:55,-100.8944,46.7680,57.20,44.60,260.00,28.00,38.00,10.00,29.61,
RUG,2022-05-13 18:55,-100.0243,48.3904,46.40,46.40,220.00,31.00,39.00,2.50,29.33,BR
08D,2022-05-13 18:55,-102.4064,48.3008,44.60,44.60,270.00,30.00,40.00,9.00,29.37,-RA
S25,2022-05-13 18:55,-103.2552,47.7966,46.40,46.40,280.00,29.00,39.00,9.00,29.52,
IKV,2022-05-13 18:55,-93.5695,41.6878,75.20,50.00,290.00,13.00,,9.00,29.95,
AIO,2022-05-13 18:55,-95.0465,41.4059,73.40,53.60,290.00,12.00,,10.00,29.95,
CKP,2022-05-13 18:55,-95.5538,42.7304,72.70,47.80,250.00,12.00,18.00,10.00,29.95,
ICL,2022-05-13 18:55,-95.0223,40.7242,77.00,55.40,320.00,9.00,15.00,10.00,29.98,
CBF,2022-05-13 18:55,-95.7604,41.2611,75.20,39.20,290.00,12.00,18.00,10.00,29.95,
DEH,2022-05-13 18:55,-91.7433,43.2755,82.40,48.20,230.00,8.00,15.00,10.00,29.89,
OLZ,2022-05-13 18:55,-91.9760,42.6831,80.60,48.20,240.00,11.00,,10.00,29.93,
RDK,2022-05-13 18:55,-95.2624,41.0106,77.00,48.20,320.00,10.00,,10.00,29.96,
SHL,2022-05-13 18:55,-95.8353,43.2082,71.60,44.60,260.00,16.00,,10.00,29.92,
SDA,2022-05-13 18:55,-95.4112,40.7533,78.80,50.00,,6.00,12.00,10.00,29.96,
SLB,2022-05-13 18:55,-95.2399,42.5972,71.60,46.40,260.00,12.00,,10.00,29.95,
AXA,2022-05-13 18:55,-94.2724,43.0796,71.60,50.00,290.00,11.00,,10.00,29.93,
ADU,2022-05-13 18:55,-94.9204,41.6994,73.40,48.20,270.00,5.00,,10.00,29.97,
CIN,2022-05-13 18:55,-94.7889,42.0444,75.20,48.20,260.00,14.00,20.00,10.00,29.95,
FXY,2022-05-13 18:55,-93.6237,43.2323,71.60,44.60,250.00,6.00,,10.00,29.95,
HNR,2022-05-13 18:55,-95.3355,41.5834,73.40,50.00,290.00,13.00,18.00,10.00,29.96,
LRJ,2022-05-13 18:55,-96.1923,42.7754,73.40,46.40,240.00,9.00,17.00,10.00,29.93,
MUT,2022-05-13 18:55,-91.1406,41.3670,87.80,53.60,0.00,0.00,,10.00,29.89,
I75,2022-05-13 18:55,-93.6876,41.0472,77.50,52.00,250.00,7.00,,7.00,29.98,
OOA,2022-05-13 18:55,-92.4919,41.2273,81.50,54.30,260.00,8.00,,7.00,29.96,
PRO,2022-05-13 18:55,-94.1637,41.8278,74.80,47.80,280.00,7.00,15.00,7.00,29.97,
GGI,2022-05-13 18:55,-92.7332,41.7097,77.70,53.60,280.00,8.00,,10.00,29.98,
MXO,2022-05-13 18:55,-91.1605,42.2204,87.80,57.20,250.00,12.00,21.00,10.00,29.90,
PEA,2022-05-13 18:55,-92.9431,41.3989,75.70,54.70,260.00,7.00,,10.00,29.97,
EBS,2022-05-13 18:55,-93.8691,42.4392,73.40,48.20,300.00,10.00,17.00,10.00,29.94,
FFL,2022-05-13 18:55,-91.9834,41.0521,82.40,50.00,240.00,6.00,,10.00,29.93,
CAV,2022-05-13 18:55,-93.7593,42.7430,71.60,51.80,300.00,6.00,13.00,10.00,29.96,
DNS,2022-05-13 18:55,-95.3800,41.9842,73.40,48.20,260.00,9.00,17.00,10.00,29.97,
TNU,2022-05-13 18:55,-93.0190,41.6701,75.20,48.20,300.00,8.00,,10.00,29.96,
5H4,2022-05-13 18:55,-99.9317,47.7912,50.00,42.80,230.00,35.00,47.00,10.00,29.46,
96D,2022-05-13 18:55,-97.9028,48.9406,57.20,44.60,200.00,26.00,41.00,10.00,29.40,
AHQ,2022-05-13 18:55,-96.5946,41.2406,74.80,43.30,250.00,3.00,,10.00,29.98,
ANW,2022-05-13 18:55,-99.9930,42.5792,72.00,23.40,260.00,13.00,21.00,10.00,29.95,
AUH,2022-05-13 18:55,-97.9946,40.8941,73.60,44.60,230.00,8.00,,10.00,30.00,
PMV,2022-05-13 18:55,-95.9179,40.9502,78.00,42.30,310.00,8.00,17.00,10.00,29.97,
CKN,2022-05-13 18:55,-96.6214,47.8417,64.40,,220.00,32.00,45.00,10.00,29.61,
FBL,2022-05-13 18:55,-93.3108,44.3247,71.60,48.20,240.00,7.00,,10.00,29.92,
FFM,2022-05-13 18:55,-96.1567,46.2844,68.00,48.20,240.00,24.00,32.00,10.00,29.75,
LXL,2022-05-13 18:55,-94.3469,45.9492,68.00,48.20,220.00,16.00,,10.00,29.85,
JKJ,2022-05-13 18:55,-96.6640,46.8393,64.40,46.40,220.00,25.00,36.00,10.00,29.72,
VWU,2022-05-13 18:55,-94.5167,48.1539,71.60,46.40,200.00,13.00,23.00,10.00,29.68,
04W,2022-05-13 18:55,-92.8952,46.0229,71.60,51.80,210.00,15.00,20.00,10.00,29.85,
3N8,2022-05-13 18:55,-95.9281,47.2605,62.80,46.20,220.00,29.00,41.00,10.00,29.71,
GRN,2022-05-13 18:55,-102.1753,42.8060,65.70,29.80,260.00,13.00,24.00,10.00,29.96,
HPT,2022-05-13 18:55,-93.2244,42.7175,71.60,44.60,270.00,12.00,19.00,10.00,29.93,
SXK,2022-05-13 18:55,-96.1614,42.9858,73.40,50.00,260.00,15.00,,10.00,29.93,
HJH,2022-05-13 18:55,-97.5870,40.1523,76.80,34.70,0.00,0.00,,10.00,30.00,
HDE,2022-05-13 18:55,-99.3365,40.4521,71.60,36.00,210.00,8.00,,10.00,30.02,
IBM,2022-05-13 18:55,-103.6774,41.1881,67.30,20.10,270.00,20.00,28.00,10.00,30.03,
MLE,2022-05-13 18:55,-96.1120,41.1960,75.00,45.00,290.00,9.00,,10.00,29.97,
ONL,2022-05-13 18:55,-98.6881,42.4697,73.40,35.40,230.00,9.00,14.00,10.00,29.96,
JYR,2022-05-13 18:55,-97.6228,40.8967,73.40,51.80,260.00,5.00,,10.00,30.00,
20U,2022-05-13 18:55,-103.9821,46.9252,48.20,44.60,270.00,24.00,35.00,10.00,29.69,
BWW,2022-05-13 18:55,-103.3007,46.1655,53.60,44.60,270.00,26.00,36.00,10.00,29.73,
9D7,2022-05-13 18:55,-99.2364,48.4800,50.00,,210.00,36.00,44.00,9.00,29.38,
46D,2022-05-13 18:55,-99.1513,47.4511,55.40,42.80,230.00,26.00,45.00,10.00,29.56,
2C8,2022-05-13 18:55,-97.6320,48.7837,57.20,44.60,200.00,24.00,41.00,10.00,29.43,
D50,2022-05-13 18:55,-103.2973,48.9285,42.80,42.80,300.00,27.00,37.00,3.00,29.36,-RA
D57,2022-05-13 18:55,-101.8602,46.8128,51.80,41.00,270.00,37.00,44.00,9.00,29.60,
GWR,2022-05-13 18:55,-97.6435,46.2187,64.40,51.80,240.00,29.00,42.00,10.00,29.72,
HZE,2022-05-13 18:55,-101.5810,47.2899,51.80,46.40,260.00,34.00,41.00,10.00,29.54,
2D5,2022-05-13 18:55,-98.0799,46.1731,62.60,46.40,240.00,26.00,37.00,10.00,29.74,
D60,2022-05-13 18:55,-102.8974,48.3803,41.00,41.00,280.00,26.00,37.00,6.00,29.40,-RA
BAC,2022-05-13 18:55,-98.0180,46.9412,62.60,44.60,230.00,35.00,49.00,10.00,29.65,
BWP,2022-05-13 18:55,-96.6074,46.2441,68.00,48.20,240.00,30.00,36.00,10.00,29.76,
BTN,2022-05-13 18:55,-97.7428,45.8150,66.20,48.20,220.00,26.00,33.00,10.00,29.75,
HON,2022-05-13 18:55,-98.2286,44.3852,73.00,39.00,240.00,19.00,30.00,10.00,29.87,
PHP,2022-05-13 18:55,-101.6000,44.0500,70.00,34.00,260.00,18.00,26.00,10.00,29.86,
SPF,2022-05-13 18:55,-103.7830,44.4803,60.80,30.20,260.00,22.00,32.00,10.00,29.86,
BTA,2022-05-13 18:55,-96.1090,41.4148,73.80,42.60,240.00,7.00,,10.00,29.97,
CQM,2022-05-13 18:55,-92.6894,47.8219,75.20,44.60,170.00,12.00,19.00,10.00,29.74,
TOB,2022-05-13 18:55,-92.8315,44.0180,73.40,46.40,260.00,15.00,19.00,10.00,29.92,
TVK,2022-05-13 18:55,-92.8983,40.6832,77.00,55.40,270.00,9.00,,10.00,29.99,
Y63,2022-05-13 18:55,-95.9920,45.9861,68.00,49.00,250.00,23.00,30.00,10.00,29.82,
D39,2022-05-13 18:55,-94.9334,45.7066,66.70,49.00,210.00,14.00,22.00,10.00,29.84,
AFK,2022-05-13 18:55,-95.8657,40.6069,76.50,47.00,290.00,7.00,,10.00,29.98,
BIE,2022-05-13 18:55,-96.7541,40.3013,77.50,44.00,300.00,5.00,,10.00,29.99,
LXN,2022-05-13 18:55,-99.7759,40.7904,73.00,35.00,210.00,3.00,,10.00,30.03,
9V9,2022-05-13 18:55,-99.3183,43.7667,72.00,36.00,270.00,15.00,22.00,10.00,29.89,
Y49,2022-05-13 18:55,-94.6453,47.1595,67.00,44.60,220.00,19.00,29.00,10.00,29.75,
OGA,2022-05-13 18:55,-101.7697,41.1195,76.00,25.30,260.00,17.00,26.00,10.00,30.02,
OFF,2022-05-13 18:56,-95.9125,41.1183,77.70,41.00,280.00,11.00,,10.00,29.98,
OTG,2022-05-13 18:56,-95.5792,43.6551,70.00,48.00,240.00,18.00,23.00,10.00,29.93,
MKT,2022-05-13 18:56,-93.9200,44.2200,70.00,46.00,240.00,12.00,19.00,10.00,29.92,
EAR,2022-05-13 18:56,-99.0068,40.7270,73.00,36.00,230.00,7.00,,10.00,30.02,
GNA,2022-05-13 18:56,-90.3457,47.7453,52.00,45.00,80.00,6.00,,,29.83,
RDR,2022-05-13 18:56,-97.4012,47.9611,61.20,45.30,210.00,32.00,41.00,10.00,29.54,
CWI,2022-05-13 18:56,-90.3328,41.8295,91.00,59.00,,5.00,17.00,10.00,29.90,
RYM,2022-05-13 18:56,-94.3575,46.0895,71.00,48.40,230.00,13.00,21.00,10.00,29.81,
DVL,2022-05-13 18:56,-98.9083,48.1146,52.00,41.00,220.00,35.00,45.00,10.00,29.44,
RCA,2022-05-13 18:56,-103.1036,44.1451,66.00,31.10,300.00,14.00,,10.00,29.85,
D07,2022-05-13 18:56,-102.0200,45.0300,64.00,37.00,280.00,27.00,43.00,,29.79,
8D3,2022-05-13 18:56,-96.9914,45.6689,71.00,46.00,240.00,23.00,38.00,,29.77,
YKN,2022-05-13 18:56,-97.3859,42.9167,72.00,45.00,230.00,12.00,17.00,10.00,29.94,
FRM,2022-05-13 18:56,-94.4156,43.6439,70.00,47.00,240.00,13.00,,10.00,29.93,
JMS,2022-05-13 18:56,-98.6800,46.9300,61.00,44.00,240.00,26.00,41.00,10.00,29.62,
FOD,2022-05-13 18:56,-94.2032,42.5497,72.00,49.00,290.00,9.00,,10.00,29.97,
MML,2022-05-13 18:56,-95.8200,44.4500,70.00,49.00,270.00,22.00,25.00,10.00,29.88,
2WX,2022-05-13 18:56,-103.5464,45.6044,59.00,42.00,270.00,25.00,35.00,,29.74,
FSD,2022-05-13 18:56,-96.7536,43.5769,73.00,44.00,240.00,10.00,20.00,10.00,29.92,
GPZ,2022-05-13 18:56,-93.5097,47.2111,71.00,49.00,190.00,14.00,22.00,10.00,29.78,
OFK,2022-05-13 18:56,-97.4351,41.9855,78.00,38.00,240.00,10.00,18.00,10.00,29.96,
DIK,2022-05-13 18:56,-102.8019,46.7973,51.00,42.00,260.00,32.00,47.00,10.00,29.61,
TVF,2022-05-13 18:56,-96.1850,48.0657,62.00,48.00,200.00,34.00,41.00,10.00,29.62,
OLU,2022-05-13 18:56,-97.3426,41.4480,76.00,43.00,220.00,9.00,,10.00,29.99,
MIB,2022-05-13 18:56,-101.3580,48.4158,49.00,36.30,280.00,27.00,37.00,5.00,29.26,-RA
1HW,2022-05-13 18:58,-102.8289,41.3251,67.60,21.20,280.00,16.00,23.00,10.00,29.98,
1BW,2022-05-13 18:58,-103.9950,41.5117,63.30,17.80,270.00,23.00,33.00,10.00,30.03,
PNM,2022-05-13 19:15,-93.6082,45.5599,71.60,48.20,210.00,9.00,15.00,10.00,29.86,
FSE,2022-05-13 19:15,-95.7735,47.5928,62.60,44.60,210.00,34.00,41.00,10.00,29.71,
SYN,2022-05-13 19:15,-93.0145,44.4736,73.40,46.80,250.00,8.00,,10.00,29.89,
ORB,2022-05-13 19:33,-92.8560,48.0159,77.00,46.40,200.00,13.00,19.00,10.00,29.71,
XWA,2022-05-13 19:51,-103.7505,48.2597,47.00,42.00,300.00,33.00,44.00,10.00,29.51,
VTN,2022-05-13 19:52,-100.5489,42.8567,76.00,26.10,250.00,19.00,30.00,10.00,29.92,
EST,2022-05-13 19:52,-94.7476,43.4008,75.00,50.00,280.00,19.00,23.00,10.00,29.91,
N60,2022-05-13 19:52,-101.4394,47.6458,50.00,43.00,,,,,29.49,
MBG,2022-05-13 19:52,-100.4078,45.5464,67.00,41.00,270.00,25.00,43.00,10.00,29.75,
RAP,2022-05-13 19:52,-103.0574,44.0453,67.00,30.90,,6.00,19.00,10.00,29.85,
OMA,2022-05-13 19:52,-95.8992,41.3103,81.00,47.00,300.00,4.00,,10.00,29.94,
CID,2022-05-13 19:52,-91.7246,41.8829,79.00,56.00,280.00,8.00,,10.00,29.93,
SUX,2022-05-13 19:52,-96.3795,42.3917,77.00,42.00,280.00,13.00,,10.00,29.93,
DVN,2022-05-13 19:52,-90.5948,41.6133,91.00,56.00,0.00,0.00,,10.00,29.88,
IOW,2022-05-13 19:52,-91.5445,41.6394,85.00,51.00,250.00,8.00,,10.00,29.92,
BIS,2022-05-13 19:52,-100.7458,46.7727,58.00,42.00,260.00,29.00,52.00,10.00,29.65,
IEN,2022-05-13 19:52,-102.5110,43.0225,67.00,27.00,250.00,21.00,32.00,10.00,29.93,
IML,2022-05-13 19:53,-101.6201,40.5103,76.00,28.90,200.00,11.00,22.00,10.00,30.01,
SNY,2022-05-13 19:53,-102.9847,41.1014,74.00,18.00,290.00,16.00,32.00,10.00,29.99,
CDR,2022-05-13 19:53,-103.0954,42.8376,68.00,27.00,270.00,15.00,21.00,10.00,29.92,
AXN,2022-05-13 19:53,-95.3947,45.8663,70.00,48.00,230.00,21.00,31.00,10.00,29.85,
BRD,2022-05-13 19:53,-94.1308,46.4047,73.00,46.00,220.00,19.00,35.00,10.00,29.81,
HIB,2022-05-13 19:53,-92.8390,47.3866,70.00,45.00,200.00,12.00,24.00,10.00,29.77,
PKD,2022-05-13 19:53,-95.0700,46.9000,69.00,46.00,210.00,26.00,35.00,8.00,29.78,
STC,2022-05-13 19:53,-94.0513,45.5433,70.00,48.00,240.00,16.00,26.00,10.00,29.85,
FNB,2022-05-13 19:53,-95.5920,40.0788,78.00,61.00,0.00,0.00,,10.00,29.96,
OWA,2022-05-13 19:53,-93.2606,44.1233,71.60,50.00,240.00,7.00,15.00,10.00,29.93,
STP,2022-05-13 19:53,-93.0600,44.9345,73.00,48.00,240.00,12.00,,10.00,29.88,
BFF,2022-05-13 19:53,-103.5956,41.8740,69.00,24.10,260.00,17.00,29.00,10.00,29.97,
AQP,2022-05-13 19:53,-96.0043,45.2275,73.40,44.60,240.00,18.00,24.00,10.00,29.83,
FOZ,2022-05-13 19:53,-93.6502,47.7828,73.40,46.40,200.00,17.00,23.00,10.00,29.79,
XVG,2022-05-13 19:53,-94.2039,46.9900,69.80,46.40,190.00,11.00,21.00,10.00,29.78,
AMW,2022-05-13 19:53,-93.6185,41.9904,76.00,48.00,300.00,6.00,,10.00,29.95,
BRL,2022-05-13 19:53,-91.1255,40.7729,90.00,57.00,,3.00,,10.00,29.86,
OTM,2022-05-13 19:53,-92.4446,41.1008,78.00,59.00,270.00,8.00,19.00,10.00,29.94,
GRI,2022-05-13 19:53,-98.3096,40.9675,77.00,36.00,270.00,6.00,15.00,10.00,29.99,
ORB,2022-05-13 19:53,-92.8560,48.0159,75.20,44.60,200.00,13.00,21.00,10.00,29.71,
DVP,2022-05-13 19:53,-95.7826,43.9868,71.00,44.20,240.00,17.00,24.00,10.00,29.91,
GFK,2022-05-13 19:53,-97.1761,47.9492,64.00,46.00,220.00,30.00,47.00,10.00,29.57,
ABR,2022-05-13 19:53,-98.4200,45.4500,71.00,46.00,250.00,21.00,35.00,10.00,29.79,
CUT,2022-05-13 19:53,-103.6114,43.7331,56.00,21.90,240.00,10.00,28.00,10.00,29.93,
MHE,2022-05-13 19:53,-98.0386,43.7748,74.00,41.00,230.00,11.00,22.00,10.00,29.88,
PIR,2022-05-13 19:53,-100.2860,44.3827,74.00,32.00,280.00,23.00,35.00,10.00,29.83,
BBW,2022-05-13 19:53,-99.6385,41.4365,78.00,23.00,270.00,15.00,20.00,10.00,29.96,
DBQ,2022-05-13 19:53,-90.7091,42.3984,86.00,58.00,220.00,8.00,15.00,10.00,29.90,
MCW,2022-05-13 19:53,-93.3261,43.1544,72.00,47.00,210.00,4.00,,10.00,29.95,
FCM,2022-05-13 19:53,-93.4607,44.8261,72.00,49.00,230.00,12.00,17.00,10.00,29.87,
BDE,2022-05-13 19:53,-94.6122,48.7284,68.00,47.00,200.00,22.00,36.00,10.00,29.68,
MSP,2022-05-13 19:53,-93.2313,44.8854,72.00,47.00,230.00,7.00,,10.00,29.88,
HSI,2022-05-13 19:53,-98.4279,40.6052,75.00,40.00,,4.00,,10.00,29.99,
ODX,2022-05-13 19:53,-98.9517,41.6236,75.00,35.00,240.00,7.00,19.00,10.00,29.95,
MIC,2022-05-13 19:53,-93.3511,45.0622,73.00,49.00,240.00,10.00,20.00,10.00,29.87,
MIW,2022-05-13 19:53,-92.9163,42.1106,75.00,47.00,,4.00,,10.00,29.95,
SPW,2022-05-13 19:53,-95.2101,43.1682,77.00,44.00,260.00,13.00,23.00,10.00,29.91,
FAR,2022-05-13 19:53,-96.8111,46.9253,68.00,44.00,220.00,32.00,46.00,10.00,29.70,
ICR,2022-05-13 19:53,-99.8422,43.3903,75.00,35.00,270.00,14.00,27.00,10.00,29.89,
HEI,2022-05-13 19:53,-102.6560,46.0149,60.00,42.00,260.00,30.00,44.00,10.00,29.75,
RWF,2022-05-13 19:53,-95.0820,44.5469,74.00,47.00,260.00,18.00,25.00,10.00,29.88,
LWD,2022-05-13 19:53,-93.9005,40.6306,78.00,60.00,320.00,7.00,,10.00,29.96,
ATY,2022-05-13 19:53,-97.1547,44.9140,71.00,42.00,230.00,25.00,36.00,10.00,29.84,
MCK,2022-05-13 19:53,-100.5921,40.2063,76.00,26.10,0.00,0.00,,10.00,30.01,
LBF,2022-05-13 19:53,-100.6690,41.1219,76.00,32.00,240.00,8.00,17.00,10.00,29.98,
AIA,2022-05-13 19:53,-102.8000,42.0572,69.00,28.00,290.00,15.00,29.00,10.00,29.97,
ALO,2022-05-13 19:54,-92.4013,42.5544,80.00,46.00,250.00,12.00,15.00,10.00,29.94,
INL,2022-05-13 19:54,-93.3956,48.5595,73.00,45.00,200.00,20.00,30.00,10.00,29.68,
MOT,2022-05-13 19:54,-101.2803,48.2594,50.00,41.00,230.00,38.00,55.00,10.00,29.36,
LNK,2022-05-13 19:54,-96.7633,40.8312,78.00,44.00,150.00,3.00,,10.00,29.97,
DSM,2022-05-13 19:54,-93.6531,41.5339,78.00,49.00,240.00,8.00,,10.00,29.96,
RST,2022-05-13 19:54,-92.4916,43.9041,76.00,42.00,230.00,14.00,,10.00,29.92,
TQE,2022-05-13 19:54,-96.1779,41.7635,80.00,47.00,250.00,13.00,,10.00,29.93,
OXV,2022-05-13 19:55,-93.1114,41.2984,77.00,51.80,,4.00,10.00,9.00,29.96,
CCY,2022-05-13 19:55,-92.6132,43.0730,75.20,46.40,260.00,14.00,,10.00,29.94,
IFA,2022-05-13 19:55,-93.2651,42.4691,75.70,46.40,270.00,6.00,,10.00,29.96,
VTI,2022-05-13 19:55,-92.0248,42.2176,81.00,43.00,240.00,8.00,,10.00,29.95,
CNC,2022-05-13 19:55,-93.3608,41.0184,77.00,57.20,,4.00,12.00,10.00,29.96,
CSQ,2022-05-13 19:55,-94.3608,41.0188,77.00,51.80,,4.00,15.00,10.00,29.97,
FSW,2022-05-13 19:55,-91.3267,40.6615,89.60,57.20,310.00,5.00,,10.00,29.88,
EOK,2022-05-13 19:55,-91.4274,40.4615,87.80,59.00,330.00,4.00,,10.00,29.88,
AWG,2022-05-13 19:55,-91.6748,41.2751,84.20,55.40,240.00,9.00,,10.00,29.90,
SGS,2022-05-13 19:55,-93.0329,44.8571,73.00,45.70,230.00,4.00,,10.00,29.88,
ACQ,2022-05-13 19:55,-93.5529,44.0735,71.60,50.00,220.00,9.00,,,29.94,
MPZ,2022-05-13 19:55,-91.5122,40.9453,87.80,55.40,310.00,14.00,17.00,10.00,29.91,
AEL,2022-05-13 19:55,-93.3672,43.6815,71.60,48.20,230.00,6.00,,10.00,29.93,
PNM,2022-05-13 19:55,-93.6082,45.5599,73.40,48.20,250.00,9.00,,10.00,29.87,
ULM,2022-05-13 19:55,-94.5000,44.3200,71.60,50.00,240.00,11.00,,10.00,29.89,
7L2,2022-05-13 19:55,-100.2456,46.2206,62.60,42.80,250.00,30.00,42.00,7.00,29.72,
HZE,2022-05-13 19:55,-101.5810,47.2899,55.40,44.60,260.00,34.00,41.00,10.00,29.58,
D55,2022-05-13 19:55,-98.3937,48.7531,51.80,50.00,210.00,39.00,50.00,10.00,29.41,
06D,2022-05-13 19:55,-99.6208,48.8844,46.40,46.40,210.00,31.00,38.00,3.00,29.29,-RA
D60,2022-05-13 19:55,-102.8974,48.3803,42.80,42.80,280.00,25.00,38.00,8.00,29.44,-RA
IBM,2022-05-13 19:55,-103.6774,41.1881,68.40,18.50,280.00,24.00,30.00,10.00,30.03,
AIT,2022-05-13 19:55,-93.6768,46.5484,71.60,46.40,210.00,12.00,20.00,10.00,29.81,
AUM,2022-05-13 19:55,-92.9333,43.6647,75.20,46.40,250.00,8.00,14.00,10.00,29.93,
GHW,2022-05-13 19:55,-95.3204,45.6439,69.80,48.20,220.00,19.00,27.00,10.00,29.85,
OGA,2022-05-13 19:55,-101.7697,41.1195,73.40,23.20,260.00,9.00,14.00,10.00,29.98,
COQ,2022-05-13 19:55,-92.5036,46.7011,73.40,41.00,210.00,14.00,20.00,10.00,29.80,
HCO,2022-05-13 19:55,-96.9430,48.7527,60.80,48.20,190.00,30.00,36.00,10.00,29.52,
MJQ,2022-05-13 19:55,-94.9865,43.6500,71.60,44.60,250.00,15.00,19.00,10.00,29.92,
JMR,2022-05-13 19:55,-93.2718,45.8861,69.80,50.00,240.00,11.00,17.00,10.00,29.88,
PQN,2022-05-13 19:55,-96.3004,43.9821,69.80,48.20,270.00,17.00,22.00,10.00,29.92,
RGK,2022-05-13 19:55,-92.4868,44.5915,77.00,44.60,250.00,8.00,,10.00,29.88,
ROX,2022-05-13 19:55,-95.6971,48.8560,64.40,48.20,190.00,29.00,41.00,10.00,29.60,
ONA,2022-05-13 19:55,-91.7083,44.0772,80.60,51.80,250.00,6.00,,10.00,29.88,
FET,2022-05-13 19:55,-96.5200,41.4500,77.20,46.20,230.00,6.00,,10.00,29.96,
HJH,2022-05-13 19:55,-97.5870,40.1523,78.30,32.20,0.00,0.00,,10.00,29.98,
HDE,2022-05-13 19:55,-99.3365,40.4521,73.00,34.20,220.00,8.00,,10.00,30.00,
MLE,2022-05-13 19:55,-96.1120,41.1960,77.70,43.20,280.00,3.00,8.00,10.00,29.95,
AFK,2022-05-13 19:55,-95.8657,40.6069,76.80,45.50,300.00,4.00,,10.00,29.96,
ONL,2022-05-13 19:55,-98.6881,42.4697,74.00,34.50,200.00,14.00,20.00,10.00,29.93,
TIF,2022-05-13 19:55,-100.5690,41.9622,73.00,25.50,260.00,20.00,31.00,10.00,29.96,
LCG,2022-05-13 19:55,-96.9814,42.2419,78.30,39.70,240.00,12.00,15.00,10.00,29.95,
JYR,2022-05-13 19:55,-97.6228,40.8967,75.20,50.00,240.00,5.00,,10.00,29.98,
BBB,2022-05-13 19:55,-95.6506,45.3319,69.80,50.00,260.00,19.00,24.00,10.00,29.85,
CQM,2022-05-13 19:55,-92.6894,47.8219,75.20,44.60,220.00,14.00,20.00,10.00,29.74,
DTL,2022-05-13 19:55,-95.8856,46.8252,64.40,46.40,230.00,21.00,30.00,10.00,29.77,
DYT,2022-05-13 19:55,-92.0434,46.7219,42.80,41.00,20.00,4.00,,10.00,29.82,
ELO,2022-05-13 19:55,-91.8371,47.8287,73.40,42.80,200.00,15.00,22.00,10.00,29.78,
FGN,2022-05-13 19:55,-94.9028,49.3183,48.20,37.40,180.00,15.00,21.00,10.00,29.63,
FSE,2022-05-13 19:55,-95.7735,47.5928,62.60,44.60,210.00,26.00,36.00,10.00,29.72,
GYL,2022-05-13 19:55,-94.0812,44.7560,69.00,50.50,230.00,7.00,16.00,10.00,29.90,
HCD,2022-05-13 19:55,-94.3825,44.8599,72.00,53.20,210.00,10.00,19.00,10.00,29.90,
DXX,2022-05-13 19:55,-96.1779,44.9864,73.40,46.40,250.00,18.00,28.00,10.00,29.87,
LVN,2022-05-13 19:55,-93.2273,44.6252,71.60,46.40,250.00,7.00,,10.00,29.90,
MZH,2022-05-13 19:55,-92.8048,46.4186,73.40,44.60,220.00,10.00,18.00,10.00,29.83,
JYG,2022-05-13 19:55,-94.5579,43.9863,73.40,48.20,260.00,14.00,20.00,10.00,29.90,
BDH,2022-05-13 19:55,-95.1304,45.1177,71.60,51.80,250.00,17.00,23.00,10.00,29.90,
MWM,2022-05-13 19:55,-95.1094,43.9134,71.60,44.60,230.00,13.00,21.00,10.00,29.90,
CFE,2022-05-13 19:55,-93.8433,45.1590,69.80,51.80,230.00,11.00,18.00,10.00,29.88,
TOB,2022-05-13 19:55,-92.8315,44.0180,73.40,46.40,240.00,8.00,16.00,10.00,29.93,
Y63,2022-05-13 19:55,-95.9920,45.9861,69.40,48.20,240.00,24.00,29.00,10.00,29.82,
GDB,2022-05-13 19:55,-95.5560,44.7533,72.70,50.70,220.00,17.00,20.00,10.00,29.89,
14Y,2022-05-13 19:55,-94.8739,45.8983,68.00,50.00,250.00,19.00,26.00,10.00,29.85,
LYV,2022-05-13 19:55,-96.2158,43.6212,71.60,37.40,240.00,14.00,19.00,10.00,29.92,
HZX,2022-05-13 19:55,-93.3098,46.6188,69.80,46.40,200.00,17.00,24.00,10.00,29.83,
OVL,2022-05-13 19:55,-95.0328,44.7786,71.60,50.00,240.00,15.00,19.00,10.00,29.87,
VVV,2022-05-13 19:55,-96.4244,45.3057,71.60,46.40,240.00,15.00,29.00,10.00,29.82,
PEX,2022-05-13 19:55,-94.7466,45.3723,69.80,50.00,220.00,12.00,22.00,10.00,29.86,
PWC,2022-05-13 19:55,-94.3817,46.7248,69.80,48.20,230.00,17.00,27.00,10.00,29.83,
FKA,2022-05-13 19:55,-92.1797,43.6767,76.50,43.30,240.00,7.00,,7.00,29.92,
9MN,2022-05-13 19:55,-92.4831,44.0198,76.00,42.80,240.00,7.00,15.00,10.00,29.92,
ROS,2022-05-13 19:55,-92.9530,45.6980,71.20,47.70,200.00,9.00,15.00,10.00,29.87,
D39,2022-05-13 19:55,-94.9334,45.7066,69.00,50.00,230.00,17.00,22.00,10.00,29.85,
SYN,2022-05-13 19:55,-93.0145,44.4736,74.00,46.80,250.00,8.00,,10.00,29.89,
SAZ,2022-05-13 19:55,-94.8066,46.3809,71.60,46.40,220.00,18.00,26.00,10.00,29.82,
21D,2022-05-13 19:55,-92.8557,44.9975,71.60,48.20,230.00,8.00,16.00,10.00,29.89,
TKC,2022-05-13 19:55,-95.6072,44.2491,72.70,41.70,250.00,15.00,22.00,10.00,29.90,
RRT,2022-05-13 19:55,-95.3483,48.9414,60.80,48.20,200.00,23.00,32.00,10.00,29.63,
Y19,2022-05-13 19:55,-100.8944,46.7680,53.60,44.60,250.00,30.00,42.00,10.00,29.64,
RUG,2022-05-13 19:55,-100.0243,48.3904,48.20,48.20,230.00,29.00,38.00,2.00,29.37,BR
08D,2022-05-13 19:55,-102.4064,48.3008,44.60,44.60,280.00,31.00,45.00,10.00,29.41,-RA
BAC,2022-05-13 19:55,-98.0180,46.9412,62.60,44.60,240.00,31.00,40.00,9.00,29.67,
ICL,2022-05-13 19:55,-95.0223,40.7242,78.80,51.80,290.00,7.00,,10.00,29.97,
IKV,2022-05-13 19:55,-93.5695,41.6878,75.20,51.80,250.00,5.00,10.00,10.00,29.97,
AIO,2022-05-13 19:55,-95.0465,41.4059,75.20,51.80,,6.00,11.00,10.00,29.95,
CBF,2022-05-13 19:55,-95.7604,41.2611,77.00,41.00,240.00,10.00,,10.00,29.94,
DEH,2022-05-13 19:55,-91.7433,43.2755,80.60,48.20,250.00,10.00,17.00,10.00,29.89,
IIB,2022-05-13 19:55,-91.9504,42.4544,78.00,50.40,240.00,13.00,18.00,10.00,29.96,
OLZ,2022-05-13 19:55,-91.9760,42.6831,78.80,50.00,250.00,13.00,,10.00,29.94,
RDK,2022-05-13 19:55,-95.2624,41.0106,78.80,44.60,260.00,7.00,12.00,10.00,29.96,
SHL,2022-05-13 19:55,-95.8353,43.2082,73.40,39.20,260.00,15.00,22.00,10.00,29.90,
SDA,2022-05-13 19:55,-95.4112,40.7533,78.80,44.60,0.00,0.00,11.00,10.00,29.94,
SLB,2022-05-13 19:55,-95.2399,42.5972,75.20,44.60,270.00,14.00,20.00,9.00,29.93,
AXA,2022-05-13 19:55,-94.2724,43.0796,75.20,50.00,280.00,11.00,18.00,10.00,29.92,
ADU,2022-05-13 19:55,-94.9204,41.6994,77.00,46.40,290.00,8.00,,10.00,29.97,
CIN,2022-05-13 19:55,-94.7889,42.0444,77.00,42.80,290.00,14.00,,10.00,29.94,
FXY,2022-05-13 19:55,-93.6237,43.2323,73.40,42.80,250.00,9.00,,10.00,29.94,
HNR,2022-05-13 19:55,-95.3355,41.5834,75.20,50.00,280.00,9.00,,10.00,29.96,
LRJ,2022-05-13 19:55,-96.1923,42.7754,75.20,42.80,260.00,7.00,14.00,10.00,29.91,
MUT,2022-05-13 19:55,-91.1406,41.3670,91.40,55.40,320.00,8.00,,10.00,29.88,
I75,2022-05-13 19:55,-93.6876,41.0472,79.50,51.30,290.00,9.00,,7.00,29.96,
PRO,2022-05-13 19:55,-94.1637,41.8278,78.00,46.40,310.00,9.00,14.00,10.00,29.95,
GGI,2022-05-13 19:55,-92.7332,41.7097,79.50,48.20,250.00,4.00,,10.00,29.98,
MXO,2022-05-13 19:55,-91.1605,42.2204,84.20,51.80,260.00,10.00,16.00,10.00,29.90,
EBS,2022-05-13 19:55,-93.8691,42.4392,75.20,48.20,320.00,8.00,14.00,10.00,29.93,
BNW,2022-05-13 19:55,-93.8486,42.0486,75.20,48.20,270.00,12.00,,10.00,29.96,
CAV,2022-05-13 19:55,-93.7593,42.7430,75.20,48.20,280.00,9.00,14.00,10.00,29.95,
DNS,2022-05-13 19:55,-95.3800,41.9842,77.00,48.20,,6.00,12.00,10.00,29.95,
FFL,2022-05-13 19:55,-91.9834,41.0521,86.00,50.00,260.00,9.00,16.00,7.00,29.92,
TNU,2022-05-13 19:55,-93.0190,41.6701,78.80,46.40,,6.00,12.00,9.00,29.96,
9V9,2022-05-13 19:55,-99.3183,43.7667,72.70,34.00,270.00,14.00,18.00,10.00,29.88,
96D,2022-05-13 19:55,-97.9028,48.9406,59.00,42.80,210.00,35.00,48.00,10.00,29.42,
ANW,2022-05-13 19:55,-99.9930,42.5792,73.80,23.00,240.00,16.00,22.00,10.00,29.93,
AUH,2022-05-13 19:55,-97.9946,40.8941,76.00,42.40,230.00,6.00,,10.00,29.98,
PMV,2022-05-13 19:55,-95.9179,40.9502,78.60,41.20,270.00,5.00,16.00,10.00,29.96,
CKN,2022-05-13 19:55,-96.6214,47.8417,64.40,,230.00,35.00,42.00,10.00,29.63,
FBL,2022-05-13 19:55,-93.3108,44.3247,71.60,48.20,240.00,9.00,,10.00,29.91,
FFM,2022-05-13 19:55,-96.1567,46.2844,69.80,48.20,240.00,28.00,35.00,10.00,29.76,
04W,2022-05-13 19:55,-92.8952,46.0229,73.40,51.80,210.00,12.00,16.00,10.00,29.86,
LXL,2022-05-13 19:55,-94.3469,45.9492,69.80,48.20,230.00,13.00,20.00,10.00,29.84,
JKJ,2022-05-13 19:55,-96.6640,46.8393,66.20,46.40,220.00,24.00,37.00,10.00,29.73,
VWU,2022-05-13 19:55,-94.5167,48.1539,68.00,48.20,240.00,15.00,21.00,10.00,29.70,
Y49,2022-05-13 19:55,-94.6453,47.1595,68.20,45.30,200.00,19.00,30.00,10.00,29.76,
GRN,2022-05-13 19:55,-102.1753,42.8060,67.30,28.00,260.00,13.00,23.00,10.00,29.95,
HPT,2022-05-13 19:55,-93.2244,42.7175,75.20,44.60,290.00,7.00,,10.00,29.93,
SXK,2022-05-13 19:55,-96.1614,42.9858,75.20,44.60,270.00,17.00,,10.00,29.91,
20U,2022-05-13 19:55,-103.9821,46.9252,50.00,44.60,280.00,29.00,35.00,10.00,29.71,
BWW,2022-05-13 19:55,-103.3007,46.1655,55.40,42.80,280.00,32.00,39.00,10.00,29.74,
9D7,2022-05-13 19:55,-99.2364,48.4800,50.00,,220.00,31.00,44.00,5.00,29.41,HZ
46D,2022-05-13 19:55,-99.1513,47.4511,57.20,44.60,230.00,24.00,39.00,10.00,29.59,
2C8,2022-05-13 19:55,-97.6320,48.7837,57.20,44.60,200.00,31.00,39.00,10.00,29.44,
D50,2022-05-13 19:55,-103.2973,48.9285,42.80,42.80,290.00,27.00,34.00,4.00,29.40,-DZ
D57,2022-05-13 19:55,-101.8602,46.8128,53.60,41.00,260.00,36.00,42.00,10.00,29.63,
GWR,2022-05-13 19:55,-97.6435,46.2187,66.20,50.00,230.00,27.00,37.00,10.00,29.73,
5H4,2022-05-13 19:55,-99.9317,47.7912,53.60,44.60,230.00,38.00,50.00,10.00,29.48,
2D5,2022-05-13 19:55,-98.0799,46.1731,66.20,48.20,220.00,23.00,34.00,9.00,29.74,
S32,2022-05-13 19:55,-98.1059,47.4228,59.00,46.40,220.00,31.00,41.00,10.00,29.61,
BWP,2022-05-13 19:55,-96.6074,46.2441,69.80,50.00,240.00,24.00,35.00,10.00,29.76,
S25,2022-05-13 19:55,-103.2552,47.7966,50.00,46.40,280.00,26.00,34.00,10.00,29.56,
BTN,2022-05-13 19:55,-97.7428,45.8150,68.00,46.40,230.00,28.00,39.00,10.00,29.76,
SPF,2022-05-13 19:55,-103.7830,44.4803,62.60,32.00,250.00,15.00,22.00,10.00,29.86,
BVN,2022-05-13 19:55,-98.0558,41.7286,75.20,39.00,230.00,11.00,16.00,10.00,29.96,
BIE,2022-05-13 19:55,-96.7541,40.3013,79.20,41.50,0.00,0.00,,10.00,29.97,
BTA,2022-05-13 19:55,-96.1090,41.4148,76.50,43.30,220.00,10.00,,10.00,29.95,
TVK,2022-05-13 19:55,-92.8983,40.6832,77.00,55.40,0.00,0.00,,10.00,29.98,
DLH,2022-05-13 19:55,-92.1936,46.8421,73.00,49.00,210.00,14.00,24.00,10.00,29.80,
BJI,2022-05-13 19:55,-94.9337,47.5094,68.70,45.00,220.00,19.00,27.00,10.00,29.73,
OOA,2022-05-13 19:55,-92.4919,41.2273,82.20,56.00,280.00,9.00,15.00,10.00,29.96,
PEA,2022-05-13 19:55,-92.9431,41.3989,76.50,53.00,240.00,7.00,,10.00,29.96,
AHQ,2022-05-13 19:55,-96.5946,41.2406,77.20,45.00,230.00,5.00,,10.00,29.96,
3N8,2022-05-13 19:55,-95.9281,47.2605,64.00,46.00,220.00,29.00,34.00,10.00,29.73,
PHP,2022-05-13 19:55,-101.6000,44.0500,70.00,33.00,240.00,16.00,27.00,10.00,29.84,
HON,2022-05-13 19:55,-98.2286,44.3852,74.00,38.00,260.00,16.00,28.00,10.00,29.86,
CKP,2022-05-13 19:55,-95.5538,42.7304,76.00,45.50,250.00,8.00,18.00,10.00,29.92,
LXN,2022-05-13 19:55,-99.7759,40.7904,74.00,33.80,0.00,0.00,,10.00,30.00,
D07,2022-05-13 19:56,-102.0200,45.0300,65.00,36.00,280.00,27.00,40.00,,29.80,
OFF,2022-05-13 19:56,-95.9125,41.1183,78.60,40.80,300.00,7.00,,10.00,29.96,
OTG,2022-05-13 19:56,-95.5792,43.6551,72.00,45.00,250.00,16.00,22.00,10.00,29.92,
GPZ,2022-05-13 19:56,-93.5097,47.2111,71.00,46.00,210.00,14.00,22.00,10.00,29.79,
MKT,2022-05-13 19:56,-93.9200,44.2200,72.00,48.00,240.00,13.00,,10.00,29.90,
EAR,2022-05-13 19:56,-99.0068,40.7270,75.00,39.00,250.00,10.00,18.00,10.00,30.00,
OFK,2022-05-13 19:56,-97.4351,41.9855,79.00,36.00,230.00,12.00,20.00,10.00,29.94,
GNA,2022-05-13 19:56,-90.3457,47.7453,47.00,41.00,80.00,9.00,,,29.84,
DIK,2022-05-13 19:56,-102.8019,46.7973,51.00,41.00,260.00,34.00,49.00,10.00,29.65,
CWI,2022-05-13 19:56,-90.3328,41.8295,91.00,57.00,0.00,0.00,,10.00,29.87,
RYM,2022-05-13 19:56,-94.3575,46.0895,71.40,47.70,230.00,14.00,21.00,10.00,29.82,
RCA,2022-05-13 19:56,-103.1036,44.1451,67.30,29.30,270.00,11.00,16.00,10.00,29.83,
FSD,2022-05-13 19:56,-96.7536,43.5769,75.00,43.00,260.00,12.00,21.00,10.00,29.91,
8D3,2022-05-13 19:56,-96.9914,45.6689,73.00,45.00,240.00,28.00,40.00,,29.76,
TVF,2022-05-13 19:56,-96.1850,48.0657,63.00,47.00,210.00,30.00,43.00,10.00,29.63,
FRM,2022-05-13 19:56,-94.4156,43.6439,73.00,49.00,260.00,16.00,19.00,10.00,29.92,
OLU,2022-05-13 19:56,-97.3426,41.4480,77.00,42.00,210.00,9.00,,10.00,29.97,
RDR,2022-05-13 19:56,-97.4012,47.9611,62.80,46.00,220.00,30.00,43.00,10.00,29.55,
FOD,2022-05-13 19:56,-94.2032,42.5497,75.00,49.00,,6.00,,10.00,29.95,
MML,2022-05-13 19:56,-95.8200,44.4500,72.00,47.00,260.00,20.00,26.00,10.00,29.88,
DVL,2022-05-13 19:56,-98.9083,48.1146,52.00,42.00,220.00,28.00,41.00,10.00,29.47,
MIB,2022-05-13 19:56,-101.3580,48.4158,48.40,33.00,280.00,33.00,39.00,10.00,29.32,
YKN,2022-05-13 19:56,-97.3859,42.9167,75.00,40.00,250.00,12.00,15.00,10.00,29.92,
JMS,2022-05-13 19:56,-98.6800,46.9300,62.00,44.00,230.00,32.00,43.00,10.00,29.64,
2WX,2022-05-13 19:56,-103.5464,45.6044,62.00,38.00,270.00,33.00,43.00,,29.74,
1HW,2022-05-13 19:58,-102.8289,41.3251,72.50,20.70,290.00,22.00,29.00,10.00,29.97,
1BW,2022-05-13 19:58,-103.9950,41.5117,64.40,17.20,270.00,25.00,35.00,10.00,30.03,
PNM,2022-05-13 20:15,-93.6082,45.5599,73.40,50.00,200.00,9.00,,10.00,29.87,
FSE,2022-05-13 20:15,-95.7735,47.5928,62.60,46.40,210.00,26.00,32.00,10.00,29.72,
SYN,2022-05-13 20:15,-93.0145,44.4736,74.00,46.40,240.00,8.00,,10.00,29.90,
MGG,2022-05-13 20:25,-93.9856,45.2360,71.60,48.20,210.00,7.00,14.00,10.00,29.88,
ORB,2022-05-13 20:33,-92.8560,48.0159,75.20,42.80,230.00,11.00,22.00,10.00,29.72,
XWA,2022-05-13 20:51,-103.7505,48.2597,47.00,41.00,290.00,28.00,46.00,10.00,29.55,
IOW,2022-05-13 20:52,-91.5445,41.6394,83.00,54.00,320.00,11.00,22.00,10.00,29.92,
VTN,2022-05-13 20:52,-100.5489,42.8567,77.00,26.10,250.00,22.00,33.00,10.00,29.91,
MBG,2022-05-13 20:52,-100.4078,45.5464,69.00,39.00,270.00,25.00,38.00,10.00,29.76,
IEN,2022-05-13 20:52,-102.5110,43.0225,70.00,32.00,240.00,11.00,23.00,10.00,29.91,
RAP,2022-05-13 20:52,-103.0574,44.0453,67.00,28.90,240.00,14.00,21.00,10.00,29.84,
OMA,2022-05-13 20:52,-95.8992,41.3103,82.00,42.00,260.00,7.00,,10.00,29.93,
SUX,2022-05-13 20:52,-96.3795,42.3917,79.00,40.00,280.00,13.00,21.00,10.00,29.91,
BIS,2022-05-13 20:52,-100.7458,46.7727,59.00,42.00,260.00,33.00,46.00,10.00,29.68,
CID,2022-05-13 20:52,-91.7246,41.8829,78.00,53.00,290.00,13.00,21.00,10.00,29.93,
N60,2022-05-13 20:52,-101.4394,47.6458,51.00,42.00,260.00,31.00,44.00,,29.54,
EST,2022-05-13 20:52,-94.7476,43.4008,76.00,46.00,280.00,13.00,,10.00,29.91,
DVN,2022-05-13 20:52,-90.5948,41.6133,92.00,57.00,,6.00,,10.00,29.87,
IML,2022-05-13 20:53,-101.6201,40.5103,75.00,28.00,190.00,15.00,28.00,10.00,29.98,
CDR,2022-05-13 20:53,-103.0954,42.8376,68.00,27.00,250.00,18.00,27.00,10.00,29.91,
MCK,2022-05-13 20:53,-100.5921,40.2063,77.00,27.00,120.00,9.00,,10.00,29.98,
AXN,2022-05-13 20:53,-95.3947,45.8663,72.00,46.00,230.00,25.00,31.00,10.00,29.85,
BRD,2022-05-13 20:53,-94.1308,46.4047,73.00,45.00,210.00,21.00,32.00,10.00,29.82,
HIB,2022-05-13 20:53,-92.8390,47.3866,70.00,46.00,190.00,9.00,21.00,10.00,29.79,
MSP,2022-05-13 20:53,-93.2313,44.8854,74.00,46.00,240.00,8.00,,10.00,29.89,
FCM,2022-05-13 20:53,-93.4607,44.8261,73.00,50.00,240.00,9.00,18.00,10.00,29.88,
PKD,2022-05-13 20:53,-95.0700,46.9000,70.00,45.00,240.00,22.00,35.00,10.00,29.78,
RWF,2022-05-13 20:53,-95.0820,44.5469,75.00,46.00,240.00,17.00,23.00,10.00,29.87,
HSI,2022-05-13 20:53,-98.4279,40.6052,77.00,34.00,,5.00,,10.00,29.98,
OWA,2022-05-13 20:53,-93.2606,44.1233,71.60,50.00,240.00,6.00,,10.00,29.92,
BFF,2022-05-13 20:53,-103.5956,41.8740,71.00,21.90,270.00,22.00,33.00,10.00,29.96,
AQP,2022-05-13 20:53,-96.0043,45.2275,75.20,41.00,240.00,17.00,25.00,10.00,29.84,
FOZ,2022-05-13 20:53,-93.6502,47.7828,73.40,46.40,210.00,18.00,29.00,10.00,29.80,
XVG,2022-05-13 20:53,-94.2039,46.9900,69.80,46.40,210.00,12.00,20.00,10.00,29.79,
AMW,2022-05-13 20:53,-93.6185,41.9904,79.00,48.00,290.00,5.00,,10.00,29.95,
SPW,2022-05-13 20:53,-95.2101,43.1682,78.00,41.00,250.00,16.00,24.00,10.00,29.91,
AIA,2022-05-13 20:53,-102.8000,42.0572,67.00,27.00,240.00,19.00,27.00,10.00,29.95,
ORB,2022-05-13 20:53,-92.8560,48.0159,75.20,42.80,200.00,13.00,21.00,10.00,29.73,
DVP,2022-05-13 20:53,-95.7826,43.9868,71.80,42.40,240.00,19.00,27.00,10.00,29.91,
GFK,2022-05-13 20:53,-97.1761,47.9492,66.00,46.00,230.00,26.00,48.00,10.00,29.60,
HEI,2022-05-13 20:53,-102.6560,46.0149,62.00,39.00,270.00,34.00,45.00,10.00,29.76,
CUT,2022-05-13 20:53,-103.6114,43.7331,57.00,21.00,220.00,14.00,27.00,10.00,29.92,
MHE,2022-05-13 20:53,-98.0386,43.7748,76.00,39.00,250.00,13.00,23.00,10.00,29.87,
ICR,2022-05-13 20:53,-99.8422,43.3903,76.00,36.00,250.00,16.00,26.00,10.00,29.87,
BBW,2022-05-13 20:53,-99.6385,41.4365,79.00,23.00,230.00,19.00,27.00,10.00,29.95,
STC,2022-05-13 20:53,-94.0513,45.5433,73.00,51.00,230.00,14.00,24.00,10.00,29.85,
ODX,2022-05-13 20:53,-98.9517,41.6236,77.00,35.00,200.00,13.00,22.00,10.00,29.93,
MIC,2022-05-13 20:53,-93.3511,45.0622,73.00,49.00,240.00,11.00,19.00,10.00,29.87,
GRI,2022-05-13 20:53,-98.3096,40.9675,79.00,38.00,250.00,9.00,,10.00,29.98,
ABR,2022-05-13 20:53,-98.4200,45.4500,72.00,44.00,250.00,27.00,41.00,10.00,29.80,
PIR,2022-05-13 20:53,-100.2860,44.3827,72.00,33.00,280.00,19.00,28.00,10.00,29.84,
ATY,2022-05-13 20:53,-97.1547,44.9140,72.00,38.00,250.00,27.00,40.00,10.00,29.84,
DBQ,2022-05-13 20:53,-90.7091,42.3984,85.00,56.00,280.00,16.00,,10.00,29.90,
MCW,2022-05-13 20:53,-93.3261,43.1544,74.00,47.00,230.00,8.00,,10.00,29.94,
BDE,2022-05-13 20:53,-94.6122,48.7284,67.00,47.00,210.00,23.00,42.00,10.00,29.68,
FNB,2022-05-13 20:53,-95.5920,40.0788,80.00,58.00,50.00,4.00,,10.00,29.94,
STP,2022-05-13 20:53,-93.0600,44.9345,74.00,51.00,230.00,10.00,17.00,10.00,29.89,
BRL,2022-05-13 20:53,-91.1255,40.7729,89.00,56.00,290.00,7.00,,9.00,29.86,
MIW,2022-05-13 20:53,-92.9163,42.1106,78.00,47.00,210.00,9.00,15.00,10.00,29.94,
OTM,2022-05-13 20:53,-92.4446,41.1008,80.00,60.00,300.00,8.00,,8.00,29.93,
FAR,2022-05-13 20:53,-96.8111,46.9253,69.00,44.00,220.00,32.00,41.00,10.00,29.71,
SNY,2022-05-13 20:53,-102.9847,41.1014,74.00,18.00,280.00,16.00,26.00,10.00,29.98,
LWD,2022-05-13 20:53,-93.9005,40.6306,80.00,59.00,320.00,6.00,,10.00,29.94,
LBF,2022-05-13 20:53,-100.6690,41.1219,78.00,30.00,230.00,9.00,19.00,10.00,29.95,
ALO,2022-05-13 20:54,-92.4013,42.5544,77.00,45.00,260.00,10.00,,10.00,29.93,
DSM,2022-05-13 20:54,-93.6531,41.5339,79.00,48.00,260.00,5.00,,10.00,29.94,
INL,2022-05-13 20:54,-93.3956,48.5595,73.00,46.00,190.00,13.00,29.00,10.00,29.69,
RST,2022-05-13 20:54,-92.4916,43.9041,74.00,45.00,220.00,10.00,,10.00,29.93,
MOT,2022-05-13 20:54,-101.2803,48.2594,50.00,41.00,230.00,31.00,48.00,10.00,29.41,
LNK,2022-05-13 20:54,-96.7633,40.8312,81.00,42.00,270.00,7.00,,10.00,29.95,
TQE,2022-05-13 20:54,-96.1779,41.7635,81.00,42.00,280.00,10.00,,10.00,29.92,
CCY,2022-05-13 20:55,-92.6132,43.0730,71.60,46.40,280.00,9.00,,10.00,29.94,
VTI,2022-05-13 20:55,-92.0248,42.2176,81.00,42.30,220.00,7.00,,10.00,29.95,
CNC,2022-05-13 20:55,-93.3608,41.0184,77.00,55.40,,4.00,10.00,10.00,29.94,
CSQ,2022-05-13 20:55,-94.3608,41.0188,78.80,53.60,290.00,9.00,,10.00,29.95,
FSW,2022-05-13 20:55,-91.3267,40.6615,89.60,57.20,310.00,5.00,,10.00,29.87,
AWG,2022-05-13 20:55,-91.6748,41.2751,86.00,55.40,300.00,14.00,,10.00,29.89,
SGS,2022-05-13 20:55,-93.0329,44.8571,73.60,47.50,210.00,7.00,16.00,10.00,29.90,
ACQ,2022-05-13 20:55,-93.5529,44.0735,73.40,48.20,230.00,13.00,17.00,,29.93,
EOK,2022-05-13 20:55,-91.4274,40.4615,89.60,62.60,300.00,7.00,,4.00,29.87,HZ
MPZ,2022-05-13 20:55,-91.5122,40.9453,86.00,51.80,300.00,10.00,14.00,10.00,29.89,
AEL,2022-05-13 20:55,-93.3672,43.6815,73.40,44.60,260.00,7.00,,10.00,29.93,
PNM,2022-05-13 20:55,-93.6082,45.5599,73.40,50.00,240.00,8.00,17.00,10.00,29.86,
HZE,2022-05-13 20:55,-101.5810,47.2899,51.80,46.40,260.00,21.00,32.00,9.00,29.62,
D55,2022-05-13 20:55,-98.3937,48.7531,53.60,51.80,210.00,36.00,50.00,10.00,29.43,
7L2,2022-05-13 20:55,-100.2456,46.2206,62.60,42.80,260.00,27.00,35.00,9.00,29.75,
06D,2022-05-13 20:55,-99.6208,48.8844,46.40,46.40,220.00,32.00,42.00,10.00,29.31,-RA
D60,2022-05-13 20:55,-102.8974,48.3803,44.60,44.60,280.00,32.00,41.00,10.00,29.48,
IBM,2022-05-13 20:55,-103.6774,41.1881,67.50,20.10,280.00,15.00,27.00,10.00,30.02,
AIT,2022-05-13 20:55,-93.6768,46.5484,71.60,46.40,210.00,14.00,22.00,10.00,29.82,
AUM,2022-05-13 20:55,-92.9333,43.6647,73.40,46.40,230.00,8.00,,10.00,29.94,
GHW,2022-05-13 20:55,-95.3204,45.6439,71.60,48.20,230.00,19.00,27.00,10.00,29.86,
ULM,2022-05-13 20:55,-94.5000,44.3200,73.40,46.40,260.00,15.00,,10.00,29.89,
OGA,2022-05-13 20:55,-101.7697,41.1195,71.80,26.20,220.00,10.00,18.00,10.00,29.96,
BJI,2022-05-13 20:55,-94.9337,47.5094,67.50,45.00,210.00,15.00,28.00,10.00,29.75,
COQ,2022-05-13 20:55,-92.5036,46.7011,73.40,39.20,230.00,11.00,24.00,10.00,29.81,
DTL,2022-05-13 20:55,-95.8856,46.8252,66.20,46.40,230.00,18.00,29.00,10.00,29.78,
ELO,2022-05-13 20:55,-91.8371,47.8287,75.20,42.80,210.00,9.00,19.00,10.00,29.77,
FSE,2022-05-13 20:55,-95.7735,47.5928,62.60,44.60,210.00,25.00,33.00,10.00,29.73,
HCO,2022-05-13 20:55,-96.9430,48.7527,62.60,46.40,200.00,29.00,39.00,10.00,29.53,
HCD,2022-05-13 20:55,-94.3825,44.8599,74.50,52.20,240.00,11.00,15.00,10.00,29.89,
MJQ,2022-05-13 20:55,-94.9865,43.6500,73.40,41.00,280.00,13.00,20.00,10.00,29.92,
JMR,2022-05-13 20:55,-93.2718,45.8861,69.80,50.00,220.00,11.00,16.00,10.00,29.88,
PQN,2022-05-13 20:55,-96.3004,43.9821,71.60,46.40,270.00,18.00,24.00,10.00,29.90,
RGK,2022-05-13 20:55,-92.4868,44.5915,78.80,44.60,250.00,7.00,,10.00,29.88,
ROX,2022-05-13 20:55,-95.6971,48.8560,64.40,46.40,200.00,27.00,38.00,10.00,29.61,
ONA,2022-05-13 20:55,-91.7083,44.0772,80.60,50.00,250.00,5.00,,10.00,29.89,
FET,2022-05-13 20:55,-96.5200,41.4500,79.30,42.40,290.00,5.00,,10.00,29.94,
HJH,2022-05-13 20:55,-97.5870,40.1523,79.50,34.50,290.00,3.00,,10.00,29.96,
HDE,2022-05-13 20:55,-99.3365,40.4521,74.50,34.00,260.00,8.00,,10.00,29.99,
LXN,2022-05-13 20:55,-99.7759,40.7904,75.40,37.00,190.00,8.00,,10.00,29.98,
MLE,2022-05-13 20:55,-96.1120,41.1960,79.30,40.60,270.00,3.00,,10.00,29.94,
ONL,2022-05-13 20:55,-98.6881,42.4697,75.60,33.40,200.00,10.00,,10.00,29.91,
TIF,2022-05-13 20:55,-100.5690,41.9622,74.30,28.00,270.00,22.00,30.00,10.00,29.95,
LCG,2022-05-13 20:55,-96.9814,42.2419,79.50,35.40,250.00,10.00,19.00,10.00,29.93,
JYR,2022-05-13 20:55,-97.6228,40.8967,75.20,48.20,200.00,4.00,,10.00,29.97,
BBB,2022-05-13 20:55,-95.6506,45.3319,71.60,50.00,260.00,19.00,23.00,10.00,29.86,
CQM,2022-05-13 20:55,-92.6894,47.8219,73.40,42.80,210.00,10.00,22.00,10.00,29.76,
DYT,2022-05-13 20:55,-92.0434,46.7219,46.40,42.80,20.00,3.00,,10.00,29.82,
FGN,2022-05-13 20:55,-94.9028,49.3183,44.60,35.60,170.00,17.00,,10.00,29.64,
GYL,2022-05-13 20:55,-94.0812,44.7560,71.80,53.40,230.00,6.00,,10.00,29.89,
DXX,2022-05-13 20:55,-96.1779,44.9864,75.20,42.80,240.00,17.00,30.00,10.00,29.86,
LVN,2022-05-13 20:55,-93.2273,44.6252,71.60,44.60,210.00,3.00,,10.00,29.90,
MZH,2022-05-13 20:55,-92.8048,46.4186,73.40,46.40,200.00,10.00,18.00,10.00,29.84,
PWC,2022-05-13 20:55,-94.3817,46.7248,71.60,48.20,220.00,14.00,25.00,10.00,29.84,
ROS,2022-05-13 20:55,-92.9530,45.6980,71.60,46.00,240.00,9.00,16.00,10.00,29.87,
JYG,2022-05-13 20:55,-94.5579,43.9863,75.20,42.80,250.00,16.00,21.00,10.00,29.89,
BDH,2022-05-13 20:55,-95.1304,45.1177,73.40,48.20,250.00,16.00,23.00,10.00,29.89,
MWM,2022-05-13 20:55,-95.1094,43.9134,73.40,39.20,230.00,16.00,,10.00,29.89,
CFE,2022-05-13 20:55,-93.8433,45.1590,71.60,51.80,230.00,12.00,17.00,10.00,29.87,
TOB,2022-05-13 20:55,-92.8315,44.0180,75.20,44.60,230.00,12.00,16.00,10.00,29.93,
Y63,2022-05-13 20:55,-95.9920,45.9861,70.70,46.60,240.00,22.00,28.00,10.00,29.82,
14Y,2022-05-13 20:55,-94.8739,45.8983,68.00,48.20,230.00,12.00,22.00,10.00,29.86,
LYV,2022-05-13 20:55,-96.2158,43.6212,73.40,37.40,260.00,16.00,21.00,10.00,29.91,
HZX,2022-05-13 20:55,-93.3098,46.6188,69.80,48.20,200.00,13.00,21.00,10.00,29.84,
OVL,2022-05-13 20:55,-95.0328,44.7786,71.60,50.00,280.00,15.00,22.00,10.00,29.87,
VVV,2022-05-13 20:55,-96.4244,45.3057,73.40,42.80,240.00,18.00,32.00,10.00,29.82,
PEX,2022-05-13 20:55,-94.7466,45.3723,69.80,48.20,260.00,16.00,23.00,10.00,29.88,
9MN,2022-05-13 20:55,-92.4831,44.0198,74.70,43.70,230.00,7.00,,10.00,29.92,
D39,2022-05-13 20:55,-94.9334,45.7066,69.30,49.60,250.00,19.00,24.00,10.00,29.85,
SAZ,2022-05-13 20:55,-94.8066,46.3809,71.60,46.40,220.00,15.00,22.00,10.00,29.83,
21D,2022-05-13 20:55,-92.8557,44.9975,71.60,48.20,260.00,9.00,15.00,10.00,29.90,
TKC,2022-05-13 20:55,-95.6072,44.2491,73.20,38.80,260.00,13.00,20.00,10.00,29.89,
RRT,2022-05-13 20:55,-95.3483,48.9414,62.60,50.00,190.00,18.00,26.00,10.00,29.63,
RUG,2022-05-13 20:55,-100.0243,48.3904,48.20,48.20,240.00,33.00,41.00,2.50,29.41,BR
S25,2022-05-13 20:55,-103.2552,47.7966,48.20,46.40,280.00,19.00,32.00,10.00,29.59,
IKV,2022-05-13 20:55,-93.5695,41.6878,75.20,51.80,,6.00,,10.00,29.96,
AIO,2022-05-13 20:55,-95.0465,41.4059,77.00,48.20,260.00,5.00,11.00,10.00,29.94,
CKP,2022-05-13 20:55,-95.5538,42.7304,76.50,43.30,230.00,7.00,,10.00,29.91,
ICL,2022-05-13 20:55,-95.0223,40.7242,78.80,51.80,310.00,5.00,,10.00,29.96,
DEH,2022-05-13 20:55,-91.7433,43.2755,78.80,48.20,250.00,9.00,17.00,10.00,29.92,
IIB,2022-05-13 20:55,-91.9504,42.4544,76.30,48.70,260.00,9.00,,10.00,29.96,
OLZ,2022-05-13 20:55,-91.9760,42.6831,77.00,42.80,260.00,11.00,,10.00,29.93,
RDK,2022-05-13 20:55,-95.2624,41.0106,78.80,44.60,250.00,6.00,,10.00,29.94,
SHL,2022-05-13 20:55,-95.8353,43.2082,77.00,33.80,240.00,18.00,,10.00,29.89,
SDA,2022-05-13 20:55,-95.4112,40.7533,78.80,44.60,310.00,4.00,,10.00,29.93,
SLB,2022-05-13 20:55,-95.2399,42.5972,78.80,41.00,260.00,14.00,,10.00,29.93,
AXA,2022-05-13 20:55,-94.2724,43.0796,77.00,46.40,240.00,11.00,18.00,10.00,29.91,
ADU,2022-05-13 20:55,-94.9204,41.6994,78.80,44.60,280.00,5.00,,10.00,29.96,
CIN,2022-05-13 20:55,-94.7889,42.0444,78.80,37.40,270.00,13.00,,10.00,29.93,
FXY,2022-05-13 20:55,-93.6237,43.2323,77.00,42.80,210.00,5.00,,10.00,29.93,
HNR,2022-05-13 20:55,-95.3355,41.5834,78.80,46.40,260.00,8.00,15.00,10.00,29.94,
LRJ,2022-05-13 20:55,-96.1923,42.7754,78.80,39.20,240.00,14.00,20.00,10.00,29.90,
MUT,2022-05-13 20:55,-91.1406,41.3670,89.60,51.80,270.00,13.00,19.00,10.00,29.88,
I75,2022-05-13 20:55,-93.6876,41.0472,80.00,51.30,300.00,6.00,,7.00,29.95,
OOA,2022-05-13 20:55,-92.4919,41.2273,83.70,52.30,310.00,6.00,,10.00,29.94,
PRO,2022-05-13 20:55,-94.1637,41.8278,80.60,42.30,270.00,7.00,14.00,7.00,29.94,
MXO,2022-05-13 20:55,-91.1605,42.2204,82.40,51.80,260.00,10.00,17.00,10.00,29.90,
EBS,2022-05-13 20:55,-93.8691,42.4392,78.80,48.20,310.00,8.00,13.00,10.00,29.93,
BNW,2022-05-13 20:55,-93.8486,42.0486,77.00,50.00,300.00,9.00,,10.00,29.97,
CAV,2022-05-13 20:55,-93.7593,42.7430,78.80,46.40,250.00,12.00,19.00,10.00,29.93,
DNS,2022-05-13 20:55,-95.3800,41.9842,77.00,44.60,270.00,9.00,,10.00,29.95,
FFL,2022-05-13 20:55,-91.9834,41.0521,84.20,53.60,280.00,12.00,,10.00,29.92,
TNU,2022-05-13 20:55,-93.0190,41.6701,78.80,46.40,320.00,8.00,,10.00,29.94,
9V9,2022-05-13 20:55,-99.3183,43.7667,74.00,31.30,260.00,15.00,24.00,10.00,29.88,
ANW,2022-05-13 20:55,-99.9930,42.5792,74.30,19.20,250.00,19.00,25.00,10.00,29.92,
AHQ,2022-05-13 20:55,-96.5946,41.2406,80.00,42.30,240.00,5.00,,10.00,29.95,
CKN,2022-05-13 20:55,-96.6214,47.8417,64.40,,230.00,31.00,41.00,10.00,29.66,
FBL,2022-05-13 20:55,-93.3108,44.3247,71.60,48.20,220.00,10.00,,10.00,29.92,
FFM,2022-05-13 20:55,-96.1567,46.2844,71.60,48.20,250.00,20.00,32.00,10.00,29.76,
LXL,2022-05-13 20:55,-94.3469,45.9492,71.60,48.20,240.00,15.00,19.00,10.00,29.85,
AUH,2022-05-13 20:55,-97.9946,40.8941,77.50,39.60,250.00,6.00,,10.00,29.98,
04W,2022-05-13 20:55,-92.8952,46.0229,71.60,50.00,220.00,13.00,18.00,10.00,29.85,
JKJ,2022-05-13 20:55,-96.6640,46.8393,69.80,46.40,230.00,26.00,32.00,10.00,29.73,
VWU,2022-05-13 20:55,-94.5167,48.1539,71.60,48.20,230.00,13.00,28.00,10.00,29.71,
Y49,2022-05-13 20:55,-94.6453,47.1595,68.50,45.00,230.00,18.00,29.00,10.00,29.77,
GRN,2022-05-13 20:55,-102.1753,42.8060,68.40,27.10,240.00,11.00,19.00,10.00,29.93,
HPT,2022-05-13 20:55,-93.2244,42.7175,77.00,44.60,260.00,7.00,,10.00,29.94,
SXK,2022-05-13 20:55,-96.1614,42.9858,77.00,41.00,260.00,19.00,24.00,10.00,29.89,
TVK,2022-05-13 20:55,-92.8983,40.6832,77.00,53.60,350.00,9.00,,10.00,29.96,
20U,2022-05-13 20:55,-103.9821,46.9252,53.60,44.60,290.00,26.00,36.00,10.00,29.72,
BWW,2022-05-13 20:55,-103.3007,46.1655,59.00,41.00,270.00,29.00,38.00,10.00,29.76,
9D7,2022-05-13 20:55,-99.2364,48.4800,50.00,,220.00,32.00,44.00,4.00,29.43,HZ
46D,2022-05-13 20:55,-99.1513,47.4511,60.80,46.40,240.00,30.00,40.00,10.00,29.61,
2C8,2022-05-13 20:55,-97.6320,48.7837,57.20,42.80,210.00,30.00,41.00,10.00,29.48,
D50,2022-05-13 20:55,-103.2973,48.9285,44.60,42.80,280.00,23.00,33.00,8.00,29.44,-RA
D57,2022-05-13 20:55,-101.8602,46.8128,53.60,41.00,260.00,31.00,38.00,10.00,29.67,
GWR,2022-05-13 20:55,-97.6435,46.2187,68.00,50.00,240.00,34.00,43.00,10.00,29.74,
5H4,2022-05-13 20:55,-99.9317,47.7912,53.60,42.80,,,,10.00,29.53,
Y19,2022-05-13 20:55,-100.8944,46.7680,57.20,44.60,260.00,32.00,42.00,10.00,29.67,
2D5,2022-05-13 20:55,-98.0799,46.1731,66.20,46.40,240.00,31.00,37.00,9.00,29.75,
S32,2022-05-13 20:55,-98.1059,47.4228,60.80,46.40,230.00,38.00,47.00,10.00,29.63,
08D,2022-05-13 20:55,-102.4064,48.3008,46.40,46.40,280.00,31.00,45.00,10.00,29.45,
BAC,2022-05-13 20:55,-98.0180,46.9412,62.60,46.40,230.00,34.00,43.00,10.00,29.68,
BWP,2022-05-13 20:55,-96.6074,46.2441,71.60,50.00,250.00,26.00,34.00,10.00,29.76,
96D,2022-05-13 20:55,-97.9028,48.9406,55.40,42.80,210.00,24.00,42.00,10.00,29.46,
BTN,2022-05-13 20:55,-97.7428,45.8150,68.00,46.40,240.00,23.00,35.00,10.00,29.78,
HON,2022-05-13 20:55,-98.2286,44.3852,75.00,36.00,250.00,15.00,27.00,10.00,29.86,
SPF,2022-05-13 20:55,-103.7830,44.4803,64.40,28.40,270.00,12.00,18.00,10.00,29.85,
BVN,2022-05-13 20:55,-98.0558,41.7286,76.50,39.20,240.00,15.00,,10.00,29.95,
BIE,2022-05-13 20:55,-96.7541,40.3013,80.80,34.50,250.00,4.00,,10.00,29.95,
BTA,2022-05-13 20:55,-96.1090,41.4148,78.30,41.40,240.00,9.00,,10.00,29.95,
CBF,2022-05-13 20:55,-95.7604,41.2611,77.00,39.20,240.00,8.00,,10.00,29.93,
IFA,2022-05-13 20:55,-93.2651,42.4691,78.00,43.20,280.00,10.00,16.00,10.00,29.96,
OXV,2022-05-13 20:55,-93.1114,41.2984,78.80,50.00,320.00,4.00,11.00,10.00,29.94,
DLH,2022-05-13 20:55,-92.1936,46.8421,73.00,47.00,210.00,19.00,26.00,10.00,29.82,
AFK,2022-05-13 20:55,-95.8657,40.6069,79.20,44.00,0.00,0.00,,10.00,29.95,
PEA,2022-05-13 20:55,-92.9431,41.3989,78.30,53.00,270.00,8.00,,10.00,29.95,
3N8,2022-05-13 20:55,-95.9281,47.2605,65.70,46.00,220.00,27.00,36.00,10.00,29.73,
PHP,2022-05-13 20:55,-101.6000,44.0500,72.00,35.00,240.00,14.00,24.00,10.00,29.84,
PMV,2022-05-13 20:55,-95.9179,40.9502,82.00,38.00,240.00,4.00,,10.00,29.94,
GDB,2022-05-13 20:55,-95.5560,44.7533,74.00,50.70,230.00,17.00,25.00,10.00,29.89,
FKA,2022-05-13 20:55,-92.1797,43.6767,76.00,41.50,230.00,8.00,,10.00,29.94,
SYN,2022-05-13 20:55,-93.0145,44.4736,74.00,47.30,250.00,8.00,,10.00,29.90,
GGI,2022-05-13 20:55,-92.7332,41.7097,81.00,46.60,300.00,5.00,,10.00,29.96,
FRM,2022-05-13 20:56,-94.4156,43.6439,76.00,48.00,260.00,13.00,20.00,10.00,29.91,
TVF,2022-05-13 20:56,-96.1850,48.0657,64.00,46.00,220.00,34.00,45.00,10.00,29.65,
OLU,2022-05-13 20:56,-97.3426,41.4480,80.00,39.00,240.00,7.00,,10.00,29.95,
EAR,2022-05-13 20:56,-99.0068,40.7270,76.00,39.00,220.00,8.00,,10.00,29.99,
OFK,2022-05-13 20:56,-97.4351,41.9855,80.00,37.00,260.00,14.00,20.00,10.00,29.93,
GNA,2022-05-13 20:56,-90.3457,47.7453,46.00,41.00,70.00,7.00,,,29.82,
RDR,2022-05-13 20:56,-97.4012,47.9611,64.00,45.50,230.00,32.00,43.00,10.00,29.57,
MML,2022-05-13 20:56,-95.8200,44.4500,73.00,46.00,260.00,19.00,,10.00,29.88,
RYM,2022-05-13 20:56,-94.3575,46.0895,73.20,48.70,250.00,16.00,24.00,10.00,29.83,
DVL,2022-05-13 20:56,-98.9083,48.1146,54.00,41.00,230.00,36.00,45.00,10.00,29.51,
DIK,2022-05-13 20:56,-102.8019,46.7973,53.00,41.00,270.00,28.00,45.00,10.00,29.67,
RCA,2022-05-13 20:56,-103.1036,44.1451,69.60,30.20,270.00,9.00,,10.00,29.82,
D07,2022-05-13 20:56,-102.0200,45.0300,66.00,36.00,280.00,20.00,34.00,,29.81,
FSD,2022-05-13 20:56,-96.7536,43.5769,76.00,41.00,230.00,12.00,21.00,10.00,29.90,
GPZ,2022-05-13 20:56,-93.5097,47.2111,72.00,47.00,200.00,11.00,22.00,10.00,29.80,
OTG,2022-05-13 20:56,-95.5792,43.6551,73.00,44.00,240.00,16.00,25.00,10.00,29.91,
MKT,2022-05-13 20:56,-93.9200,44.2200,73.00,49.00,240.00,13.00,19.00,10.00,29.91,
CWI,2022-05-13 20:56,-90.3328,41.8295,93.00,58.00,270.00,8.00,,10.00,29.86,
OFF,2022-05-13 20:56,-95.9125,41.1183,81.30,42.00,270.00,6.00,,10.00,29.95,
2WX,2022-05-13 20:56,-103.5464,45.6044,64.00,38.00,280.00,24.00,36.00,,29.75,
JMS,2022-05-13 20:56,-98.6800,46.9300,62.00,42.00,240.00,22.00,41.00,10.00,29.68,
FOD,2022-05-13 20:56,-94.2032,42.5497,78.00,47.00,220.00,9.00,,10.00,29.94,
8D3,2022-05-13 20:56,-96.9914,45.6689,74.00,44.00,240.00,27.00,38.00,,29.77,
YKN,2022-05-13 20:56,-97.3859,42.9167,76.00,38.00,230.00,9.00,17.00,10.00,29.90,
1HW,2022-05-13 20:58,-102.8289,41.3251,69.60,25.50,360.00,12.00,,10.00,29.97,
1BW,2022-05-13 20:58,-103.9950,41.5117,66.00,17.10,280.00,26.00,37.00,10.00,30.01,
